{"type":"FeatureCollection","features":[{"type":"Feature","properties":{"KECAMATAN":"Bandongan"},"geometry":{"type":"Polygon","coordinates":[[[110.1388,-7.44435],[110.13883,-7.44445],[110.13886,-7.44449],[110.13895,-7.44454],[110.13907,-7.4446],[110.13917,-7.44464],[110.13925,-7.44465],[110.13946,-7.44469],[110.13963,-7.44474],[110.1398,-7.44492],[110.13982,-7.44494],[110.13989,-7.445],[110.14002,-7.44513],[110.13988,-7.44537],[110.13986,-7.4454],[110.13973,-7.44556],[110.13979,-7.4456],[110.14011,-7.44576],[110.14007,-7.44582],[110.14,-7.44597],[110.13998,-7.44601],[110.13992,-7.44612],[110.13982,-7.44628],[110.13979,-7.44636],[110.14006,-7.44645],[110.14019,-7.44648],[110.14026,-7.44649],[110.14031,-7.44662],[110.14034,-7.44681],[110.14035,-7.44686],[110.14038,-7.44696],[110.14043,-7.44711],[110.14054,-7.44727],[110.1406,-7.44732],[110.14096,-7.44745],[110.14128,-7.44767],[110.14173,-7.44806],[110.14213,-7.44844],[110.14236,-7.44863],[110.14245,-7.44883],[110.14257,-7.44897],[110.14269,-7.4491],[110.1428,-7.44919],[110.14302,-7.4494],[110.14325,-7.44946],[110.14335,-7.44955],[110.14339,-7.44961],[110.14344,-7.44986],[110.14347,-7.44994],[110.14353,-7.45013],[110.14354,-7.45027],[110.14355,-7.45029],[110.14354,-7.45039],[110.14344,-7.45056],[110.14327,-7.45088],[110.14321,-7.451],[110.14315,-7.45113],[110.14295,-7.45167],[110.14294,-7.4517],[110.14285,-7.45188],[110.14284,-7.45194],[110.14281,-7.45205],[110.1428,-7.45218],[110.14275,-7.45271],[110.14274,-7.45289],[110.14279,-7.4531],[110.14286,-7.45347],[110.1438,-7.45523],[110.1439,-7.45541],[110.14421,-7.45664],[110.14423,-7.45688],[110.14425,-7.45717],[110.14432,-7.45729],[110.14437,-7.45739],[110.14443,-7.45746],[110.14447,-7.45753],[110.14459,-7.4577],[110.14461,-7.45772],[110.14462,-7.45777],[110.14461,-7.45783],[110.14457,-7.45789],[110.14456,-7.45792],[110.14456,-7.45795],[110.14458,-7.45797],[110.14461,-7.45799],[110.14466,-7.45803],[110.1447,-7.45806],[110.14471,-7.45807],[110.14478,-7.45812],[110.14492,-7.45827],[110.14501,-7.45833],[110.14506,-7.45836],[110.14508,-7.45837],[110.14531,-7.45845],[110.14549,-7.45855],[110.14563,-7.45856],[110.1457,-7.45856],[110.1458,-7.45858],[110.14589,-7.45859],[110.14595,-7.45864],[110.146,-7.45868],[110.14606,-7.45872],[110.14614,-7.45876],[110.14615,-7.45877],[110.14619,-7.45878],[110.1463,-7.45886],[110.14637,-7.45888],[110.14646,-7.45889],[110.14654,-7.45888],[110.14661,-7.45885],[110.14671,-7.4588],[110.14672,-7.45879],[110.14676,-7.45876],[110.1468,-7.45872],[110.14683,-7.45871],[110.1469,-7.4587],[110.14698,-7.4587],[110.14707,-7.45874],[110.14713,-7.45878],[110.14726,-7.45887],[110.14736,-7.45892],[110.14745,-7.45897],[110.14761,-7.45901],[110.14767,-7.45903],[110.1477,-7.45907],[110.14772,-7.45913],[110.14772,-7.45916],[110.14774,-7.4592],[110.14776,-7.45923],[110.14779,-7.45924],[110.14788,-7.45926],[110.148,-7.45929],[110.14803,-7.45931],[110.14806,-7.45934],[110.14814,-7.45947],[110.14816,-7.45954],[110.14822,-7.45965],[110.14825,-7.45972],[110.14827,-7.45977],[110.14825,-7.45984],[110.14822,-7.45993],[110.14821,-7.45999],[110.14823,-7.46004],[110.14824,-7.4601],[110.14827,-7.46016],[110.14829,-7.46019],[110.14833,-7.46023],[110.14838,-7.46027],[110.14842,-7.4603],[110.14847,-7.46031],[110.14852,-7.46031],[110.14859,-7.4603],[110.14863,-7.46029],[110.14868,-7.46029],[110.14872,-7.4603],[110.14875,-7.46033],[110.1488,-7.46037],[110.14882,-7.46039],[110.14885,-7.46043],[110.14891,-7.46047],[110.14895,-7.46049],[110.149,-7.46053],[110.14902,-7.46055],[110.14904,-7.46058],[110.14908,-7.46063],[110.14911,-7.46066],[110.14915,-7.46066],[110.14919,-7.46065],[110.1492,-7.46062],[110.1492,-7.46059],[110.14921,-7.46056],[110.14923,-7.46052],[110.14928,-7.46049],[110.14932,-7.46048],[110.14939,-7.4605],[110.14947,-7.46053],[110.1496,-7.46059],[110.14971,-7.4607],[110.14972,-7.46072],[110.14976,-7.46074],[110.14979,-7.46074],[110.14981,-7.46073],[110.14984,-7.46071],[110.14992,-7.46067],[110.14997,-7.46066],[110.15002,-7.46067],[110.15009,-7.46069],[110.15014,-7.46072],[110.15017,-7.46076],[110.15018,-7.46077],[110.15021,-7.46081],[110.15027,-7.46081],[110.15029,-7.46078],[110.1503,-7.46077],[110.15035,-7.46074],[110.15051,-7.4607],[110.15059,-7.46069],[110.15062,-7.46071],[110.15063,-7.46074],[110.15062,-7.46079],[110.15061,-7.46087],[110.15061,-7.46091],[110.15063,-7.46095],[110.15081,-7.4611],[110.15087,-7.46119],[110.15091,-7.46126],[110.15096,-7.46135],[110.15099,-7.46141],[110.15104,-7.46149],[110.15125,-7.46177],[110.1514,-7.46201],[110.15155,-7.46226],[110.15171,-7.46244],[110.15186,-7.46259],[110.15199,-7.46266],[110.15209,-7.46267],[110.15233,-7.46274],[110.15245,-7.46279],[110.15253,-7.46282],[110.15259,-7.46286],[110.15261,-7.46288],[110.15262,-7.4629],[110.15264,-7.46297],[110.15262,-7.46309],[110.15247,-7.46326],[110.1524,-7.46335],[110.15235,-7.46345],[110.15231,-7.46356],[110.15225,-7.4638],[110.1522,-7.46401],[110.15217,-7.46426],[110.15213,-7.46427],[110.1521,-7.46427],[110.15201,-7.46425],[110.15186,-7.46421],[110.15165,-7.46424],[110.15155,-7.46426],[110.15147,-7.4643],[110.15142,-7.46434],[110.15139,-7.4644],[110.15137,-7.46442],[110.15131,-7.4645],[110.15129,-7.46451],[110.15129,-7.46453],[110.15131,-7.46456],[110.15132,-7.46458],[110.15131,-7.46461],[110.15123,-7.46469],[110.15124,-7.46472],[110.15126,-7.46476],[110.15124,-7.46479],[110.15118,-7.46485],[110.15115,-7.4649],[110.15114,-7.46495],[110.15117,-7.46501],[110.15119,-7.46504],[110.15121,-7.46508],[110.15122,-7.46512],[110.15122,-7.46515],[110.15123,-7.46518],[110.15123,-7.46521],[110.15125,-7.46528],[110.15126,-7.46529],[110.15128,-7.46532],[110.1513,-7.46534],[110.15134,-7.46537],[110.15136,-7.4654],[110.15143,-7.46547],[110.15145,-7.4655],[110.15146,-7.46551],[110.15148,-7.46554],[110.15148,-7.46558],[110.15146,-7.4657],[110.15146,-7.46575],[110.15147,-7.46581],[110.1515,-7.46591],[110.15152,-7.46595],[110.15154,-7.466],[110.15159,-7.46604],[110.15162,-7.46607],[110.15163,-7.4661],[110.15163,-7.46613],[110.15164,-7.46616],[110.15165,-7.46618],[110.15171,-7.46627],[110.15176,-7.4663],[110.1518,-7.46632],[110.15182,-7.46634],[110.15183,-7.46636],[110.15185,-7.46638],[110.15187,-7.46641],[110.1519,-7.46644],[110.15187,-7.46655],[110.15187,-7.46661],[110.15189,-7.46665],[110.15193,-7.4667],[110.15195,-7.46673],[110.15195,-7.46675],[110.15202,-7.46679],[110.15213,-7.46687],[110.15221,-7.46694],[110.15225,-7.46699],[110.1523,-7.46706],[110.15235,-7.46712],[110.15237,-7.46715],[110.15244,-7.46723],[110.15254,-7.46733],[110.15259,-7.46739],[110.15262,-7.46743],[110.15264,-7.46746],[110.15265,-7.46749],[110.15267,-7.46754],[110.15269,-7.4676],[110.15271,-7.46767],[110.15277,-7.46775],[110.15283,-7.46784],[110.15301,-7.46779],[110.15317,-7.46775],[110.15333,-7.4677],[110.15354,-7.46765],[110.15365,-7.46761],[110.1538,-7.46805],[110.15379,-7.46815],[110.15377,-7.46831],[110.1538,-7.46843],[110.15401,-7.46834],[110.15409,-7.46832],[110.15424,-7.46825],[110.15433,-7.46822],[110.15443,-7.46818],[110.15449,-7.46817],[110.15454,-7.46817],[110.15459,-7.46818],[110.15464,-7.4682],[110.15467,-7.46823],[110.1547,-7.46827],[110.15473,-7.4683],[110.15477,-7.46832],[110.15484,-7.46834],[110.15504,-7.46834],[110.15515,-7.46833],[110.15536,-7.46833],[110.15548,-7.46836],[110.15559,-7.4684],[110.15568,-7.46846],[110.1557,-7.46848],[110.15579,-7.46854],[110.15596,-7.46863],[110.15608,-7.46868],[110.15621,-7.4687],[110.15629,-7.46869],[110.15631,-7.46869],[110.15634,-7.46867],[110.1564,-7.46862],[110.15645,-7.46853],[110.15653,-7.46844],[110.1566,-7.46841],[110.15667,-7.4684],[110.15675,-7.46842],[110.1568,-7.46846],[110.15682,-7.46852],[110.15685,-7.46863],[110.15687,-7.46879],[110.15691,-7.46903],[110.15694,-7.46912],[110.15694,-7.46913],[110.15697,-7.46922],[110.15704,-7.46931],[110.15712,-7.46941],[110.15721,-7.4695],[110.15729,-7.46959],[110.15742,-7.46972],[110.1575,-7.46982],[110.15753,-7.46986],[110.15765,-7.47003],[110.15773,-7.47014],[110.15781,-7.47023],[110.15777,-7.47036],[110.15776,-7.4704],[110.15777,-7.47046],[110.15783,-7.47054],[110.15787,-7.47058],[110.1579,-7.47062],[110.15797,-7.47066],[110.15802,-7.47068],[110.15809,-7.47071],[110.15814,-7.47075],[110.15821,-7.47079],[110.15826,-7.47083],[110.15835,-7.47092],[110.15844,-7.47097],[110.15847,-7.47102],[110.1585,-7.47108],[110.1585,-7.47134],[110.15855,-7.47137],[110.1586,-7.47141],[110.15866,-7.47144],[110.15871,-7.47143],[110.15878,-7.47142],[110.15885,-7.47143],[110.15891,-7.47146],[110.15896,-7.47151],[110.15902,-7.47155],[110.15904,-7.47159],[110.15905,-7.47168],[110.15906,-7.47173],[110.15908,-7.47177],[110.15915,-7.47179],[110.1592,-7.47182],[110.15926,-7.47187],[110.15935,-7.47194],[110.15941,-7.47198],[110.15944,-7.47205],[110.15945,-7.47211],[110.15943,-7.47222],[110.15943,-7.47229],[110.15948,-7.47238],[110.15954,-7.47242],[110.15959,-7.47244],[110.15963,-7.47246],[110.15966,-7.47249],[110.15966,-7.47252],[110.15967,-7.47257],[110.15976,-7.47262],[110.15984,-7.47264],[110.15988,-7.47268],[110.15991,-7.47277],[110.15992,-7.47283],[110.15994,-7.47292],[110.15991,-7.47302],[110.15992,-7.47313],[110.15996,-7.47322],[110.16,-7.47328],[110.16004,-7.47331],[110.16007,-7.4733],[110.16008,-7.47328],[110.16008,-7.47325],[110.16007,-7.47322],[110.16005,-7.47318],[110.16004,-7.47311],[110.16004,-7.47308],[110.16011,-7.47303],[110.16019,-7.47297],[110.16019,-7.4729],[110.16021,-7.47286],[110.16025,-7.47286],[110.1603,-7.47284],[110.16039,-7.47275],[110.16043,-7.4727],[110.16044,-7.47264],[110.16047,-7.47254],[110.16053,-7.47243],[110.16058,-7.47237],[110.16063,-7.47238],[110.16068,-7.47234],[110.16078,-7.47233],[110.16084,-7.47232],[110.16087,-7.4723],[110.16093,-7.47227],[110.16098,-7.47225],[110.16102,-7.47223],[110.16108,-7.47218],[110.1611,-7.47216],[110.16112,-7.47213],[110.16113,-7.4721],[110.16112,-7.47206],[110.16111,-7.47203],[110.16111,-7.47201],[110.16112,-7.47199],[110.16096,-7.47189],[110.16091,-7.47184],[110.16087,-7.47178],[110.1608,-7.47169],[110.1609,-7.47154],[110.16093,-7.47148],[110.16095,-7.47141],[110.16091,-7.47127],[110.16092,-7.47125],[110.16096,-7.47122],[110.16109,-7.47114],[110.16111,-7.47114],[110.16119,-7.47125],[110.16137,-7.47143],[110.16145,-7.47153],[110.1615,-7.47156],[110.16153,-7.47158],[110.16154,-7.47159],[110.16156,-7.47159],[110.16176,-7.47163],[110.16193,-7.47165],[110.16203,-7.47165],[110.16213,-7.47164],[110.16218,-7.47162],[110.16224,-7.47158],[110.1623,-7.47156],[110.16238,-7.4715],[110.16247,-7.47147],[110.16256,-7.47146],[110.16258,-7.47146],[110.16264,-7.47147],[110.16269,-7.4715],[110.16272,-7.47152],[110.1628,-7.47164],[110.16289,-7.47178],[110.16295,-7.47188],[110.16297,-7.47191],[110.16311,-7.47209],[110.16312,-7.4721],[110.16322,-7.47219],[110.16331,-7.47222],[110.16343,-7.47223],[110.16377,-7.47223],[110.16397,-7.47225],[110.16402,-7.47226],[110.16406,-7.47228],[110.16409,-7.47234],[110.16409,-7.47249],[110.1641,-7.47256],[110.16411,-7.47259],[110.16411,-7.47264],[110.16412,-7.47264],[110.16412,-7.47267],[110.16415,-7.47273],[110.16415,-7.47274],[110.16416,-7.47275],[110.16416,-7.47276],[110.16423,-7.47287],[110.16425,-7.47293],[110.16426,-7.47298],[110.16429,-7.47307],[110.16429,-7.47309],[110.16432,-7.47318],[110.16436,-7.47324],[110.16441,-7.47328],[110.16448,-7.47331],[110.16451,-7.47331],[110.1646,-7.47334],[110.16471,-7.47336],[110.16478,-7.47337],[110.16486,-7.47342],[110.1649,-7.47348],[110.16491,-7.47348],[110.16494,-7.47356],[110.16498,-7.47368],[110.16501,-7.47384],[110.16501,-7.47387],[110.16502,-7.47393],[110.16504,-7.47403],[110.16509,-7.47413],[110.16516,-7.47421],[110.16522,-7.47425],[110.16534,-7.47432],[110.1654,-7.47433],[110.16547,-7.47434],[110.16556,-7.47436],[110.16565,-7.47439],[110.1657,-7.47444],[110.16578,-7.47455],[110.16579,-7.47456],[110.16587,-7.47467],[110.16599,-7.47486],[110.16606,-7.47496],[110.16615,-7.47502],[110.16626,-7.47508],[110.16633,-7.47511],[110.16639,-7.47512],[110.16647,-7.47513],[110.16667,-7.47513],[110.16668,-7.47514],[110.16685,-7.47516],[110.16692,-7.47518],[110.16693,-7.47519],[110.16702,-7.47522],[110.1671,-7.47526],[110.16718,-7.47532],[110.16722,-7.47539],[110.16724,-7.47541],[110.16727,-7.47548],[110.16729,-7.47558],[110.1673,-7.47567],[110.16731,-7.47583],[110.16732,-7.47592],[110.16732,-7.47593],[110.16735,-7.47598],[110.16739,-7.47606],[110.16751,-7.47618],[110.16763,-7.47626],[110.16768,-7.47633],[110.16771,-7.47642],[110.16771,-7.47648],[110.16773,-7.47657],[110.16774,-7.47659],[110.16775,-7.47662],[110.16779,-7.47669],[110.16793,-7.4768],[110.16812,-7.47695],[110.16821,-7.47702],[110.16826,-7.47706],[110.16841,-7.47717],[110.16852,-7.47724],[110.16862,-7.47729],[110.16871,-7.47733],[110.16877,-7.47738],[110.16883,-7.47744],[110.16893,-7.47758],[110.16901,-7.47775],[110.16908,-7.47789],[110.16912,-7.47796],[110.1692,-7.47809],[110.16927,-7.47816],[110.16932,-7.47818],[110.16938,-7.47818],[110.16942,-7.47817],[110.16944,-7.47817],[110.16953,-7.47816],[110.1696,-7.47815],[110.16968,-7.47815],[110.16976,-7.47817],[110.16987,-7.47824],[110.16993,-7.47829],[110.16995,-7.47832],[110.17002,-7.47844],[110.17014,-7.47861],[110.17028,-7.47879],[110.17033,-7.47883],[110.17047,-7.4789],[110.17054,-7.47893],[110.17057,-7.47895],[110.17066,-7.47902],[110.17072,-7.47907],[110.1708,-7.47912],[110.1709,-7.47914],[110.17094,-7.47913],[110.17097,-7.47911],[110.17099,-7.47911],[110.17104,-7.47908],[110.17108,-7.47907],[110.17111,-7.47907],[110.17117,-7.47909],[110.17121,-7.4791],[110.17126,-7.47914],[110.17138,-7.47926],[110.17148,-7.47937],[110.17158,-7.47949],[110.17164,-7.4796],[110.17169,-7.47969],[110.17175,-7.47987],[110.17179,-7.48002],[110.17181,-7.48019],[110.17181,-7.48032],[110.17179,-7.48047],[110.17178,-7.48047],[110.17173,-7.48056],[110.17159,-7.4807],[110.17151,-7.4808],[110.17148,-7.48085],[110.17146,-7.48091],[110.17146,-7.48097],[110.17148,-7.48103],[110.17151,-7.48111],[110.17153,-7.48119],[110.17164,-7.4814],[110.1717,-7.48151],[110.17178,-7.48164],[110.17184,-7.4817],[110.17192,-7.48175],[110.17199,-7.48177],[110.17221,-7.48177],[110.17236,-7.4818],[110.17255,-7.48185],[110.1727,-7.48191],[110.1728,-7.48196],[110.17294,-7.48205],[110.17305,-7.48216],[110.17308,-7.48218],[110.1731,-7.48219],[110.17315,-7.48221],[110.17316,-7.48222],[110.17324,-7.48229],[110.1733,-7.48234],[110.17364,-7.48256],[110.17378,-7.48269],[110.1742,-7.48307],[110.17415,-7.48351],[110.17411,-7.48404],[110.17408,-7.48443],[110.17405,-7.48454],[110.17404,-7.48458],[110.17404,-7.48462],[110.17401,-7.48479],[110.17392,-7.48486],[110.17385,-7.48494],[110.17383,-7.48496],[110.1738,-7.485],[110.1738,-7.48502],[110.17378,-7.48511],[110.17374,-7.48525],[110.17372,-7.48531],[110.1737,-7.48533],[110.17367,-7.48535],[110.17361,-7.48535],[110.17354,-7.48534],[110.17353,-7.48534],[110.1734,-7.48529],[110.17321,-7.48523],[110.1731,-7.48519],[110.17304,-7.48517],[110.17298,-7.48516],[110.17295,-7.48515],[110.1728,-7.48515],[110.17271,-7.48517],[110.1726,-7.4852],[110.17236,-7.48524],[110.17221,-7.48526],[110.172,-7.48526],[110.17189,-7.48525],[110.17179,-7.48522],[110.1717,-7.48519],[110.17167,-7.48519],[110.17167,-7.48518],[110.17162,-7.48517],[110.17159,-7.48517],[110.17149,-7.48518],[110.17138,-7.48521],[110.1712,-7.48526],[110.17097,-7.48535],[110.1708,-7.48546],[110.17064,-7.48562],[110.17049,-7.48578],[110.17037,-7.48601],[110.17032,-7.48616],[110.17027,-7.48635],[110.17023,-7.48649],[110.17015,-7.48681],[110.17014,-7.48682],[110.17011,-7.48686],[110.16954,-7.48739],[110.16928,-7.48769],[110.16916,-7.48785],[110.16909,-7.48783],[110.16832,-7.48768],[110.16785,-7.48759],[110.16772,-7.48754],[110.16753,-7.4874],[110.16732,-7.48729],[110.16706,-7.48725],[110.16692,-7.48725],[110.16685,-7.48731],[110.16675,-7.48744],[110.1667,-7.48749],[110.16654,-7.48756],[110.16627,-7.48759],[110.16601,-7.48759],[110.16577,-7.48756],[110.16562,-7.48752],[110.16535,-7.48747],[110.16515,-7.48744],[110.16503,-7.48744],[110.16489,-7.48747],[110.16481,-7.48755],[110.16475,-7.48764],[110.1647,-7.48777],[110.16469,-7.48777],[110.16464,-7.48789],[110.16449,-7.48834],[110.16431,-7.48877],[110.16425,-7.48891],[110.16409,-7.48894],[110.16375,-7.4892],[110.16345,-7.48944],[110.16313,-7.48972],[110.16292,-7.48997],[110.16284,-7.49014],[110.16258,-7.49042],[110.16237,-7.49051],[110.16223,-7.49049],[110.16204,-7.49048],[110.16186,-7.4905],[110.16155,-7.49057],[110.16148,-7.49057],[110.16132,-7.49053],[110.16114,-7.49048],[110.16112,-7.49048],[110.16107,-7.49047],[110.16098,-7.4904],[110.16096,-7.49035],[110.16095,-7.49031],[110.1609,-7.49027],[110.1607,-7.49019],[110.16064,-7.49015],[110.16058,-7.49009],[110.1605,-7.48997],[110.16049,-7.48998],[110.1599,-7.49066],[110.15952,-7.49103],[110.15912,-7.49159],[110.15955,-7.49222],[110.15965,-7.49228],[110.15986,-7.4924],[110.15996,-7.49245],[110.16003,-7.49249],[110.16022,-7.4926],[110.16024,-7.49261],[110.16029,-7.49263],[110.16038,-7.49267],[110.16038,-7.49288],[110.16044,-7.49323],[110.16047,-7.49336],[110.16053,-7.49346],[110.16067,-7.49369],[110.16073,-7.49391],[110.16074,-7.49403],[110.16073,-7.49418],[110.16071,-7.4943],[110.16071,-7.49439],[110.16076,-7.49446],[110.16086,-7.49456],[110.16105,-7.49481],[110.16124,-7.49509],[110.16152,-7.49531],[110.16162,-7.49574],[110.16166,-7.49594],[110.16174,-7.49614],[110.162,-7.49662],[110.16219,-7.49693],[110.16221,-7.49701],[110.16225,-7.49714],[110.16233,-7.49727],[110.16245,-7.49738],[110.16261,-7.49746],[110.16284,-7.49751],[110.16311,-7.49754],[110.16341,-7.49757],[110.16368,-7.49768],[110.16388,-7.49784],[110.16409,-7.49801],[110.1642,-7.49821],[110.16424,-7.49826],[110.16432,-7.49832],[110.16446,-7.49845],[110.16457,-7.49862],[110.1647,-7.49882],[110.16475,-7.4989],[110.16479,-7.49908],[110.16488,-7.49932],[110.16492,-7.49953],[110.16492,-7.49959],[110.16495,-7.49962],[110.16497,-7.49966],[110.16506,-7.49972],[110.16513,-7.49971],[110.16522,-7.4997],[110.16532,-7.49966],[110.16544,-7.49966],[110.16547,-7.49968],[110.1655,-7.49971],[110.16555,-7.4998],[110.16559,-7.49982],[110.1656,-7.49983],[110.16569,-7.49983],[110.16576,-7.49986],[110.1658,-7.49989],[110.16583,-7.49993],[110.16587,-7.49995],[110.16596,-7.50002],[110.16611,-7.50013],[110.1662,-7.5002],[110.16628,-7.50022],[110.1663,-7.50022],[110.16638,-7.50018],[110.16643,-7.50016],[110.1665,-7.50012],[110.16656,-7.50008],[110.16663,-7.50008],[110.16671,-7.5001],[110.16676,-7.50014],[110.16683,-7.50021],[110.16693,-7.50035],[110.16699,-7.5004],[110.16706,-7.50043],[110.16712,-7.50043],[110.16728,-7.50046],[110.16734,-7.50052],[110.16738,-7.50057],[110.16739,-7.50061],[110.16739,-7.50066],[110.16735,-7.50073],[110.16734,-7.50079],[110.16734,-7.5009],[110.16737,-7.50094],[110.16741,-7.50099],[110.16743,-7.50105],[110.16748,-7.50114],[110.16756,-7.50124],[110.16761,-7.50129],[110.16765,-7.5013],[110.16768,-7.5013],[110.1677,-7.50128],[110.16773,-7.50128],[110.16781,-7.50129],[110.16792,-7.50135],[110.16803,-7.5014],[110.16808,-7.50143],[110.16815,-7.50155],[110.16822,-7.50162],[110.16828,-7.50164],[110.16833,-7.50169],[110.16843,-7.50176],[110.16854,-7.5018],[110.16872,-7.50191],[110.16894,-7.50209],[110.16899,-7.50213],[110.16913,-7.50223],[110.16921,-7.50231],[110.16925,-7.50238],[110.16937,-7.50264],[110.16942,-7.50273],[110.16946,-7.50277],[110.16953,-7.5028],[110.16965,-7.50283],[110.16973,-7.50284],[110.16981,-7.50286],[110.16989,-7.50293],[110.17001,-7.50305],[110.17039,-7.50357],[110.17105,-7.50407],[110.17144,-7.50423],[110.17205,-7.50456],[110.17246,-7.50488],[110.17294,-7.50532],[110.173,-7.50539],[110.17332,-7.50574],[110.17336,-7.50587],[110.17338,-7.50593],[110.17349,-7.50629],[110.17363,-7.50641],[110.17398,-7.50692],[110.17413,-7.50702],[110.17438,-7.50725],[110.17465,-7.50751],[110.17509,-7.50795],[110.17519,-7.50807],[110.1752,-7.50809],[110.1754,-7.50809],[110.17556,-7.50812],[110.17557,-7.50812],[110.17575,-7.50818],[110.17594,-7.50824],[110.17603,-7.50827],[110.17615,-7.50832],[110.17617,-7.50833],[110.17632,-7.50837],[110.17639,-7.50839],[110.17658,-7.50844],[110.17661,-7.50844],[110.17681,-7.5085],[110.17697,-7.50855],[110.17698,-7.50855],[110.17709,-7.50859],[110.17717,-7.50857],[110.17743,-7.5085],[110.1775,-7.50846],[110.17761,-7.50843],[110.17773,-7.50843],[110.1778,-7.50842],[110.17786,-7.50838],[110.17794,-7.50836],[110.17803,-7.50838],[110.17811,-7.50841],[110.17824,-7.5084],[110.17837,-7.50836],[110.17849,-7.50832],[110.17861,-7.50833],[110.17871,-7.50832],[110.17885,-7.50827],[110.17888,-7.50826],[110.17905,-7.50822],[110.17933,-7.50822],[110.17952,-7.50825],[110.17973,-7.50827],[110.17982,-7.50829],[110.17994,-7.50837],[110.18004,-7.50842],[110.18012,-7.50849],[110.18022,-7.50858],[110.18035,-7.50869],[110.18036,-7.50875],[110.18036,-7.50883],[110.18033,-7.50893],[110.18029,-7.50901],[110.18026,-7.5091],[110.18006,-7.50924],[110.18002,-7.50926],[110.17992,-7.50933],[110.17985,-7.50941],[110.17981,-7.50952],[110.17978,-7.50963],[110.17978,-7.50968],[110.17979,-7.50974],[110.17982,-7.50977],[110.17987,-7.50981],[110.17993,-7.50985],[110.18001,-7.50986],[110.1801,-7.50986],[110.18019,-7.50985],[110.18034,-7.50981],[110.18049,-7.50974],[110.18058,-7.50971],[110.18068,-7.50969],[110.18072,-7.50972],[110.18074,-7.50976],[110.18077,-7.50987],[110.18081,-7.50994],[110.18086,-7.51],[110.1809,-7.51002],[110.18094,-7.51003],[110.18098,-7.51005],[110.18116,-7.5101],[110.18122,-7.51015],[110.18126,-7.51017],[110.18137,-7.51029],[110.18155,-7.51043],[110.18159,-7.51047],[110.18169,-7.51058],[110.18172,-7.51062],[110.18179,-7.51066],[110.18192,-7.51066],[110.18206,-7.51063],[110.18228,-7.51052],[110.18245,-7.51043],[110.1825,-7.51041],[110.18265,-7.51031],[110.18278,-7.51023],[110.18285,-7.51023],[110.18296,-7.51022],[110.18303,-7.51022],[110.18307,-7.51023],[110.18332,-7.51037],[110.1835,-7.51049],[110.18362,-7.51061],[110.18366,-7.51064],[110.18372,-7.51065],[110.18387,-7.51062],[110.18393,-7.51061],[110.18402,-7.5106],[110.18404,-7.5106],[110.1841,-7.51064],[110.18415,-7.51068],[110.18425,-7.51079],[110.18439,-7.51097],[110.18455,-7.51113],[110.18464,-7.51127],[110.18466,-7.51133],[110.18466,-7.51138],[110.18465,-7.51143],[110.18461,-7.51149],[110.18457,-7.51152],[110.18452,-7.51153],[110.1845,-7.51153],[110.18442,-7.51157],[110.18433,-7.51165],[110.18429,-7.51172],[110.18428,-7.51179],[110.18428,-7.51185],[110.18429,-7.51191],[110.18431,-7.51196],[110.18436,-7.51203],[110.1844,-7.51207],[110.18447,-7.51207],[110.1845,-7.51208],[110.18454,-7.51208],[110.18461,-7.51207],[110.18467,-7.5121],[110.1847,-7.51214],[110.18472,-7.5122],[110.18471,-7.51229],[110.18472,-7.51236],[110.18476,-7.51241],[110.18481,-7.51248],[110.18481,-7.51254],[110.18477,-7.51261],[110.18471,-7.51268],[110.18458,-7.51279],[110.18447,-7.51287],[110.18438,-7.51293],[110.18437,-7.51294],[110.18428,-7.51299],[110.1842,-7.51304],[110.18414,-7.51309],[110.18412,-7.51314],[110.18412,-7.51319],[110.18413,-7.51325],[110.18413,-7.51328],[110.18418,-7.51333],[110.18429,-7.51333],[110.18436,-7.51332],[110.18442,-7.51333],[110.18445,-7.51336],[110.18446,-7.5134],[110.18445,-7.51346],[110.18442,-7.51353],[110.18438,-7.51356],[110.18433,-7.51358],[110.18417,-7.51358],[110.18405,-7.51357],[110.18391,-7.51361],[110.18383,-7.51365],[110.18376,-7.51369],[110.18369,-7.51374],[110.18368,-7.51376],[110.18366,-7.51379],[110.18365,-7.51386],[110.18365,-7.51389],[110.18367,-7.51392],[110.18367,-7.51393],[110.18369,-7.51394],[110.18372,-7.51395],[110.18382,-7.51395],[110.18388,-7.51396],[110.18394,-7.51398],[110.18399,-7.51403],[110.18403,-7.51408],[110.18421,-7.51433],[110.18425,-7.5144],[110.18433,-7.51447],[110.18446,-7.51457],[110.1845,-7.5146],[110.18467,-7.51473],[110.18483,-7.51484],[110.18501,-7.51499],[110.18512,-7.51511],[110.18526,-7.5152],[110.18529,-7.51525],[110.18531,-7.51527],[110.18535,-7.51528],[110.18538,-7.51529],[110.18546,-7.51527],[110.18553,-7.51525],[110.18562,-7.51519],[110.1857,-7.51516],[110.18569,-7.51506],[110.18571,-7.51502],[110.18571,-7.51489],[110.18572,-7.51488],[110.18572,-7.51484],[110.18573,-7.51482],[110.18575,-7.51481],[110.18578,-7.5148],[110.1858,-7.5148],[110.18585,-7.51483],[110.18589,-7.51485],[110.18591,-7.51488],[110.18593,-7.51489],[110.18596,-7.51495],[110.18596,-7.51503],[110.18597,-7.51506],[110.18599,-7.51511],[110.18602,-7.51514],[110.18607,-7.51517],[110.1861,-7.51519],[110.18612,-7.51523],[110.18612,-7.51534],[110.18613,-7.51536],[110.18618,-7.51536],[110.18622,-7.51534],[110.18625,-7.51531],[110.18627,-7.51527],[110.18628,-7.51523],[110.18631,-7.51518],[110.18633,-7.51513],[110.18635,-7.51512],[110.18643,-7.51512],[110.18645,-7.51513],[110.18648,-7.51516],[110.18648,-7.5152],[110.18646,-7.51527],[110.18646,-7.51538],[110.18644,-7.51547],[110.18644,-7.51559],[110.18645,-7.51562],[110.18648,-7.51564],[110.18654,-7.51567],[110.18659,-7.51568],[110.18661,-7.51568],[110.1867,-7.5157],[110.18678,-7.51572],[110.1868,-7.51574],[110.18685,-7.5158],[110.18693,-7.51598],[110.18703,-7.51614],[110.18703,-7.51621],[110.18698,-7.51629],[110.18693,-7.51638],[110.18691,-7.51643],[110.18689,-7.51647],[110.18688,-7.51654],[110.18689,-7.51663],[110.18695,-7.51672],[110.18704,-7.51684],[110.1871,-7.51696],[110.18713,-7.5171],[110.18712,-7.51719],[110.18708,-7.51727],[110.18705,-7.51735],[110.18704,-7.51739],[110.18703,-7.51744],[110.18704,-7.51749],[110.18706,-7.51757],[110.18705,-7.51765],[110.18699,-7.51769],[110.18694,-7.51771],[110.18687,-7.51772],[110.18682,-7.51771],[110.18677,-7.51768],[110.18672,-7.51763],[110.18664,-7.51751],[110.18659,-7.51744],[110.18656,-7.51738],[110.18651,-7.51733],[110.18637,-7.51728],[110.1863,-7.51727],[110.18621,-7.51726],[110.18605,-7.51729],[110.18598,-7.51732],[110.18588,-7.51737],[110.18583,-7.51744],[110.18582,-7.51749],[110.18582,-7.51758],[110.18583,-7.51764],[110.18585,-7.51773],[110.18583,-7.51783],[110.18583,-7.51789],[110.18587,-7.51803],[110.18589,-7.51808],[110.18591,-7.51812],[110.18593,-7.51818],[110.18597,-7.51828],[110.18601,-7.51836],[110.18607,-7.51847],[110.1861,-7.51852],[110.18611,-7.51858],[110.18612,-7.51869],[110.18608,-7.51875],[110.18604,-7.5188],[110.18601,-7.51885],[110.18595,-7.51894],[110.18592,-7.51899],[110.1859,-7.51915],[110.18597,-7.51898],[110.18599,-7.51893],[110.18602,-7.51886],[110.18608,-7.51878],[110.18619,-7.51869],[110.18634,-7.51858],[110.1865,-7.51849],[110.18654,-7.51847],[110.18675,-7.51838],[110.18679,-7.51836],[110.18694,-7.5183],[110.18715,-7.51824],[110.18735,-7.51821],[110.1881,-7.51814],[110.18811,-7.51814],[110.1882,-7.51813],[110.18834,-7.51813],[110.18848,-7.51814],[110.18854,-7.51812],[110.18859,-7.5181],[110.18863,-7.51806],[110.18866,-7.51801],[110.18868,-7.51793],[110.1887,-7.51783],[110.18876,-7.51772],[110.1888,-7.51762],[110.18883,-7.51753],[110.18891,-7.51732],[110.18893,-7.51726],[110.18893,-7.51725],[110.18899,-7.51705],[110.18904,-7.51691],[110.18929,-7.5162],[110.18945,-7.5157],[110.18946,-7.5157],[110.1895,-7.51553],[110.18955,-7.51528],[110.18958,-7.51506],[110.18958,-7.51484],[110.18957,-7.51467],[110.18957,-7.51459],[110.18958,-7.5145],[110.1896,-7.51444],[110.1898,-7.51424],[110.18989,-7.51418],[110.18991,-7.51416],[110.18993,-7.51415],[110.19001,-7.51408],[110.19007,-7.51401],[110.19013,-7.51392],[110.19015,-7.51384],[110.19013,-7.51376],[110.19012,-7.51368],[110.19006,-7.51358],[110.19005,-7.51357],[110.19005,-7.51356],[110.18998,-7.51344],[110.1899,-7.51326],[110.18982,-7.51316],[110.18972,-7.51298],[110.18963,-7.51284],[110.18954,-7.51268],[110.18928,-7.51211],[110.18922,-7.51192],[110.18913,-7.51168],[110.18904,-7.51142],[110.18904,-7.51141],[110.18895,-7.51116],[110.18888,-7.51094],[110.1888,-7.51077],[110.18878,-7.51072],[110.18844,-7.51001],[110.18815,-7.50943],[110.18808,-7.50926],[110.18802,-7.50912],[110.18799,-7.50899],[110.18798,-7.50888],[110.188,-7.5088],[110.18808,-7.50869],[110.18812,-7.50861],[110.18819,-7.50846],[110.1883,-7.50824],[110.18864,-7.50767],[110.18875,-7.50748],[110.18882,-7.50735],[110.18896,-7.5071],[110.18901,-7.50698],[110.18903,-7.50691],[110.18907,-7.50684],[110.18918,-7.50667],[110.18929,-7.50653],[110.18949,-7.50616],[110.18955,-7.50605],[110.18958,-7.506],[110.1896,-7.50594],[110.18962,-7.5058],[110.18962,-7.50571],[110.18959,-7.50551],[110.18955,-7.50532],[110.18951,-7.5052],[110.18945,-7.50507],[110.1894,-7.50499],[110.18938,-7.50496],[110.18938,-7.50495],[110.18929,-7.50483],[110.18929,-7.50479],[110.1893,-7.50475],[110.18936,-7.50467],[110.18941,-7.50464],[110.18961,-7.50448],[110.18964,-7.50446],[110.18975,-7.50437],[110.18986,-7.50426],[110.19004,-7.50413],[110.19016,-7.50402],[110.19025,-7.50394],[110.19025,-7.50393],[110.19033,-7.50382],[110.19042,-7.50368],[110.1909,-7.50302],[110.19098,-7.50294],[110.19108,-7.50283],[110.19123,-7.50262],[110.19123,-7.50259],[110.19124,-7.5025],[110.19129,-7.50234],[110.19134,-7.50227],[110.19142,-7.50216],[110.19152,-7.50208],[110.19164,-7.502],[110.19185,-7.50188],[110.19222,-7.50168],[110.19247,-7.50154],[110.19249,-7.50153],[110.19291,-7.5013],[110.19307,-7.50121],[110.19321,-7.50114],[110.19351,-7.50098],[110.19423,-7.50059],[110.19424,-7.50059],[110.19424,-7.50058],[110.19426,-7.50058],[110.19426,-7.50057],[110.19435,-7.50052],[110.19457,-7.50042],[110.19478,-7.50031],[110.19497,-7.50018],[110.19499,-7.50017],[110.19504,-7.50013],[110.19511,-7.50005],[110.1953,-7.49982],[110.19539,-7.49967],[110.19539,-7.49966],[110.19543,-7.49961],[110.19557,-7.49935],[110.19571,-7.4991],[110.19582,-7.49895],[110.19585,-7.4989],[110.1959,-7.49884],[110.1959,-7.49883],[110.19629,-7.49826],[110.19653,-7.49795],[110.19662,-7.49778],[110.19669,-7.49765],[110.19671,-7.49755],[110.19672,-7.49752],[110.19673,-7.49744],[110.19679,-7.49732],[110.19683,-7.49725],[110.1969,-7.49711],[110.19691,-7.49704],[110.19691,-7.497],[110.1969,-7.49695],[110.19674,-7.49642],[110.19666,-7.49622],[110.19646,-7.49581],[110.19637,-7.49562],[110.19632,-7.49547],[110.19632,-7.4954],[110.19633,-7.49535],[110.19634,-7.49531],[110.19637,-7.49526],[110.19643,-7.49521],[110.19644,-7.4952],[110.19656,-7.4951],[110.19669,-7.49501],[110.19671,-7.495],[110.19746,-7.49461],[110.19769,-7.49449],[110.1979,-7.49436],[110.19807,-7.49427],[110.19821,-7.49416],[110.19842,-7.49396],[110.19862,-7.49377],[110.19869,-7.49367],[110.19882,-7.49353],[110.19891,-7.49342],[110.19894,-7.49339],[110.19909,-7.49323],[110.19915,-7.49316],[110.19911,-7.49313],[110.19905,-7.49309],[110.19889,-7.49303],[110.19914,-7.49258],[110.19925,-7.49215],[110.19932,-7.49175],[110.19933,-7.49172],[110.19938,-7.49146],[110.19956,-7.49074],[110.19981,-7.48991],[110.19982,-7.48985],[110.19992,-7.48954],[110.19992,-7.48953],[110.19999,-7.4894],[110.20014,-7.4893],[110.20028,-7.48929],[110.20038,-7.48935],[110.20054,-7.48976],[110.2007,-7.49016],[110.20081,-7.49026],[110.20091,-7.49029],[110.201,-7.49028],[110.20101,-7.49028],[110.2011,-7.49027],[110.20152,-7.49013],[110.20161,-7.49008],[110.20163,-7.49007],[110.20232,-7.48972],[110.20235,-7.48971],[110.20284,-7.48945],[110.20285,-7.48945],[110.20322,-7.48926],[110.20332,-7.48921],[110.20369,-7.48902],[110.20401,-7.48878],[110.20418,-7.4886],[110.20446,-7.48822],[110.20488,-7.48769],[110.20499,-7.48749],[110.20508,-7.48735],[110.20529,-7.48703],[110.20546,-7.48669],[110.20551,-7.48642],[110.20553,-7.48622],[110.20553,-7.48572],[110.20558,-7.48555],[110.20563,-7.48537],[110.20571,-7.4851],[110.20576,-7.48496],[110.2059,-7.48451],[110.20596,-7.48434],[110.20612,-7.48402],[110.20618,-7.48393],[110.20627,-7.48378],[110.20651,-7.48343],[110.20667,-7.48318],[110.20706,-7.48251],[110.20727,-7.48213],[110.2073,-7.48207],[110.20738,-7.48192],[110.20741,-7.48184],[110.20742,-7.48182],[110.20746,-7.48172],[110.20748,-7.48161],[110.20747,-7.48155],[110.20746,-7.4815],[110.20738,-7.48143],[110.20728,-7.48139],[110.20716,-7.48135],[110.20706,-7.48132],[110.20691,-7.4813],[110.20669,-7.48131],[110.20658,-7.48131],[110.20646,-7.4813],[110.20636,-7.48125],[110.20626,-7.48113],[110.20616,-7.48103],[110.20604,-7.48086],[110.20596,-7.48066],[110.20581,-7.48029],[110.20581,-7.48028],[110.20574,-7.48],[110.20571,-7.47972],[110.20571,-7.4794],[110.20572,-7.47927],[110.20578,-7.47904],[110.20604,-7.47809],[110.20607,-7.47796],[110.20607,-7.47795],[110.20615,-7.47766],[110.2062,-7.47741],[110.20621,-7.47732],[110.20621,-7.4773],[110.20623,-7.47722],[110.20623,-7.47718],[110.20624,-7.47713],[110.20626,-7.47701],[110.20627,-7.47698],[110.20631,-7.47683],[110.20633,-7.47676],[110.20633,-7.47673],[110.20634,-7.4767],[110.2064,-7.47663],[110.20644,-7.4766],[110.2065,-7.47655],[110.20664,-7.47653],[110.20669,-7.47653],[110.207,-7.47655],[110.20782,-7.47661],[110.20811,-7.47661],[110.20827,-7.47659],[110.20839,-7.47654],[110.20847,-7.47644],[110.20857,-7.47622],[110.20871,-7.47591],[110.2089,-7.47553],[110.2091,-7.47518],[110.20911,-7.47517],[110.20952,-7.4745],[110.20963,-7.47432],[110.20982,-7.47398],[110.20987,-7.47385],[110.20986,-7.47373],[110.20984,-7.47359],[110.20979,-7.47348],[110.20968,-7.47335],[110.20926,-7.47303],[110.20888,-7.47273],[110.20877,-7.47258],[110.20869,-7.47243],[110.20868,-7.47237],[110.20867,-7.47232],[110.20866,-7.47217],[110.20868,-7.47197],[110.20874,-7.47164],[110.20875,-7.47163],[110.20888,-7.47118],[110.20891,-7.47108],[110.20914,-7.47056],[110.20941,-7.47007],[110.20996,-7.46925],[110.20998,-7.46923],[110.21027,-7.46866],[110.21044,-7.46831],[110.21056,-7.46806],[110.21067,-7.46769],[110.21076,-7.46735],[110.21085,-7.46714],[110.21089,-7.46692],[110.21096,-7.46646],[110.21105,-7.46581],[110.21121,-7.46471],[110.21122,-7.46465],[110.21131,-7.46385],[110.21131,-7.46369],[110.21132,-7.46352],[110.21136,-7.46313],[110.21142,-7.46294],[110.2115,-7.46278],[110.21153,-7.46273],[110.21156,-7.46265],[110.21167,-7.46251],[110.21176,-7.46241],[110.21184,-7.46232],[110.21186,-7.4622],[110.21186,-7.46202],[110.21184,-7.46181],[110.21179,-7.46168],[110.21178,-7.46166],[110.21174,-7.46155],[110.21164,-7.46145],[110.21149,-7.46135],[110.21093,-7.46104],[110.21045,-7.46076],[110.21029,-7.46061],[110.21015,-7.46048],[110.21002,-7.46032],[110.20997,-7.46022],[110.20997,-7.45995],[110.21,-7.45979],[110.21005,-7.45964],[110.21006,-7.4596],[110.21015,-7.45943],[110.21042,-7.45893],[110.21051,-7.45877],[110.21079,-7.45824],[110.21091,-7.45803],[110.21094,-7.45796],[110.2118,-7.45634],[110.21185,-7.45623],[110.21197,-7.45597],[110.21206,-7.45578],[110.21211,-7.45566],[110.21215,-7.45556],[110.21218,-7.45545],[110.21222,-7.45533],[110.21221,-7.45524],[110.21218,-7.45516],[110.21218,-7.45514],[110.21201,-7.45471],[110.21178,-7.45409],[110.21174,-7.45399],[110.2117,-7.45387],[110.21167,-7.45374],[110.21165,-7.45355],[110.21165,-7.4534],[110.21167,-7.45328],[110.21172,-7.45317],[110.2118,-7.45306],[110.21189,-7.45298],[110.21204,-7.4529],[110.21216,-7.45285],[110.21225,-7.45281],[110.21256,-7.45266],[110.21311,-7.45232],[110.21331,-7.45217],[110.21353,-7.45195],[110.21361,-7.45186],[110.21372,-7.45172],[110.21383,-7.45153],[110.21392,-7.45136],[110.21399,-7.45121],[110.21403,-7.45108],[110.21405,-7.45092],[110.21406,-7.45079],[110.21405,-7.4507],[110.21402,-7.45057],[110.21396,-7.45043],[110.21387,-7.45028],[110.21313,-7.44942],[110.21284,-7.44898],[110.21261,-7.44868],[110.21236,-7.44837],[110.21195,-7.44784],[110.21185,-7.44759],[110.21185,-7.44756],[110.21181,-7.44741],[110.2118,-7.44734],[110.21179,-7.44715],[110.21177,-7.44699],[110.21178,-7.44687],[110.21178,-7.44676],[110.2118,-7.44661],[110.21187,-7.4464],[110.21195,-7.44631],[110.21202,-7.4462],[110.21218,-7.44602],[110.21246,-7.44572],[110.21249,-7.4457],[110.21266,-7.44558],[110.21275,-7.44555],[110.2128,-7.44553],[110.21298,-7.44549],[110.2132,-7.44546],[110.21336,-7.44546],[110.21351,-7.44542],[110.21373,-7.44537],[110.21396,-7.4453],[110.21413,-7.44517],[110.21423,-7.44504],[110.21424,-7.44503],[110.21432,-7.44485],[110.21441,-7.44456],[110.21441,-7.44455],[110.21446,-7.44438],[110.21447,-7.44422],[110.21447,-7.44419],[110.21445,-7.44398],[110.2145,-7.44396],[110.21443,-7.44368],[110.21436,-7.44352],[110.21421,-7.44344],[110.21394,-7.44342],[110.21352,-7.44355],[110.21351,-7.44355],[110.21316,-7.44367],[110.21279,-7.4437],[110.21237,-7.44357],[110.21217,-7.44344],[110.21201,-7.44323],[110.21188,-7.44293],[110.21183,-7.44244],[110.21185,-7.44209],[110.21196,-7.44163],[110.21206,-7.44138],[110.21235,-7.44095],[110.21285,-7.44034],[110.21315,-7.44001],[110.21339,-7.43971],[110.21372,-7.43926],[110.21396,-7.43868],[110.21408,-7.43841],[110.21432,-7.43797],[110.21508,-7.43707],[110.21533,-7.43676],[110.21546,-7.43662],[110.21558,-7.43639],[110.21558,-7.43623],[110.21556,-7.43601],[110.21551,-7.43578],[110.21547,-7.43566],[110.21533,-7.43522],[110.21515,-7.43473],[110.21513,-7.43461],[110.21516,-7.43448],[110.21532,-7.43402],[110.21537,-7.43377],[110.21528,-7.43358],[110.21512,-7.43335],[110.21503,-7.43326],[110.21476,-7.43307],[110.21468,-7.433],[110.21456,-7.4329],[110.21442,-7.4327],[110.21433,-7.43253],[110.21424,-7.43247],[110.21408,-7.43233],[110.21393,-7.43221],[110.21388,-7.43211],[110.21388,-7.43202],[110.21391,-7.43188],[110.21391,-7.43181],[110.2139,-7.43177],[110.21381,-7.43172],[110.21366,-7.43168],[110.21321,-7.43157],[110.21296,-7.43151],[110.21288,-7.43151],[110.2128,-7.43153],[110.21272,-7.43157],[110.21268,-7.43161],[110.21262,-7.43166],[110.21255,-7.4317],[110.21252,-7.43174],[110.21247,-7.43174],[110.21244,-7.43173],[110.21241,-7.43171],[110.21235,-7.43165],[110.2123,-7.43159],[110.21224,-7.43147],[110.21218,-7.43137],[110.21216,-7.43124],[110.21216,-7.43103],[110.21215,-7.43083],[110.21216,-7.43071],[110.21216,-7.43068],[110.2122,-7.43055],[110.21225,-7.43041],[110.21224,-7.43036],[110.21218,-7.43032],[110.21207,-7.43029],[110.21196,-7.43028],[110.21166,-7.43027],[110.21161,-7.43025],[110.21152,-7.43022],[110.21144,-7.4302],[110.2114,-7.43016],[110.21139,-7.43012],[110.21138,-7.43009],[110.21138,-7.43007],[110.21139,-7.43004],[110.21139,-7.42999],[110.21141,-7.42996],[110.21143,-7.4299],[110.2114,-7.42985],[110.21134,-7.42976],[110.2112,-7.42967],[110.21113,-7.42965],[110.21105,-7.42963],[110.21099,-7.42963],[110.21082,-7.42969],[110.21063,-7.42977],[110.21042,-7.42992],[110.21036,-7.42994],[110.21008,-7.43005],[110.20985,-7.43006],[110.20947,-7.43005],[110.20937,-7.43003],[110.20933,-7.43001],[110.20927,-7.42996],[110.20924,-7.42987],[110.20922,-7.42978],[110.20924,-7.42958],[110.20924,-7.42942],[110.20927,-7.42927],[110.20932,-7.42911],[110.20936,-7.429],[110.20936,-7.42896],[110.20933,-7.42888],[110.20919,-7.42876],[110.20891,-7.42858],[110.20868,-7.42843],[110.20856,-7.4284],[110.20851,-7.4284],[110.20839,-7.42845],[110.2083,-7.42846],[110.20826,-7.42846],[110.20822,-7.42845],[110.20814,-7.42844],[110.2081,-7.42842],[110.20808,-7.42838],[110.20807,-7.42838],[110.20804,-7.4283],[110.20802,-7.42825],[110.208,-7.42819],[110.20799,-7.42814],[110.20799,-7.42809],[110.20798,-7.42802],[110.20794,-7.42797],[110.20787,-7.42791],[110.20772,-7.42776],[110.20755,-7.42763],[110.20737,-7.42758],[110.20723,-7.42757],[110.20709,-7.42757],[110.20686,-7.42755],[110.20678,-7.42751],[110.20676,-7.42749],[110.20671,-7.42745],[110.20665,-7.42739],[110.20657,-7.42735],[110.20643,-7.42735],[110.2063,-7.42737],[110.20616,-7.42741],[110.20601,-7.42749],[110.20586,-7.42754],[110.20573,-7.42754],[110.20566,-7.42752],[110.2056,-7.42749],[110.20551,-7.42741],[110.2054,-7.42727],[110.20521,-7.42703],[110.20518,-7.42695],[110.20513,-7.42684],[110.20511,-7.42673],[110.20512,-7.42654],[110.20512,-7.42634],[110.20507,-7.42618],[110.205,-7.4261],[110.20496,-7.42606],[110.20488,-7.42604],[110.20481,-7.42603],[110.20477,-7.4261],[110.20471,-7.4262],[110.2047,-7.42627],[110.20468,-7.42638],[110.20462,-7.42646],[110.20449,-7.42646],[110.20437,-7.42642],[110.20426,-7.42632],[110.2042,-7.42624],[110.20419,-7.42621],[110.20418,-7.42614],[110.20413,-7.42602],[110.20408,-7.42591],[110.20405,-7.42583],[110.20401,-7.4258],[110.20396,-7.4258],[110.20392,-7.42582],[110.20388,-7.42585],[110.20382,-7.42593],[110.20375,-7.42607],[110.20367,-7.42617],[110.20365,-7.42619],[110.2036,-7.42619],[110.2035,-7.42614],[110.20342,-7.42607],[110.20339,-7.42604],[110.20332,-7.42595],[110.20325,-7.42589],[110.20322,-7.42588],[110.20322,-7.42585],[110.20321,-7.42576],[110.20323,-7.42567],[110.20321,-7.42561],[110.2032,-7.4256],[110.20316,-7.42555],[110.2031,-7.42548],[110.20307,-7.42545],[110.20304,-7.42537],[110.20304,-7.42518],[110.20307,-7.42507],[110.20306,-7.42497],[110.20299,-7.42486],[110.20295,-7.42481],[110.20291,-7.4248],[110.20283,-7.42481],[110.20272,-7.42485],[110.20264,-7.42486],[110.20254,-7.4249],[110.20242,-7.42491],[110.20232,-7.4249],[110.20226,-7.42489],[110.20223,-7.42487],[110.20217,-7.42486],[110.20213,-7.42485],[110.20208,-7.42486],[110.20203,-7.42486],[110.20197,-7.42484],[110.20191,-7.4248],[110.20186,-7.42472],[110.20185,-7.42467],[110.20184,-7.42464],[110.2018,-7.42456],[110.20174,-7.42452],[110.20162,-7.42445],[110.20156,-7.42438],[110.20157,-7.42431],[110.20157,-7.4243],[110.2016,-7.42422],[110.20162,-7.42412],[110.20161,-7.42404],[110.20156,-7.42395],[110.20151,-7.42393],[110.20144,-7.424],[110.20137,-7.42403],[110.20127,-7.42398],[110.20125,-7.42396],[110.20118,-7.42392],[110.20118,-7.4239],[110.20117,-7.42387],[110.20118,-7.42385],[110.20121,-7.4238],[110.20122,-7.42376],[110.20119,-7.42373],[110.20115,-7.42368],[110.2011,-7.42361],[110.20107,-7.42354],[110.20106,-7.42343],[110.20108,-7.42333],[110.201,-7.42321],[110.20094,-7.42317],[110.2009,-7.42316],[110.20084,-7.42318],[110.2008,-7.42316],[110.20075,-7.42309],[110.20072,-7.42306],[110.20062,-7.42299],[110.20051,-7.42292],[110.20045,-7.4229],[110.20041,-7.4229],[110.20035,-7.42291],[110.20026,-7.42295],[110.20017,-7.42297],[110.20007,-7.42303],[110.19998,-7.42309],[110.19989,-7.42314],[110.19978,-7.42317],[110.19975,-7.42319],[110.1997,-7.42324],[110.19967,-7.42324],[110.19963,-7.42325],[110.19958,-7.42339],[110.19948,-7.42347],[110.19931,-7.42351],[110.1992,-7.42353],[110.19902,-7.42361],[110.19884,-7.42383],[110.19884,-7.42387],[110.19885,-7.42394],[110.19887,-7.42402],[110.19888,-7.4241],[110.19884,-7.42425],[110.19872,-7.42446],[110.19866,-7.42463],[110.19858,-7.42476],[110.1985,-7.42491],[110.19844,-7.42502],[110.19827,-7.42534],[110.19804,-7.42569],[110.19796,-7.42577],[110.19788,-7.42586],[110.19778,-7.42593],[110.19763,-7.42602],[110.19751,-7.42608],[110.19711,-7.42626],[110.19666,-7.42649],[110.19634,-7.42662],[110.19591,-7.42676],[110.19571,-7.42682],[110.19553,-7.42686],[110.19525,-7.42694],[110.19519,-7.42696],[110.19508,-7.42698],[110.19496,-7.42703],[110.1949,-7.42707],[110.19483,-7.42712],[110.19474,-7.42717],[110.19462,-7.42717],[110.19459,-7.42729],[110.19461,-7.42742],[110.19461,-7.42746],[110.19457,-7.42755],[110.19454,-7.42762],[110.19454,-7.42772],[110.19461,-7.42783],[110.19467,-7.42789],[110.19468,-7.42795],[110.19469,-7.42795],[110.19475,-7.428],[110.1948,-7.42809],[110.19482,-7.42813],[110.19481,-7.42818],[110.19479,-7.42826],[110.19475,-7.42832],[110.1947,-7.42836],[110.1947,-7.42845],[110.19472,-7.42854],[110.19472,-7.42859],[110.1947,-7.42865],[110.19465,-7.42871],[110.19456,-7.42882],[110.19449,-7.42886],[110.19443,-7.42897],[110.19429,-7.42919],[110.19429,-7.42922],[110.1943,-7.42927],[110.19431,-7.42931],[110.19433,-7.42935],[110.19435,-7.42937],[110.19445,-7.42937],[110.19445,-7.42939],[110.19444,-7.42941],[110.19441,-7.42943],[110.19437,-7.42947],[110.19435,-7.42951],[110.19434,-7.42957],[110.19433,-7.42961],[110.19432,-7.42963],[110.1943,-7.42966],[110.19427,-7.42968],[110.19423,-7.42969],[110.19411,-7.42974],[110.19408,-7.4298],[110.19408,-7.42996],[110.19407,-7.43001],[110.19399,-7.43005],[110.19393,-7.43003],[110.19384,-7.43002],[110.19381,-7.43002],[110.19375,-7.43003],[110.19366,-7.43009],[110.19365,-7.43012],[110.19366,-7.43016],[110.1937,-7.43022],[110.19371,-7.43023],[110.19378,-7.43027],[110.19387,-7.4303],[110.19387,-7.43037],[110.19384,-7.43044],[110.19381,-7.43046],[110.19378,-7.4305],[110.19376,-7.43055],[110.19375,-7.43058],[110.19373,-7.43059],[110.1937,-7.43059],[110.19367,-7.43062],[110.19366,-7.43065],[110.19364,-7.43068],[110.19362,-7.43069],[110.19361,-7.43073],[110.19364,-7.43079],[110.19364,-7.43082],[110.19363,-7.43082],[110.19364,-7.43085],[110.19367,-7.43091],[110.19364,-7.43092],[110.19362,-7.43094],[110.19358,-7.43096],[110.19354,-7.43101],[110.1935,-7.43107],[110.19348,-7.43113],[110.19347,-7.43122],[110.19342,-7.43138],[110.19338,-7.4315],[110.19332,-7.43172],[110.19326,-7.43186],[110.19319,-7.432],[110.19316,-7.43204],[110.19314,-7.43206],[110.19303,-7.43207],[110.19298,-7.43207],[110.19291,-7.43211],[110.19291,-7.43247],[110.1929,-7.43281],[110.1929,-7.43283],[110.19291,-7.43301],[110.19278,-7.4334],[110.19257,-7.43397],[110.19255,-7.4343],[110.19246,-7.43459],[110.19234,-7.43465],[110.19229,-7.43483],[110.19227,-7.43527],[110.19213,-7.43576],[110.19203,-7.43626],[110.1919,-7.43654],[110.19176,-7.43686],[110.19156,-7.43724],[110.19142,-7.43748],[110.19125,-7.43775],[110.19105,-7.43796],[110.19088,-7.43806],[110.19081,-7.43828],[110.19094,-7.43839],[110.19097,-7.43842],[110.19105,-7.43851],[110.19113,-7.43857],[110.19106,-7.43863],[110.19104,-7.43872],[110.191,-7.43879],[110.19095,-7.43883],[110.19089,-7.43887],[110.19086,-7.43888],[110.1908,-7.43893],[110.19069,-7.43899],[110.19064,-7.43901],[110.19064,-7.43904],[110.1906,-7.43907],[110.19051,-7.43909],[110.19041,-7.4391],[110.19036,-7.43912],[110.19033,-7.43917],[110.19039,-7.43928],[110.19033,-7.43924],[110.19002,-7.43905],[110.18988,-7.43898],[110.18981,-7.43896],[110.18976,-7.43895],[110.18968,-7.43895],[110.18965,-7.43894],[110.18957,-7.43892],[110.18954,-7.43892],[110.18953,-7.43894],[110.18952,-7.43898],[110.18924,-7.43902],[110.18901,-7.43901],[110.18898,-7.43899],[110.18891,-7.43892],[110.18887,-7.43889],[110.18881,-7.43895],[110.18878,-7.43899],[110.18876,-7.43901],[110.18874,-7.43904],[110.18871,-7.43904],[110.18866,-7.43903],[110.18863,-7.43901],[110.18856,-7.43899],[110.18852,-7.43896],[110.18851,-7.43894],[110.18853,-7.43886],[110.18854,-7.43883],[110.18853,-7.4388],[110.18844,-7.43883],[110.18841,-7.43886],[110.18837,-7.43887],[110.18831,-7.43885],[110.18826,-7.43885],[110.18824,-7.43886],[110.18821,-7.43888],[110.18818,-7.43888],[110.18814,-7.43887],[110.18811,-7.43886],[110.18805,-7.4388],[110.18799,-7.43872],[110.18794,-7.43865],[110.1878,-7.43861],[110.18765,-7.43861],[110.18758,-7.43853],[110.18745,-7.43846],[110.18728,-7.43842],[110.18719,-7.43841],[110.18713,-7.43842],[110.18693,-7.43845],[110.1868,-7.43841],[110.18666,-7.43836],[110.18651,-7.43832],[110.18647,-7.43826],[110.18636,-7.43811],[110.18633,-7.43799],[110.18628,-7.43787],[110.18626,-7.43786],[110.18625,-7.43785],[110.18605,-7.43777],[110.18604,-7.43775],[110.18603,-7.43774],[110.18599,-7.43773],[110.18592,-7.43767],[110.18581,-7.43755],[110.18576,-7.43748],[110.18566,-7.43735],[110.18549,-7.43719],[110.18547,-7.43712],[110.18546,-7.43706],[110.18544,-7.43701],[110.18541,-7.43698],[110.18536,-7.43696],[110.18532,-7.43692],[110.18531,-7.43689],[110.1853,-7.43687],[110.18524,-7.43687],[110.1852,-7.43688],[110.18514,-7.43689],[110.18499,-7.43689],[110.18492,-7.43688],[110.18487,-7.43686],[110.18483,-7.43684],[110.18477,-7.43686],[110.18475,-7.43689],[110.1847,-7.43695],[110.18468,-7.43698],[110.18462,-7.437],[110.1845,-7.43702],[110.18435,-7.43701],[110.18416,-7.43696],[110.18395,-7.4368],[110.18377,-7.43675],[110.18363,-7.43662],[110.18335,-7.4364],[110.18314,-7.43625],[110.18313,-7.43624],[110.18293,-7.43617],[110.18268,-7.43599],[110.18258,-7.43594],[110.18248,-7.43588],[110.18227,-7.43571],[110.18205,-7.43552],[110.18186,-7.43531],[110.18171,-7.43526],[110.181,-7.43525],[110.18054,-7.43526],[110.18003,-7.43525],[110.17954,-7.43523],[110.17931,-7.43514],[110.17905,-7.43497],[110.1788,-7.43484],[110.17867,-7.43477],[110.17855,-7.43467],[110.17841,-7.4346],[110.17827,-7.43454],[110.17811,-7.4345],[110.17806,-7.43446],[110.17805,-7.43446],[110.17797,-7.43443],[110.17781,-7.43439],[110.17762,-7.43436],[110.17748,-7.43425],[110.17739,-7.43416],[110.1773,-7.43406],[110.17722,-7.43393],[110.17694,-7.43348],[110.17686,-7.4334],[110.17656,-7.43303],[110.17637,-7.43298],[110.17616,-7.43293],[110.17614,-7.43293],[110.17579,-7.43301],[110.17572,-7.43303],[110.17554,-7.43307],[110.17548,-7.43308],[110.17557,-7.43264],[110.17508,-7.43237],[110.17493,-7.43176],[110.1749,-7.43165],[110.17483,-7.43145],[110.1748,-7.43139],[110.17459,-7.4311],[110.17453,-7.43102],[110.17429,-7.4308],[110.1741,-7.43065],[110.17402,-7.4305],[110.17402,-7.43036],[110.17391,-7.43007],[110.17383,-7.42996],[110.17375,-7.42987],[110.17361,-7.42977],[110.17351,-7.42967],[110.1734,-7.42949],[110.1733,-7.42909],[110.17321,-7.42882],[110.17314,-7.42864],[110.17313,-7.42861],[110.17311,-7.42859],[110.17302,-7.42851],[110.17301,-7.42851],[110.17292,-7.42848],[110.17284,-7.42841],[110.17274,-7.42834],[110.17264,-7.4283],[110.1723,-7.42812],[110.17209,-7.42797],[110.17203,-7.42792],[110.17199,-7.42787],[110.17196,-7.42781],[110.17196,-7.4278],[110.17189,-7.42772],[110.17179,-7.42769],[110.17174,-7.42769],[110.1717,-7.4277],[110.17167,-7.42771],[110.17161,-7.42775],[110.17152,-7.42778],[110.17142,-7.42776],[110.17132,-7.42769],[110.17101,-7.42745],[110.17084,-7.42721],[110.17052,-7.42702],[110.17038,-7.42691],[110.17025,-7.42681],[110.17005,-7.42665],[110.16984,-7.42645],[110.16976,-7.42637],[110.16934,-7.42609],[110.16894,-7.42589],[110.16881,-7.42585],[110.1685,-7.42575],[110.16825,-7.42568],[110.16805,-7.42564],[110.16793,-7.42563],[110.16771,-7.42563],[110.1675,-7.42564],[110.1673,-7.42564],[110.1671,-7.42559],[110.16689,-7.42556],[110.16673,-7.42554],[110.16635,-7.42554],[110.166,-7.42553],[110.16582,-7.42549],[110.16575,-7.42547],[110.16558,-7.4254],[110.16528,-7.42527],[110.16524,-7.42525],[110.16509,-7.42516],[110.16474,-7.42494],[110.16454,-7.42482],[110.16428,-7.42474],[110.16396,-7.42472],[110.16348,-7.4247],[110.16331,-7.42469],[110.16323,-7.42454],[110.16309,-7.42427],[110.16299,-7.42362],[110.16299,-7.42361],[110.16283,-7.42267],[110.16253,-7.42158],[110.16251,-7.42126],[110.16252,-7.42111],[110.16253,-7.42099],[110.16252,-7.42083],[110.16245,-7.4207],[110.16242,-7.42065],[110.16227,-7.42044],[110.16223,-7.42038],[110.16206,-7.41943],[110.16204,-7.41932],[110.16202,-7.4192],[110.16192,-7.41856],[110.16182,-7.41783],[110.16178,-7.41758],[110.16171,-7.41702],[110.16126,-7.4159],[110.16105,-7.41538],[110.1602,-7.41732],[110.1602,-7.41734],[110.1591,-7.4195],[110.15908,-7.41952],[110.15901,-7.4196],[110.15777,-7.42107],[110.15756,-7.42128],[110.15654,-7.42227],[110.15645,-7.42236],[110.15641,-7.42241],[110.15571,-7.42309],[110.15563,-7.42318],[110.1556,-7.42321],[110.15536,-7.42365],[110.15499,-7.42424],[110.15485,-7.42496],[110.1546,-7.42659],[110.15443,-7.42785],[110.15442,-7.42794],[110.15433,-7.42841],[110.15431,-7.42853],[110.15425,-7.42886],[110.15422,-7.42902],[110.15421,-7.42907],[110.15405,-7.42995],[110.15403,-7.43007],[110.15389,-7.43098],[110.15367,-7.43158],[110.15366,-7.4316],[110.15349,-7.43203],[110.15346,-7.43207],[110.15301,-7.43252],[110.15261,-7.43296],[110.15259,-7.43297],[110.15249,-7.43309],[110.15221,-7.43341],[110.15203,-7.43369],[110.15195,-7.43381],[110.15193,-7.43385],[110.15167,-7.43432],[110.15166,-7.43435],[110.15159,-7.43462],[110.15158,-7.43468],[110.15152,-7.43499],[110.15152,-7.43549],[110.15156,-7.43609],[110.15156,-7.43648],[110.1515,-7.43669],[110.15121,-7.43702],[110.15108,-7.43712],[110.15098,-7.43719],[110.15097,-7.43719],[110.15094,-7.43723],[110.1509,-7.43728],[110.15087,-7.43735],[110.15084,-7.43766],[110.15076,-7.43763],[110.15066,-7.43752],[110.15055,-7.43737],[110.15042,-7.43737],[110.1503,-7.43742],[110.15021,-7.43745],[110.14995,-7.43772],[110.1499,-7.43788],[110.14996,-7.438],[110.14999,-7.43808],[110.15001,-7.43812],[110.15002,-7.43823],[110.14992,-7.43835],[110.14982,-7.4384],[110.14973,-7.43849],[110.14961,-7.43854],[110.14934,-7.43862],[110.14929,-7.43867],[110.14926,-7.43871],[110.14925,-7.43871],[110.14923,-7.43872],[110.1492,-7.43875],[110.14917,-7.43877],[110.14911,-7.43885],[110.14909,-7.43889],[110.14909,-7.43891],[110.14908,-7.43893],[110.14908,-7.43896],[110.14909,-7.43897],[110.14909,-7.43899],[110.1491,-7.43901],[110.14914,-7.43905],[110.14928,-7.4391],[110.14935,-7.43914],[110.14942,-7.43917],[110.14943,-7.43917],[110.14948,-7.43919],[110.14956,-7.43921],[110.14962,-7.43923],[110.14974,-7.43929],[110.14983,-7.43933],[110.14986,-7.43934],[110.1499,-7.43936],[110.14994,-7.43939],[110.15001,-7.43944],[110.15005,-7.43949],[110.15007,-7.43952],[110.15008,-7.43953],[110.15008,-7.43954],[110.15009,-7.43955],[110.1501,-7.43958],[110.1501,-7.43964],[110.15009,-7.43979],[110.15011,-7.43987],[110.15013,-7.43997],[110.15015,-7.44],[110.15015,-7.44001],[110.15018,-7.44006],[110.1502,-7.4401],[110.15023,-7.44015],[110.15026,-7.44017],[110.15028,-7.44019],[110.15034,-7.44023],[110.15036,-7.44024],[110.15037,-7.44025],[110.15043,-7.44028],[110.15046,-7.4403],[110.1505,-7.44032],[110.15055,-7.44036],[110.15056,-7.44037],[110.15058,-7.44037],[110.15059,-7.44038],[110.15059,-7.44039],[110.15061,-7.4404],[110.15063,-7.44042],[110.15063,-7.44043],[110.15066,-7.44046],[110.1507,-7.44051],[110.15071,-7.44054],[110.15074,-7.44058],[110.15082,-7.44062],[110.15091,-7.44065],[110.15095,-7.44067],[110.15096,-7.44067],[110.15098,-7.44068],[110.15109,-7.44068],[110.15121,-7.44069],[110.15142,-7.44069],[110.1515,-7.4407],[110.15167,-7.4407],[110.15192,-7.44074],[110.15206,-7.44076],[110.15214,-7.44078],[110.15228,-7.44082],[110.15234,-7.44085],[110.15239,-7.44088],[110.1524,-7.4409],[110.15248,-7.44096],[110.15253,-7.44101],[110.15256,-7.44105],[110.15259,-7.4411],[110.15261,-7.44113],[110.15262,-7.44118],[110.15262,-7.44122],[110.15263,-7.44127],[110.15263,-7.44143],[110.15261,-7.44168],[110.15261,-7.44192],[110.15262,-7.44196],[110.15266,-7.44203],[110.15273,-7.44209],[110.15282,-7.44214],[110.15295,-7.44221],[110.15304,-7.44224],[110.15306,-7.44225],[110.15314,-7.44227],[110.15339,-7.44232],[110.15342,-7.44234],[110.15346,-7.44235],[110.15353,-7.44238],[110.15358,-7.44242],[110.15364,-7.44254],[110.15365,-7.44255],[110.15373,-7.4427],[110.15377,-7.44276],[110.15387,-7.44297],[110.15391,-7.44304],[110.15394,-7.44305],[110.15399,-7.44304],[110.15402,-7.44301],[110.15413,-7.44288],[110.1542,-7.44282],[110.15422,-7.44281],[110.15429,-7.44276],[110.15431,-7.44274],[110.15442,-7.44268],[110.15453,-7.44264],[110.15467,-7.44264],[110.1547,-7.44265],[110.15472,-7.44266],[110.15474,-7.44266],[110.15477,-7.44268],[110.15482,-7.44273],[110.15484,-7.44276],[110.15485,-7.44279],[110.15487,-7.44281],[110.15488,-7.44283],[110.15488,-7.44284],[110.15499,-7.44302],[110.1551,-7.44319],[110.15516,-7.44329],[110.15526,-7.44343],[110.15527,-7.44345],[110.15528,-7.44348],[110.15528,-7.44355],[110.15526,-7.44363],[110.15524,-7.44368],[110.15523,-7.4437],[110.15514,-7.44385],[110.15514,-7.44386],[110.15512,-7.4439],[110.15507,-7.44401],[110.15505,-7.4441],[110.15506,-7.44421],[110.15507,-7.44425],[110.15508,-7.44428],[110.15512,-7.44436],[110.15518,-7.44442],[110.15526,-7.44449],[110.15527,-7.4445],[110.15537,-7.44457],[110.15539,-7.44459],[110.15554,-7.44467],[110.15559,-7.44469],[110.15571,-7.44469],[110.1558,-7.44468],[110.15583,-7.44466],[110.15588,-7.44464],[110.15592,-7.44459],[110.15597,-7.44455],[110.15599,-7.44454],[110.15601,-7.44454],[110.15603,-7.44456],[110.15604,-7.4446],[110.15604,-7.44463],[110.15605,-7.44468],[110.15607,-7.44472],[110.15607,-7.44473],[110.1561,-7.44479],[110.15615,-7.44487],[110.1562,-7.44497],[110.1563,-7.44507],[110.15633,-7.44511],[110.1564,-7.44518],[110.15642,-7.44521],[110.15643,-7.44522],[110.15643,-7.44523],[110.15644,-7.44523],[110.15646,-7.44526],[110.15649,-7.44534],[110.15649,-7.44535],[110.15652,-7.44538],[110.15657,-7.44544],[110.15665,-7.44554],[110.15668,-7.44558],[110.15669,-7.44559],[110.15675,-7.44562],[110.15682,-7.44567],[110.15693,-7.44572],[110.15694,-7.44573],[110.157,-7.44576],[110.15703,-7.44577],[110.15708,-7.44582],[110.15712,-7.4459],[110.15713,-7.44594],[110.15719,-7.44622],[110.15719,-7.44624],[110.1572,-7.44627],[110.1572,-7.44637],[110.15719,-7.44651],[110.15719,-7.44661],[110.15718,-7.4467],[110.15718,-7.44681],[110.1572,-7.44691],[110.15721,-7.44692],[110.15722,-7.44696],[110.15723,-7.44698],[110.15724,-7.44701],[110.1573,-7.44707],[110.15737,-7.4471],[110.15739,-7.44711],[110.15744,-7.44712],[110.15757,-7.44713],[110.15763,-7.44714],[110.15767,-7.44715],[110.15772,-7.44716],[110.15778,-7.44719],[110.1578,-7.44722],[110.15781,-7.44725],[110.15782,-7.44731],[110.15782,-7.44735],[110.15781,-7.4474],[110.1578,-7.44743],[110.1578,-7.44746],[110.15777,-7.44757],[110.15775,-7.44764],[110.15775,-7.44779],[110.15774,-7.44787],[110.15772,-7.44796],[110.15772,-7.448],[110.15768,-7.44811],[110.15764,-7.44823],[110.15763,-7.44825],[110.15762,-7.4483],[110.15762,-7.44834],[110.15761,-7.44838],[110.15761,-7.44845],[110.1576,-7.44847],[110.15762,-7.44854],[110.15763,-7.44855],[110.15767,-7.44861],[110.15766,-7.44861],[110.15762,-7.44863],[110.15747,-7.44869],[110.15726,-7.44877],[110.15704,-7.44873],[110.15688,-7.44862],[110.15681,-7.44852],[110.1567,-7.44832],[110.15669,-7.44827],[110.15667,-7.44815],[110.15663,-7.44799],[110.15656,-7.44775],[110.15652,-7.44763],[110.15651,-7.44746],[110.15651,-7.44733],[110.15648,-7.44725],[110.15641,-7.44719],[110.15626,-7.44719],[110.15614,-7.44724],[110.15608,-7.44734],[110.15603,-7.44752],[110.15594,-7.44768],[110.15586,-7.44769],[110.15576,-7.44763],[110.15568,-7.44756],[110.15563,-7.44752],[110.15552,-7.44739],[110.15541,-7.44733],[110.15536,-7.4473],[110.15533,-7.44729],[110.15502,-7.44721],[110.15473,-7.44717],[110.15462,-7.4472],[110.1545,-7.44723],[110.15436,-7.44723],[110.1542,-7.44715],[110.154,-7.447],[110.15381,-7.44688],[110.1536,-7.44676],[110.15342,-7.44666],[110.15335,-7.44661],[110.15324,-7.4466],[110.1531,-7.44654],[110.15307,-7.4465],[110.15305,-7.44648],[110.15304,-7.44638],[110.15309,-7.44623],[110.15323,-7.44616],[110.15324,-7.44616],[110.15339,-7.44609],[110.15343,-7.44599],[110.15347,-7.44579],[110.15347,-7.44537],[110.15344,-7.44523],[110.15344,-7.44519],[110.15337,-7.44504],[110.1533,-7.44494],[110.15311,-7.44487],[110.153,-7.44483],[110.15296,-7.44482],[110.15284,-7.4448],[110.15277,-7.44479],[110.15262,-7.4448],[110.1526,-7.4448],[110.15248,-7.44481],[110.1524,-7.44482],[110.15232,-7.44482],[110.1522,-7.44481],[110.15215,-7.44481],[110.15202,-7.44478],[110.15191,-7.44478],[110.15182,-7.44479],[110.15178,-7.4448],[110.15164,-7.44476],[110.15157,-7.44469],[110.15151,-7.4446],[110.15148,-7.44432],[110.15143,-7.44396],[110.15137,-7.44379],[110.15137,-7.44378],[110.15133,-7.44372],[110.15128,-7.44363],[110.15127,-7.44362],[110.15115,-7.44351],[110.15094,-7.44334],[110.15082,-7.44319],[110.1508,-7.44317],[110.15069,-7.44308],[110.15055,-7.44301],[110.15042,-7.44297],[110.15013,-7.44293],[110.14997,-7.44291],[110.14985,-7.44293],[110.14961,-7.4431],[110.14934,-7.44324],[110.14904,-7.4434],[110.14884,-7.44352],[110.14872,-7.44364],[110.14858,-7.44381],[110.14841,-7.44385],[110.14834,-7.44385],[110.14827,-7.44386],[110.1481,-7.44385],[110.14802,-7.44379],[110.14797,-7.44376],[110.14778,-7.44358],[110.14775,-7.44347],[110.14773,-7.44334],[110.14773,-7.44329],[110.14779,-7.44316],[110.14793,-7.44295],[110.14795,-7.44289],[110.14797,-7.44285],[110.14803,-7.44268],[110.14803,-7.44253],[110.14799,-7.44238],[110.14795,-7.44235],[110.14784,-7.44224],[110.14772,-7.44216],[110.14761,-7.44212],[110.14746,-7.44207],[110.14734,-7.44208],[110.14719,-7.44209],[110.14715,-7.4421],[110.14688,-7.44213],[110.14677,-7.44213],[110.1467,-7.44212],[110.14663,-7.44212],[110.1466,-7.44211],[110.14654,-7.44208],[110.14642,-7.44198],[110.14631,-7.44184],[110.14629,-7.44182],[110.14617,-7.44168],[110.14614,-7.44164],[110.14613,-7.44162],[110.14601,-7.4415],[110.14594,-7.44147],[110.14592,-7.44147],[110.14587,-7.44146],[110.14582,-7.44147],[110.14578,-7.44149],[110.14573,-7.44152],[110.14573,-7.44153],[110.14563,-7.44157],[110.14557,-7.44157],[110.14551,-7.44155],[110.14546,-7.44151],[110.1454,-7.44146],[110.14538,-7.44145],[110.14534,-7.44141],[110.14523,-7.44139],[110.14486,-7.44131],[110.14473,-7.44121],[110.14448,-7.44106],[110.14432,-7.441],[110.14412,-7.44094],[110.14393,-7.44089],[110.14377,-7.44082],[110.14375,-7.44081],[110.14375,-7.4408],[110.14373,-7.44074],[110.14363,-7.44059],[110.14354,-7.44053],[110.14347,-7.44053],[110.14336,-7.44063],[110.14329,-7.44078],[110.14308,-7.4409],[110.14299,-7.44095],[110.14286,-7.44102],[110.14254,-7.44119],[110.14243,-7.44125],[110.14238,-7.44127],[110.14225,-7.44131],[110.14213,-7.44131],[110.14192,-7.44122],[110.1419,-7.44119],[110.14183,-7.44109],[110.14178,-7.441],[110.14172,-7.44094],[110.14161,-7.4409],[110.14158,-7.4409],[110.14157,-7.44089],[110.14146,-7.44086],[110.14144,-7.4408],[110.14143,-7.44078],[110.14142,-7.44063],[110.14139,-7.44054],[110.14126,-7.44054],[110.14115,-7.44063],[110.14091,-7.44074],[110.14086,-7.44076],[110.1408,-7.44078],[110.14061,-7.44078],[110.14054,-7.44074],[110.1405,-7.44079],[110.14045,-7.44085],[110.14043,-7.44091],[110.14042,-7.44093],[110.14037,-7.44105],[110.1403,-7.44135],[110.1403,-7.44137],[110.14026,-7.44152],[110.14024,-7.44173],[110.14023,-7.44196],[110.14026,-7.44207],[110.14025,-7.44218],[110.1402,-7.44228],[110.14014,-7.44235],[110.14004,-7.44245],[110.13992,-7.44256],[110.1399,-7.44259],[110.13984,-7.44267],[110.13976,-7.44286],[110.13967,-7.44314],[110.13959,-7.4433],[110.13957,-7.44331],[110.13942,-7.44331],[110.13939,-7.44332],[110.13935,-7.44334],[110.13925,-7.44338],[110.13922,-7.44339],[110.13919,-7.44344],[110.13918,-7.44348],[110.13918,-7.44353],[110.13919,-7.44362],[110.13919,-7.44365],[110.13921,-7.44371],[110.1392,-7.44376],[110.13916,-7.4438],[110.13909,-7.44385],[110.139,-7.44393],[110.13893,-7.44403],[110.13881,-7.44426],[110.1388,-7.44435]]]}}]}