{"type":"FeatureCollection","features":[{"type":"Feature","properties":{"KECAMATAN":"Borobudur"},"geometry":{"type":"Polygon","coordinates":[[[110.1504,-7.5973],[110.15041,-7.59733],[110.15052,-7.59794],[110.15069,-7.59848],[110.15103,-7.59923],[110.15103,-7.59924],[110.15136,-7.59975],[110.15184,-7.60042],[110.15214,-7.60079],[110.15348,-7.60251],[110.15369,-7.60282],[110.15379,-7.6029],[110.15407,-7.60296],[110.1542,-7.60299],[110.15433,-7.60312],[110.15443,-7.60327],[110.15456,-7.60333],[110.15481,-7.60342],[110.15502,-7.60372],[110.15515,-7.60402],[110.15533,-7.60473],[110.15534,-7.60531],[110.1554,-7.60622],[110.1554,-7.60625],[110.15539,-7.60654],[110.15539,-7.60665],[110.15538,-7.60702],[110.15536,-7.6074],[110.15536,-7.60752],[110.15535,-7.60777],[110.15525,-7.60822],[110.15519,-7.60853],[110.15517,-7.60873],[110.15515,-7.60901],[110.15513,-7.60932],[110.15513,-7.60935],[110.15514,-7.60955],[110.15514,-7.60962],[110.15515,-7.60984],[110.15516,-7.60999],[110.15513,-7.6104],[110.15508,-7.61105],[110.15508,-7.61107],[110.15506,-7.6116],[110.15502,-7.61181],[110.15498,-7.6121],[110.15502,-7.61242],[110.15503,-7.61247],[110.15508,-7.61278],[110.15511,-7.61314],[110.15515,-7.61334],[110.15523,-7.61371],[110.15532,-7.61393],[110.1557,-7.61487],[110.15579,-7.61522],[110.15581,-7.61551],[110.15582,-7.6157],[110.15593,-7.61604],[110.15595,-7.61609],[110.15615,-7.61625],[110.15672,-7.61651],[110.15707,-7.61674],[110.15732,-7.617],[110.15741,-7.61717],[110.15745,-7.61754],[110.15739,-7.61799],[110.15723,-7.61837],[110.15688,-7.61899],[110.15686,-7.61902],[110.15683,-7.61907],[110.1565,-7.61953],[110.15625,-7.61988],[110.15584,-7.62039],[110.15582,-7.62041],[110.15546,-7.62082],[110.15544,-7.62085],[110.15438,-7.622],[110.15417,-7.62223],[110.15404,-7.6224],[110.15382,-7.62269],[110.15365,-7.62308],[110.15353,-7.62362],[110.15479,-7.62451],[110.15642,-7.6257],[110.15758,-7.62652],[110.15869,-7.62781],[110.15949,-7.62833],[110.15957,-7.62907],[110.15977,-7.6294],[110.16006,-7.62989],[110.16063,-7.63035],[110.16093,-7.63043],[110.16146,-7.63058],[110.1623,-7.63085],[110.1623,-7.63086],[110.16232,-7.63086],[110.16232,-7.63088],[110.16238,-7.631],[110.16242,-7.63111],[110.16248,-7.63125],[110.16257,-7.63137],[110.1626,-7.63143],[110.16261,-7.63149],[110.16261,-7.63158],[110.16259,-7.63165],[110.16256,-7.63176],[110.16255,-7.63178],[110.16249,-7.63199],[110.16249,-7.63215],[110.16255,-7.63238],[110.16255,-7.63239],[110.16259,-7.63254],[110.16259,-7.6327],[110.16261,-7.63275],[110.16262,-7.63277],[110.16271,-7.63289],[110.16273,-7.63293],[110.16287,-7.63307],[110.16288,-7.63309],[110.16291,-7.63313],[110.16293,-7.63321],[110.16295,-7.6333],[110.16299,-7.63346],[110.16299,-7.63347],[110.163,-7.63348],[110.163,-7.63349],[110.16303,-7.63352],[110.16309,-7.63357],[110.16317,-7.63371],[110.16318,-7.63372],[110.16328,-7.63387],[110.16331,-7.63392],[110.16334,-7.63404],[110.16336,-7.6341],[110.16337,-7.63414],[110.1634,-7.63427],[110.16343,-7.63441],[110.16346,-7.63461],[110.16347,-7.63466],[110.16347,-7.63468],[110.16346,-7.63473],[110.16344,-7.63479],[110.1634,-7.63488],[110.16339,-7.6349],[110.16339,-7.63494],[110.16338,-7.63502],[110.1634,-7.63512],[110.16341,-7.63513],[110.16345,-7.63529],[110.16345,-7.63543],[110.16344,-7.63554],[110.16343,-7.6356],[110.16339,-7.63572],[110.16338,-7.63577],[110.16337,-7.63581],[110.16337,-7.63604],[110.16335,-7.63609],[110.16332,-7.63613],[110.16323,-7.63622],[110.1632,-7.63624],[110.1632,-7.63625],[110.16319,-7.63625],[110.16318,-7.63626],[110.16304,-7.63632],[110.16296,-7.63635],[110.16289,-7.63638],[110.16288,-7.63638],[110.16281,-7.63644],[110.1628,-7.63645],[110.16276,-7.63656],[110.16275,-7.6366],[110.16273,-7.63665],[110.16273,-7.63679],[110.16268,-7.63679],[110.16265,-7.6368],[110.16255,-7.63682],[110.16249,-7.63684],[110.1624,-7.63688],[110.16238,-7.63689],[110.16238,-7.63691],[110.16239,-7.63693],[110.16241,-7.63701],[110.16241,-7.63704],[110.16244,-7.63712],[110.16244,-7.63722],[110.16245,-7.63723],[110.16244,-7.63726],[110.16244,-7.63731],[110.16241,-7.63736],[110.1624,-7.63738],[110.16232,-7.63745],[110.16228,-7.63748],[110.16219,-7.63758],[110.16217,-7.63761],[110.16214,-7.63765],[110.16214,-7.63773],[110.16213,-7.63777],[110.1621,-7.6379],[110.16206,-7.63804],[110.16201,-7.63816],[110.162,-7.6382],[110.16191,-7.63834],[110.16186,-7.63844],[110.16185,-7.63844],[110.16184,-7.63848],[110.16183,-7.63853],[110.16183,-7.63859],[110.16182,-7.6386],[110.16181,-7.63864],[110.16178,-7.63869],[110.16174,-7.63869],[110.161,-7.63882],[110.16067,-7.63871],[110.16056,-7.63865],[110.1605,-7.63861],[110.1604,-7.6386],[110.16031,-7.6386],[110.16023,-7.63865],[110.16008,-7.63878],[110.15987,-7.63901],[110.15907,-7.63981],[110.1589,-7.64045],[110.15882,-7.64285],[110.15871,-7.64312],[110.15833,-7.64357],[110.15798,-7.64388],[110.15794,-7.64433],[110.15763,-7.64467],[110.15812,-7.6453],[110.1581,-7.64585],[110.15809,-7.64689],[110.15816,-7.6469],[110.15823,-7.6469],[110.1583,-7.64691],[110.15844,-7.64691],[110.15851,-7.64692],[110.159,-7.64692],[110.15907,-7.64691],[110.15914,-7.64691],[110.15921,-7.6469],[110.15928,-7.6469],[110.15942,-7.64688],[110.15948,-7.64688],[110.15969,-7.64685],[110.15976,-7.64685],[110.1599,-7.64683],[110.15997,-7.64683],[110.16011,-7.64681],[110.16025,-7.64681],[110.16032,-7.6468],[110.16067,-7.6468],[110.16074,-7.64681],[110.16081,-7.64681],[110.16102,-7.64684],[110.16105,-7.64685],[110.16109,-7.64685],[110.16123,-7.64689],[110.16129,-7.64691],[110.16136,-7.64693],[110.16142,-7.64695],[110.16149,-7.64698],[110.16156,-7.647],[110.16162,-7.64702],[110.16183,-7.64708],[110.16189,-7.64709],[110.16196,-7.6471],[110.16238,-7.64715],[110.16286,-7.64721],[110.16324,-7.64724],[110.16329,-7.64725],[110.16336,-7.64726],[110.16369,-7.64732],[110.16381,-7.64734],[110.16414,-7.6474],[110.16425,-7.64743],[110.16437,-7.64745],[110.1647,-7.64751],[110.16482,-7.64753],[110.16493,-7.64754],[110.16515,-7.64758],[110.16527,-7.6476],[110.16538,-7.64762],[110.16549,-7.64763],[110.1656,-7.64765],[110.16572,-7.64767],[110.16594,-7.64771],[110.16605,-7.64774],[110.16616,-7.64776],[110.16628,-7.64778],[110.16639,-7.64781],[110.1665,-7.64783],[110.16683,-7.64792],[110.16694,-7.64796],[110.16716,-7.64802],[110.16716,-7.64803],[110.16738,-7.64809],[110.16748,-7.64812],[110.16759,-7.64815],[110.16771,-7.64818],[110.16804,-7.64824],[110.16815,-7.64825],[110.16827,-7.64826],[110.16849,-7.64828],[110.16861,-7.64829],[110.16902,-7.6484],[110.16948,-7.64853],[110.17015,-7.64855],[110.17027,-7.64856],[110.17039,-7.64856],[110.17075,-7.64853],[110.17086,-7.64851],[110.17098,-7.64848],[110.17103,-7.64847],[110.1711,-7.64845],[110.17121,-7.64842],[110.17132,-7.64838],[110.17144,-7.64834],[110.17155,-7.6483],[110.17166,-7.64827],[110.17178,-7.64823],[110.17189,-7.64819],[110.17201,-7.64816],[110.17212,-7.64812],[110.17224,-7.64809],[110.17235,-7.64806],[110.17247,-7.64803],[110.17258,-7.648],[110.17282,-7.64794],[110.17293,-7.64792],[110.17341,-7.64784],[110.17352,-7.64782],[110.17364,-7.64781],[110.17376,-7.64779],[110.17412,-7.64776],[110.17424,-7.64776],[110.17436,-7.64775],[110.17448,-7.64775],[110.17459,-7.64774],[110.17483,-7.64774],[110.17495,-7.64773],[110.17519,-7.64773],[110.17531,-7.64772],[110.17543,-7.64772],[110.17603,-7.64767],[110.17614,-7.64766],[110.17626,-7.64765],[110.17635,-7.64764],[110.17638,-7.64764],[110.17674,-7.64761],[110.17681,-7.6476],[110.17686,-7.6476],[110.17722,-7.64757],[110.17733,-7.64756],[110.17757,-7.64756],[110.17769,-7.64755],[110.17873,-7.64757],[110.17928,-7.64758],[110.17951,-7.64759],[110.17967,-7.64758],[110.17985,-7.64758],[110.17995,-7.64757],[110.18004,-7.64757],[110.18031,-7.64754],[110.18036,-7.64753],[110.18048,-7.6475],[110.18075,-7.64744],[110.18084,-7.64741],[110.18092,-7.64739],[110.18101,-7.64736],[110.1811,-7.64734],[110.18119,-7.64731],[110.18127,-7.64729],[110.18132,-7.64728],[110.18136,-7.64726],[110.18154,-7.64722],[110.18156,-7.64721],[110.18163,-7.6472],[110.18171,-7.64717],[110.18189,-7.64713],[110.18198,-7.64712],[110.18225,-7.64706],[110.18234,-7.64705],[110.18252,-7.64701],[110.1826,-7.647],[110.18269,-7.64698],[110.18272,-7.64698],[110.18278,-7.64697],[110.18287,-7.64695],[110.18296,-7.64694],[110.18341,-7.64684],[110.18349,-7.64681],[110.18367,-7.64675],[110.18375,-7.64672],[110.18384,-7.64669],[110.18392,-7.64666],[110.184,-7.64662],[110.18409,-7.64659],[110.18417,-7.64655],[110.18426,-7.64651],[110.18434,-7.64648],[110.18442,-7.64644],[110.18451,-7.64641],[110.18459,-7.64638],[110.18468,-7.64635],[110.18476,-7.64632],[110.18485,-7.6463],[110.18494,-7.64627],[110.18503,-7.64625],[110.18512,-7.64624],[110.1852,-7.64622],[110.18529,-7.64621],[110.18538,-7.64619],[110.18553,-7.64617],[110.18632,-7.64604],[110.18663,-7.64596],[110.18664,-7.64596],[110.18698,-7.64587],[110.18713,-7.64584],[110.18719,-7.64584],[110.18725,-7.64583],[110.18731,-7.64583],[110.18737,-7.64582],[110.1875,-7.64582],[110.18756,-7.64581],[110.18768,-7.64581],[110.18774,-7.6458],[110.18786,-7.6458],[110.18792,-7.64579],[110.18799,-7.64579],[110.18805,-7.64578],[110.18811,-7.64578],[110.18829,-7.64575],[110.18835,-7.64575],[110.18847,-7.64573],[110.18854,-7.64572],[110.18884,-7.64567],[110.18889,-7.64566],[110.1889,-7.64566],[110.18908,-7.64563],[110.18915,-7.64563],[110.18939,-7.64565],[110.18989,-7.64579],[110.18997,-7.64582],[110.19041,-7.64596],[110.19065,-7.64612],[110.19079,-7.64628],[110.19087,-7.64636],[110.19108,-7.6466],[110.19116,-7.64668],[110.19123,-7.64676],[110.19131,-7.64683],[110.19145,-7.64699],[110.19152,-7.64708],[110.19158,-7.64716],[110.19165,-7.64725],[110.19171,-7.64733],[110.19176,-7.64742],[110.19182,-7.64752],[110.19187,-7.64761],[110.19192,-7.64771],[110.19197,-7.6478],[110.19201,-7.6479],[110.19205,-7.64801],[110.19213,-7.64821],[110.19216,-7.64832],[110.19228,-7.64862],[110.19233,-7.64871],[110.19239,-7.6488],[110.19245,-7.64888],[110.19253,-7.64896],[110.19261,-7.64903],[110.19279,-7.64915],[110.19289,-7.6492],[110.19298,-7.64925],[110.19308,-7.6493],[110.19328,-7.64938],[110.19358,-7.64947],[110.19369,-7.64949],[110.19379,-7.64951],[110.1939,-7.64952],[110.19401,-7.64954],[110.19411,-7.64955],[110.19422,-7.64957],[110.19444,-7.64959],[110.19454,-7.6496],[110.19465,-7.64961],[110.19476,-7.64963],[110.19487,-7.64964],[110.19497,-7.64966],[110.19519,-7.6497],[110.19529,-7.64972],[110.19539,-7.64975],[110.1955,-7.64978],[110.1958,-7.64987],[110.1959,-7.64991],[110.19601,-7.64995],[110.19631,-7.65007],[110.19641,-7.65012],[110.19651,-7.65016],[110.1966,-7.65021],[110.1967,-7.65027],[110.19679,-7.65033],[110.19687,-7.6504],[110.19694,-7.65047],[110.19701,-7.65055],[110.19706,-7.65064],[110.19712,-7.65073],[110.19722,-7.65093],[110.19727,-7.65102],[110.19733,-7.65112],[110.19745,-7.6513],[110.19751,-7.65138],[110.19758,-7.65147],[110.19779,-7.65171],[110.19786,-7.6518],[110.198,-7.65196],[110.19806,-7.65204],[110.19812,-7.65213],[110.19817,-7.65222],[110.19823,-7.65231],[110.19833,-7.65249],[110.19839,-7.65259],[110.19844,-7.65269],[110.19856,-7.65289],[110.19862,-7.65298],[110.19869,-7.65306],[110.19877,-7.65313],[110.19886,-7.65319],[110.19895,-7.65322],[110.19906,-7.65323],[110.19927,-7.65323],[110.19939,-7.65322],[110.1995,-7.65322],[110.1996,-7.65324],[110.19971,-7.65327],[110.19981,-7.65331],[110.1999,-7.65335],[110.2001,-7.65345],[110.20019,-7.6535],[110.20029,-7.65355],[110.20049,-7.65363],[110.20059,-7.65366],[110.2007,-7.65369],[110.2009,-7.65375],[110.20101,-7.65377],[110.20111,-7.6538],[110.20122,-7.65382],[110.20132,-7.65384],[110.20154,-7.65388],[110.20164,-7.65389],[110.20175,-7.65391],[110.20186,-7.65392],[110.20196,-7.65393],[110.20239,-7.65393],[110.20272,-7.6539],[110.20282,-7.65389],[110.20293,-7.65387],[110.20303,-7.65385],[110.20314,-7.65383],[110.20324,-7.65381],[110.20335,-7.65378],[110.20345,-7.65376],[110.20356,-7.65373],[110.20366,-7.65371],[110.20377,-7.65368],[110.20397,-7.65362],[110.20408,-7.65359],[110.20428,-7.65353],[110.20439,-7.6535],[110.20459,-7.65344],[110.20469,-7.6534],[110.2048,-7.65337],[110.2049,-7.65334],[110.205,-7.6533],[110.2051,-7.65327],[110.2053,-7.65319],[110.2054,-7.65316],[110.2057,-7.65304],[110.20577,-7.65301],[110.2058,-7.653],[110.206,-7.65292],[110.2061,-7.65287],[110.2063,-7.65279],[110.20639,-7.65274],[110.20659,-7.65264],[110.20668,-7.65259],[110.20678,-7.65254],[110.20687,-7.65249],[110.20705,-7.65237],[110.20714,-7.65232],[110.20768,-7.65196],[110.20777,-7.65191],[110.20787,-7.65186],[110.20796,-7.65181],[110.20806,-7.65177],[110.20816,-7.65172],[110.20846,-7.6516],[110.20856,-7.65155],[110.20874,-7.65145],[110.20883,-7.65139],[110.20892,-7.65132],[110.209,-7.65126],[110.20908,-7.65119],[110.20917,-7.65112],[110.20935,-7.651],[110.20944,-7.65095],[110.20953,-7.65089],[110.20962,-7.65082],[110.20971,-7.65076],[110.21046,-7.64986],[110.2105,-7.6498],[110.21055,-7.64973],[110.21063,-7.64961],[110.21071,-7.64947],[110.21075,-7.64941],[110.21078,-7.64934],[110.21082,-7.64927],[110.21086,-7.64921],[110.2109,-7.64914],[110.21094,-7.64908],[110.21098,-7.64901],[110.21102,-7.64895],[110.21105,-7.6489],[110.21106,-7.64888],[110.21114,-7.64876],[110.21118,-7.64869],[110.21126,-7.64857],[110.21131,-7.64851],[110.21135,-7.64844],[110.21147,-7.64826],[110.21151,-7.64819],[110.21156,-7.64813],[110.2116,-7.64807],[110.21164,-7.648],[110.21168,-7.64794],[110.21176,-7.6478],[110.2118,-7.64774],[110.21184,-7.64767],[110.21187,-7.6476],[110.21195,-7.64746],[110.21198,-7.64739],[110.21202,-7.64732],[110.21205,-7.64724],[110.21209,-7.64717],[110.21212,-7.64709],[110.21216,-7.64701],[110.21219,-7.64694],[110.21223,-7.64687],[110.21226,-7.64679],[110.2123,-7.64673],[110.21234,-7.64666],[110.21244,-7.64654],[110.21249,-7.64649],[110.21254,-7.64645],[110.2126,-7.64641],[110.21261,-7.64641],[110.21267,-7.64638],[110.21274,-7.64635],[110.21281,-7.64633],[110.21289,-7.64632],[110.21297,-7.6463],[110.21304,-7.64628],[110.21312,-7.64627],[110.2132,-7.64625],[110.21327,-7.64622],[110.21335,-7.6462],[110.21393,-7.64596],[110.214,-7.64595],[110.21481,-7.64585],[110.21491,-7.64586],[110.215,-7.64586],[110.21509,-7.64587],[110.21518,-7.64587],[110.21536,-7.64589],[110.21545,-7.64591],[110.21554,-7.64592],[110.21562,-7.64593],[110.21571,-7.64595],[110.2158,-7.64596],[110.21598,-7.646],[110.21607,-7.64601],[110.21616,-7.64603],[110.21625,-7.64604],[110.21634,-7.64606],[110.21643,-7.64607],[110.21652,-7.64609],[110.21662,-7.6461],[110.21671,-7.64612],[110.2168,-7.64613],[110.21698,-7.64617],[110.21707,-7.64618],[110.21716,-7.6462],[110.21725,-7.64623],[110.21734,-7.64625],[110.21742,-7.64628],[110.21751,-7.64631],[110.21775,-7.64643],[110.21782,-7.64648],[110.2179,-7.64653],[110.21804,-7.64665],[110.2181,-7.64671],[110.21817,-7.64677],[110.21824,-7.64684],[110.21838,-7.64696],[110.21845,-7.64701],[110.21853,-7.64706],[110.2186,-7.6471],[110.21868,-7.64714],[110.21877,-7.64717],[110.21885,-7.6472],[110.2193,-7.6473],[110.21939,-7.64733],[110.21947,-7.64735],[110.21956,-7.64738],[110.21964,-7.64742],[110.21973,-7.64745],[110.21989,-7.64753],[110.21997,-7.64758],[110.22005,-7.64762],[110.22021,-7.64772],[110.22028,-7.64777],[110.22036,-7.64782],[110.22043,-7.64788],[110.2205,-7.64793],[110.22058,-7.64798],[110.22072,-7.6481],[110.22079,-7.64815],[110.22087,-7.6482],[110.22094,-7.64826],[110.22101,-7.64831],[110.22109,-7.64836],[110.22116,-7.64841],[110.22132,-7.64849],[110.22135,-7.64851],[110.22173,-7.64878],[110.22203,-7.64892],[110.22235,-7.649],[110.22283,-7.64913],[110.2229,-7.64916],[110.22325,-7.64926],[110.22333,-7.64928],[110.2234,-7.6493],[110.22347,-7.64931],[110.22354,-7.64933],[110.22362,-7.64934],[110.22369,-7.64935],[110.22377,-7.64936],[110.22391,-7.64938],[110.22399,-7.64939],[110.22406,-7.6494],[110.22414,-7.64941],[110.22421,-7.64941],[110.22429,-7.64942],[110.22436,-7.64943],[110.22444,-7.64944],[110.22451,-7.64944],[110.22459,-7.64945],[110.22466,-7.64946],[110.22474,-7.64947],[110.22481,-7.64947],[110.22489,-7.64948],[110.22503,-7.6495],[110.22511,-7.64951],[110.22518,-7.64952],[110.22526,-7.64953],[110.22533,-7.64954],[110.22541,-7.64955],[110.22555,-7.64957],[110.22563,-7.64958],[110.2257,-7.6496],[110.22577,-7.64961],[110.22589,-7.64966],[110.22622,-7.64981],[110.22675,-7.64994],[110.22722,-7.64995],[110.22728,-7.64997],[110.22735,-7.64999],[110.22774,-7.65011],[110.22786,-7.65015],[110.22825,-7.65027],[110.22838,-7.65032],[110.2285,-7.65036],[110.22863,-7.6504],[110.22876,-7.65043],[110.22902,-7.65051],[110.22915,-7.65054],[110.22927,-7.65057],[110.2294,-7.65061],[110.22953,-7.65063],[110.22967,-7.65066],[110.23006,-7.65072],[110.2302,-7.65074],[110.23033,-7.65075],[110.23046,-7.65077],[110.2306,-7.65078],[110.23069,-7.65079],[110.23073,-7.65079],[110.23086,-7.65081],[110.231,-7.65082],[110.23126,-7.65086],[110.23139,-7.65089],[110.23152,-7.65091],[110.23165,-7.65094],[110.23178,-7.65098],[110.23191,-7.65101],[110.23203,-7.65106],[110.23216,-7.6511],[110.23228,-7.65115],[110.23241,-7.65119],[110.23253,-7.65124],[110.23266,-7.65129],[110.23278,-7.65134],[110.23291,-7.65139],[110.23303,-7.65144],[110.23316,-7.65149],[110.23328,-7.65154],[110.23341,-7.65159],[110.23353,-7.65163],[110.23366,-7.65168],[110.23379,-7.65172],[110.23391,-7.65176],[110.23404,-7.6518],[110.23417,-7.65183],[110.2343,-7.65187],[110.23456,-7.65193],[110.23469,-7.65197],[110.23521,-7.65209],[110.2356,-7.65221],[110.23572,-7.65226],[110.23585,-7.65231],[110.23609,-7.65243],[110.2362,-7.6525],[110.23632,-7.65257],[110.23643,-7.65264],[110.23655,-7.65271],[110.23666,-7.65278],[110.23678,-7.65285],[110.2369,-7.65291],[110.23702,-7.65296],[110.23714,-7.653],[110.23727,-7.65303],[110.2374,-7.65305],[110.23777,-7.65319],[110.23819,-7.65325],[110.23828,-7.65326],[110.23843,-7.65328],[110.23876,-7.6533],[110.23909,-7.65326],[110.23937,-7.65326],[110.23947,-7.65325],[110.23956,-7.65325],[110.23965,-7.65324],[110.23975,-7.65323],[110.23993,-7.65321],[110.24003,-7.65319],[110.24021,-7.65317],[110.24031,-7.65316],[110.2404,-7.65314],[110.24058,-7.65312],[110.24068,-7.6531],[110.24077,-7.65309],[110.24086,-7.65307],[110.24095,-7.65306],[110.24105,-7.65304],[110.24114,-7.65303],[110.24123,-7.65301],[110.24132,-7.653],[110.24141,-7.65298],[110.2415,-7.65297],[110.2416,-7.65295],[110.24169,-7.65294],[110.24178,-7.65292],[110.24187,-7.65291],[110.24196,-7.65289],[110.24206,-7.65288],[110.24224,-7.65284],[110.24232,-7.65283],[110.24234,-7.65283],[110.24243,-7.65281],[110.2425,-7.65279],[110.24253,-7.65279],[110.2426,-7.65277],[110.24262,-7.65277],[110.24271,-7.65275],[110.24289,-7.65269],[110.24298,-7.65265],[110.24306,-7.65261],[110.24314,-7.65256],[110.24321,-7.65251],[110.24328,-7.65245],[110.24346,-7.65224],[110.24352,-7.65216],[110.24362,-7.652],[110.24364,-7.65198],[110.24367,-7.65192],[110.24387,-7.6516],[110.24393,-7.65152],[110.24398,-7.65145],[110.24404,-7.65137],[110.2441,-7.6513],[110.24429,-7.65111],[110.24437,-7.65105],[110.24458,-7.65087],[110.24466,-7.65081],[110.2448,-7.65069],[110.24487,-7.65062],[110.24489,-7.65059],[110.24493,-7.65056],[110.24499,-7.65049],[110.24506,-7.65041],[110.24511,-7.65034],[110.24516,-7.65028],[110.24517,-7.65027],[110.24523,-7.65019],[110.24535,-7.65005],[110.24574,-7.64965],[110.24658,-7.64907],[110.24666,-7.64895],[110.24669,-7.64888],[110.24673,-7.64882],[110.24676,-7.64876],[110.2468,-7.64869],[110.24683,-7.64863],[110.24686,-7.64856],[110.2469,-7.6485],[110.24693,-7.64843],[110.24697,-7.64837],[110.247,-7.6483],[110.24703,-7.64824],[110.24707,-7.64818],[110.2471,-7.64811],[110.24714,-7.64805],[110.24717,-7.64799],[110.24721,-7.64793],[110.24725,-7.64786],[110.24728,-7.6478],[110.24736,-7.64768],[110.24739,-7.64762],[110.24771,-7.64714],[110.24775,-7.64707],[110.24779,-7.64701],[110.24782,-7.64697],[110.24786,-7.64689],[110.24794,-7.64677],[110.24797,-7.6467],[110.24805,-7.64658],[110.24808,-7.64652],[110.24816,-7.6464],[110.24821,-7.64634],[110.24822,-7.64631],[110.24825,-7.64628],[110.2483,-7.64622],[110.24834,-7.64617],[110.2484,-7.64612],[110.2485,-7.64602],[110.24856,-7.64597],[110.24868,-7.64589],[110.24875,-7.64586],[110.24881,-7.64582],[110.24887,-7.6458],[110.24894,-7.64577],[110.24915,-7.64571],[110.24921,-7.64569],[110.24935,-7.64565],[110.24943,-7.64563],[110.2495,-7.64561],[110.24964,-7.64555],[110.2497,-7.64552],[110.24977,-7.64548],[110.24982,-7.64546],[110.24983,-7.64544],[110.24989,-7.6454],[110.24994,-7.64535],[110.24998,-7.6453],[110.25002,-7.64524],[110.25005,-7.64518],[110.25007,-7.64512],[110.25008,-7.64505],[110.2501,-7.64498],[110.2501,-7.6449],[110.25011,-7.64483],[110.25011,-7.64475],[110.25012,-7.64468],[110.25012,-7.64452],[110.25013,-7.64445],[110.25014,-7.64437],[110.25016,-7.64423],[110.25018,-7.64416],[110.25019,-7.6441],[110.2502,-7.64409],[110.25021,-7.64402],[110.25025,-7.64388],[110.25026,-7.64381],[110.25027,-7.64373],[110.25028,-7.64367],[110.25028,-7.64359],[110.25029,-7.64352],[110.25029,-7.64344],[110.25032,-7.64323],[110.25033,-7.64315],[110.25035,-7.64309],[110.25036,-7.64304],[110.25037,-7.64302],[110.2504,-7.64295],[110.25043,-7.64289],[110.25047,-7.64283],[110.25052,-7.64277],[110.25055,-7.64273],[110.25056,-7.64272],[110.25061,-7.64266],[110.25067,-7.64261],[110.25072,-7.64256],[110.25078,-7.64252],[110.25088,-7.64242],[110.25093,-7.64236],[110.25097,-7.6423],[110.251,-7.64223],[110.25104,-7.64216],[110.25112,-7.64204],[110.25117,-7.642],[110.25123,-7.64197],[110.2513,-7.64196],[110.25137,-7.64197],[110.25138,-7.64197],[110.25145,-7.64198],[110.25153,-7.64199],[110.2516,-7.64201],[110.25135,-7.6418],[110.25109,-7.64164],[110.25081,-7.6415],[110.25028,-7.64122],[110.25021,-7.64117],[110.24983,-7.64088],[110.24916,-7.6405],[110.24836,-7.6402],[110.24788,-7.6401],[110.24723,-7.64002],[110.24666,-7.63997],[110.24612,-7.63975],[110.246,-7.63973],[110.24585,-7.63946],[110.24579,-7.639],[110.24581,-7.63881],[110.24583,-7.6387],[110.24586,-7.63846],[110.2459,-7.6382],[110.24598,-7.63802],[110.24615,-7.63758],[110.24618,-7.63749],[110.24628,-7.63727],[110.2464,-7.6371],[110.2469,-7.63672],[110.24765,-7.6361],[110.248,-7.63571],[110.24817,-7.63536],[110.2481,-7.63505],[110.24806,-7.6349],[110.24805,-7.63486],[110.24777,-7.63451],[110.24757,-7.63436],[110.24728,-7.63417],[110.24697,-7.63402],[110.24628,-7.63364],[110.24572,-7.63338],[110.2454,-7.63327],[110.24488,-7.63316],[110.24439,-7.63306],[110.24399,-7.633],[110.24351,-7.63297],[110.24316,-7.63303],[110.24267,-7.63321],[110.24221,-7.63338],[110.24204,-7.63343],[110.24186,-7.63351],[110.24172,-7.63358],[110.24141,-7.63367],[110.24134,-7.63369],[110.24114,-7.63369],[110.24109,-7.63368],[110.24078,-7.63365],[110.2407,-7.63362],[110.24069,-7.63362],[110.24067,-7.63361],[110.24035,-7.63348],[110.24027,-7.6334],[110.23954,-7.63266],[110.23904,-7.6321],[110.23884,-7.63179],[110.23883,-7.63176],[110.2388,-7.63171],[110.23857,-7.63112],[110.23825,-7.63042],[110.2378,-7.62938],[110.23745,-7.62885],[110.23745,-7.62884],[110.23721,-7.62865],[110.237,-7.62855],[110.23668,-7.6285],[110.2361,-7.62843],[110.23584,-7.62846],[110.23553,-7.62849],[110.23523,-7.62849],[110.23503,-7.62843],[110.23467,-7.62841],[110.23418,-7.62839],[110.23382,-7.62835],[110.23326,-7.62832],[110.23308,-7.62831],[110.23298,-7.62831],[110.23278,-7.62821],[110.23261,-7.62803],[110.23253,-7.62791],[110.23241,-7.62764],[110.23239,-7.62756],[110.23235,-7.62735],[110.23235,-7.62719],[110.23239,-7.62703],[110.23243,-7.62693],[110.23254,-7.6266],[110.2327,-7.62643],[110.23291,-7.62632],[110.23331,-7.62613],[110.23397,-7.62579],[110.23435,-7.62557],[110.23474,-7.62535],[110.23507,-7.62524],[110.23542,-7.62516],[110.23571,-7.62505],[110.23585,-7.62494],[110.23601,-7.62478],[110.23621,-7.62466],[110.2363,-7.62453],[110.23632,-7.62439],[110.2363,-7.62409],[110.23623,-7.6238],[110.23618,-7.62331],[110.23594,-7.62296],[110.23568,-7.62271],[110.23537,-7.62238],[110.23513,-7.62222],[110.23491,-7.62219],[110.23456,-7.62218],[110.23429,-7.62224],[110.23402,-7.62236],[110.23372,-7.62261],[110.23334,-7.62289],[110.23274,-7.62342],[110.23236,-7.62357],[110.23209,-7.62362],[110.23184,-7.6237],[110.23164,-7.62373],[110.23136,-7.62369],[110.23092,-7.62358],[110.23067,-7.62343],[110.23033,-7.62309],[110.23011,-7.62274],[110.23007,-7.62235],[110.23011,-7.62217],[110.23015,-7.62196],[110.23024,-7.62171],[110.23029,-7.62153],[110.2304,-7.62125],[110.23067,-7.62072],[110.23086,-7.62024],[110.23098,-7.61985],[110.23108,-7.61958],[110.23119,-7.61925],[110.23125,-7.61899],[110.23135,-7.61862],[110.23155,-7.61807],[110.23181,-7.6174],[110.23193,-7.61723],[110.23199,-7.61704],[110.23199,-7.61686],[110.23196,-7.61672],[110.23186,-7.61657],[110.23183,-7.61652],[110.23166,-7.61608],[110.23157,-7.61574],[110.23148,-7.61541],[110.23123,-7.61492],[110.23106,-7.61461],[110.2307,-7.61412],[110.23046,-7.6139],[110.23024,-7.61376],[110.2301,-7.6137],[110.22982,-7.61369],[110.22958,-7.61367],[110.22943,-7.61362],[110.22926,-7.61351],[110.22911,-7.61333],[110.22888,-7.61301],[110.22863,-7.61279],[110.22835,-7.61255],[110.22814,-7.61242],[110.228,-7.61231],[110.22785,-7.61224],[110.22776,-7.61219],[110.22756,-7.61231],[110.2273,-7.61245],[110.22705,-7.61253],[110.22689,-7.61256],[110.22679,-7.61257],[110.22653,-7.61259],[110.22617,-7.61256],[110.22593,-7.61247],[110.2257,-7.61235],[110.22559,-7.61221],[110.22551,-7.61212],[110.22521,-7.61172],[110.22509,-7.6114],[110.22496,-7.61072],[110.22496,-7.61056],[110.22495,-7.61039],[110.22495,-7.61015],[110.22508,-7.60991],[110.22531,-7.60963],[110.22548,-7.6094],[110.22554,-7.6092],[110.22555,-7.60889],[110.22546,-7.60843],[110.22545,-7.60839],[110.22538,-7.60806],[110.22531,-7.60786],[110.22516,-7.60768],[110.22489,-7.6074],[110.22481,-7.60731],[110.22466,-7.60712],[110.22454,-7.60702],[110.22441,-7.60701],[110.22426,-7.6071],[110.22407,-7.60729],[110.22395,-7.60739],[110.22384,-7.60749],[110.22366,-7.60777],[110.22349,-7.60799],[110.22327,-7.60832],[110.22318,-7.60836],[110.22299,-7.60837],[110.22286,-7.60828],[110.22284,-7.60826],[110.2226,-7.60806],[110.22236,-7.60783],[110.22215,-7.6077],[110.22189,-7.60757],[110.22185,-7.60756],[110.22147,-7.60749],[110.22119,-7.60739],[110.2211,-7.60736],[110.22086,-7.6072],[110.22074,-7.60701],[110.22066,-7.60677],[110.22061,-7.60638],[110.22061,-7.60582],[110.2207,-7.60535],[110.2207,-7.60514],[110.22074,-7.60491],[110.22099,-7.60466],[110.22126,-7.60448],[110.22159,-7.60435],[110.22197,-7.60423],[110.22226,-7.60411],[110.22245,-7.60405],[110.22266,-7.60403],[110.22271,-7.60396],[110.22272,-7.60378],[110.22269,-7.60361],[110.22252,-7.6033],[110.22227,-7.60299],[110.22225,-7.60298],[110.22214,-7.60288],[110.2221,-7.60286],[110.22189,-7.60277],[110.22178,-7.6027],[110.22176,-7.60269],[110.22172,-7.60268],[110.22161,-7.60267],[110.22157,-7.60267],[110.22137,-7.60266],[110.22122,-7.60263],[110.22103,-7.60256],[110.22071,-7.60238],[110.22049,-7.60221],[110.2204,-7.60215],[110.22017,-7.60194],[110.21993,-7.60178],[110.21992,-7.60178],[110.21965,-7.60162],[110.21943,-7.60147],[110.21927,-7.60136],[110.2191,-7.60128],[110.21875,-7.60125],[110.21843,-7.60121],[110.21821,-7.6012],[110.21816,-7.60119],[110.21782,-7.6012],[110.21765,-7.60117],[110.21756,-7.60116],[110.21737,-7.60111],[110.2169,-7.60096],[110.21676,-7.60091],[110.21666,-7.60088],[110.2166,-7.60084],[110.21642,-7.60082],[110.21615,-7.60069],[110.21584,-7.60033],[110.21583,-7.60032],[110.21562,-7.60001],[110.21543,-7.59947],[110.21526,-7.59904],[110.21497,-7.59867],[110.21472,-7.59853],[110.21438,-7.59843],[110.21381,-7.59816],[110.21326,-7.59787],[110.21298,-7.59772],[110.21257,-7.59739],[110.21239,-7.59724],[110.21231,-7.59717],[110.21231,-7.59716],[110.21207,-7.59689],[110.21191,-7.59664],[110.21173,-7.59631],[110.21155,-7.59609],[110.21135,-7.59585],[110.21109,-7.59557],[110.21081,-7.5953],[110.21067,-7.59515],[110.21055,-7.59503],[110.21039,-7.59492],[110.21019,-7.59486],[110.20994,-7.59485],[110.20979,-7.59481],[110.20951,-7.59469],[110.20931,-7.59461],[110.20923,-7.59455],[110.20908,-7.59439],[110.20893,-7.59422],[110.20873,-7.59404],[110.20864,-7.59395],[110.20862,-7.59379],[110.20864,-7.59355],[110.2087,-7.59323],[110.20875,-7.59278],[110.20875,-7.59246],[110.20878,-7.59197],[110.20886,-7.59167],[110.20888,-7.5916],[110.20892,-7.59134],[110.20891,-7.59118],[110.20881,-7.59072],[110.20881,-7.59056],[110.20882,-7.59041],[110.20886,-7.59028],[110.20887,-7.59016],[110.20883,-7.59009],[110.20871,-7.59007],[110.2085,-7.59009],[110.20796,-7.59031],[110.20781,-7.59041],[110.20777,-7.59046],[110.20767,-7.59057],[110.20756,-7.59062],[110.20732,-7.5906],[110.20715,-7.59056],[110.20698,-7.59044],[110.20687,-7.59029],[110.20683,-7.59011],[110.20679,-7.5897],[110.20681,-7.58947],[110.20684,-7.58908],[110.20683,-7.58888],[110.20677,-7.58876],[110.20676,-7.58873],[110.20675,-7.58872],[110.20633,-7.58841],[110.20592,-7.58808],[110.20559,-7.58783],[110.20538,-7.58764],[110.20529,-7.58749],[110.20526,-7.58738],[110.20528,-7.58723],[110.20534,-7.58707],[110.20549,-7.58677],[110.20557,-7.58664],[110.20576,-7.58628],[110.20584,-7.58603],[110.20584,-7.58591],[110.20579,-7.58564],[110.20577,-7.5856],[110.20567,-7.58518],[110.2056,-7.58483],[110.20551,-7.58445],[110.20546,-7.58416],[110.20543,-7.58375],[110.20539,-7.58355],[110.20535,-7.58342],[110.2053,-7.5833],[110.205,-7.58269],[110.20483,-7.58247],[110.20463,-7.58234],[110.20443,-7.58232],[110.20426,-7.58239],[110.20424,-7.58242],[110.2042,-7.58247],[110.20407,-7.58264],[110.20405,-7.58267],[110.204,-7.58273],[110.2039,-7.58295],[110.20384,-7.58311],[110.20376,-7.58333],[110.20366,-7.58356],[110.20344,-7.58375],[110.20324,-7.58379],[110.20303,-7.58379],[110.20279,-7.58372],[110.20235,-7.58351],[110.2019,-7.58308],[110.20178,-7.58295],[110.20163,-7.58278],[110.20157,-7.58271],[110.20145,-7.58253],[110.20135,-7.58239],[110.20119,-7.58213],[110.2011,-7.582],[110.20104,-7.58183],[110.2009,-7.58141],[110.2008,-7.58117],[110.20066,-7.58093],[110.20051,-7.58078],[110.20026,-7.58052],[110.2002,-7.58047],[110.20009,-7.58036],[110.20006,-7.58034],[110.19994,-7.58029],[110.19987,-7.58026],[110.19976,-7.58014],[110.19968,-7.58003],[110.19952,-7.57982],[110.19935,-7.57948],[110.19921,-7.57926],[110.19906,-7.57916],[110.19871,-7.579],[110.19848,-7.57889],[110.19832,-7.57875],[110.19775,-7.57833],[110.1973,-7.57793],[110.19694,-7.57752],[110.19646,-7.57706],[110.19634,-7.57692],[110.19615,-7.57669],[110.19595,-7.57638],[110.19581,-7.57606],[110.19561,-7.57528],[110.19556,-7.57492],[110.19552,-7.57461],[110.19555,-7.57438],[110.19563,-7.57405],[110.19565,-7.57394],[110.19569,-7.57374],[110.19573,-7.57333],[110.1957,-7.57305],[110.19565,-7.57283],[110.19545,-7.5723],[110.19527,-7.57195],[110.19499,-7.57169],[110.19478,-7.57163],[110.19454,-7.5716],[110.19424,-7.5716],[110.19418,-7.57163],[110.19408,-7.57183],[110.19408,-7.57196],[110.19406,-7.57249],[110.19408,-7.57291],[110.19408,-7.57328],[110.19405,-7.5736],[110.19402,-7.57381],[110.19384,-7.57386],[110.19359,-7.57385],[110.19337,-7.57376],[110.19309,-7.5736],[110.19282,-7.57344],[110.19259,-7.57317],[110.19202,-7.5729],[110.19179,-7.57264],[110.19162,-7.57239],[110.1916,-7.57237],[110.1913,-7.57228],[110.19098,-7.57233],[110.1906,-7.5725],[110.19059,-7.57251],[110.19057,-7.57252],[110.19034,-7.57263],[110.19032,-7.57264],[110.18987,-7.57293],[110.1895,-7.57352],[110.18948,-7.57356],[110.18931,-7.57382],[110.18918,-7.57403],[110.18901,-7.57453],[110.18893,-7.57496],[110.18891,-7.57524],[110.18907,-7.57547],[110.18916,-7.57563],[110.18916,-7.57599],[110.18914,-7.57601],[110.18905,-7.57613],[110.1889,-7.57629],[110.18871,-7.57638],[110.18867,-7.57639],[110.18837,-7.57646],[110.18802,-7.57648],[110.18777,-7.57647],[110.18765,-7.57647],[110.18758,-7.57661],[110.18759,-7.57672],[110.1876,-7.57677],[110.1876,-7.57682],[110.18768,-7.57714],[110.18769,-7.57714],[110.1878,-7.57743],[110.18783,-7.5775],[110.18792,-7.57769],[110.18794,-7.5781],[110.18794,-7.57812],[110.18792,-7.57845],[110.18791,-7.57846],[110.18785,-7.57861],[110.18764,-7.57888],[110.18734,-7.5791],[110.18694,-7.57913],[110.18693,-7.57913],[110.18638,-7.57915],[110.18589,-7.57912],[110.18577,-7.57915],[110.18512,-7.57932],[110.18481,-7.57943],[110.18469,-7.57961],[110.18462,-7.57972],[110.18464,-7.58011],[110.1847,-7.58041],[110.18475,-7.5806],[110.18476,-7.58066],[110.18477,-7.58077],[110.18479,-7.58101],[110.18479,-7.58102],[110.18476,-7.58139],[110.18476,-7.58144],[110.18475,-7.58146],[110.18473,-7.58153],[110.18473,-7.58156],[110.18468,-7.58168],[110.18459,-7.58195],[110.18459,-7.58197],[110.18455,-7.58216],[110.18456,-7.58217],[110.18474,-7.58295],[110.1848,-7.58335],[110.18474,-7.58365],[110.1845,-7.58401],[110.18427,-7.58421],[110.18383,-7.58424],[110.18373,-7.58421],[110.18352,-7.58415],[110.18313,-7.58411],[110.18291,-7.58415],[110.1828,-7.5842],[110.18278,-7.58422],[110.18256,-7.58441],[110.18252,-7.58444],[110.18246,-7.58457],[110.18243,-7.58479],[110.18243,-7.5848],[110.18244,-7.58516],[110.18242,-7.58547],[110.18233,-7.5857],[110.18231,-7.58574],[110.18228,-7.58589],[110.18231,-7.58634],[110.18234,-7.5866],[110.18258,-7.58682],[110.18263,-7.58689],[110.18271,-7.587],[110.18277,-7.58714],[110.18261,-7.58727],[110.18258,-7.58729],[110.18244,-7.58739],[110.18231,-7.58736],[110.18189,-7.58727],[110.18177,-7.58749],[110.18181,-7.58783],[110.18183,-7.58793],[110.18189,-7.58818],[110.18204,-7.58867],[110.18203,-7.58903],[110.18192,-7.58929],[110.18159,-7.58992],[110.1813,-7.59031],[110.1811,-7.59077],[110.18107,-7.5911],[110.18086,-7.59131],[110.18073,-7.59161],[110.18055,-7.5917],[110.18045,-7.59176],[110.18031,-7.59189],[110.18027,-7.5921],[110.18022,-7.59238],[110.18011,-7.593],[110.17996,-7.59322],[110.17976,-7.59328],[110.17958,-7.59331],[110.1794,-7.59324],[110.17926,-7.59319],[110.17887,-7.59342],[110.1785,-7.59352],[110.17791,-7.59356],[110.17769,-7.5935],[110.1773,-7.59329],[110.17672,-7.59308],[110.17628,-7.59311],[110.17597,-7.59275],[110.1758,-7.59253],[110.17572,-7.59243],[110.17575,-7.59227],[110.17579,-7.5921],[110.17572,-7.5917],[110.17559,-7.59146],[110.17521,-7.59082],[110.17508,-7.5906],[110.17501,-7.59017],[110.17504,-7.5896],[110.17515,-7.58908],[110.17523,-7.58878],[110.17527,-7.58865],[110.17523,-7.58833],[110.17377,-7.58833],[110.17287,-7.58836],[110.1722,-7.58824],[110.17206,-7.5882],[110.17162,-7.58809],[110.17139,-7.58798],[110.17061,-7.58761],[110.17008,-7.58746],[110.16972,-7.58736],[110.16947,-7.5873],[110.16909,-7.587],[110.16866,-7.58673],[110.16837,-7.58655],[110.1679,-7.58626],[110.1678,-7.5862],[110.16743,-7.58599],[110.16725,-7.58589],[110.16701,-7.58577],[110.16648,-7.5855],[110.16643,-7.58545],[110.16619,-7.58526],[110.16583,-7.5851],[110.1656,-7.58506],[110.16548,-7.58524],[110.16544,-7.58555],[110.16552,-7.58586],[110.16556,-7.58599],[110.16556,-7.58627],[110.16541,-7.58648],[110.16505,-7.58631],[110.16493,-7.58601],[110.16493,-7.58575],[110.16495,-7.58552],[110.16486,-7.58539],[110.16468,-7.58523],[110.16434,-7.58499],[110.16409,-7.58492],[110.16393,-7.58488],[110.16387,-7.58471],[110.16385,-7.58464],[110.16385,-7.58462],[110.16378,-7.58395],[110.16361,-7.58344],[110.16356,-7.58305],[110.16334,-7.58271],[110.16325,-7.58267],[110.163,-7.58256],[110.16268,-7.58251],[110.16229,-7.58257],[110.162,-7.58264],[110.16177,-7.58283],[110.16172,-7.58307],[110.16172,-7.58342],[110.16174,-7.58351],[110.16179,-7.58377],[110.16177,-7.58407],[110.16164,-7.5843],[110.16145,-7.58438],[110.16139,-7.58486],[110.16138,-7.58496],[110.16147,-7.58498],[110.16162,-7.58501],[110.16173,-7.58505],[110.16181,-7.58511],[110.16184,-7.58514],[110.16184,-7.58517],[110.16181,-7.58528],[110.16174,-7.58545],[110.16166,-7.58543],[110.16145,-7.5854],[110.16132,-7.58539],[110.16125,-7.58562],[110.16125,-7.58564],[110.16134,-7.58567],[110.16153,-7.58572],[110.16149,-7.58585],[110.16146,-7.58593],[110.16141,-7.58592],[110.1613,-7.58589],[110.1612,-7.58586],[110.16119,-7.58589],[110.16116,-7.58607],[110.16118,-7.58622],[110.16115,-7.58647],[110.16113,-7.58658],[110.16108,-7.58675],[110.16072,-7.58639],[110.16063,-7.58628],[110.16051,-7.58621],[110.1604,-7.58614],[110.16022,-7.58606],[110.16008,-7.58605],[110.15986,-7.58608],[110.15983,-7.58608],[110.15961,-7.58614],[110.15946,-7.58619],[110.15938,-7.58625],[110.15936,-7.58627],[110.15932,-7.58633],[110.15928,-7.58638],[110.15923,-7.58642],[110.15911,-7.58649],[110.15911,-7.5865],[110.15913,-7.58659],[110.15919,-7.58664],[110.15926,-7.58677],[110.15932,-7.58686],[110.15942,-7.58694],[110.15949,-7.58701],[110.15954,-7.58707],[110.15955,-7.58708],[110.15956,-7.58712],[110.15956,-7.58717],[110.15958,-7.58722],[110.15958,-7.58725],[110.15948,-7.58739],[110.15943,-7.58748],[110.15942,-7.58751],[110.15941,-7.58766],[110.15938,-7.58773],[110.15929,-7.58793],[110.15919,-7.58814],[110.15914,-7.58827],[110.15905,-7.58853],[110.15902,-7.58856],[110.15897,-7.58859],[110.15894,-7.58863],[110.15884,-7.5886],[110.15873,-7.58853],[110.15869,-7.58851],[110.15875,-7.58836],[110.15884,-7.58813],[110.15886,-7.58806],[110.15893,-7.58774],[110.15899,-7.58754],[110.15875,-7.58744],[110.15839,-7.58731],[110.15837,-7.58731],[110.15828,-7.58725],[110.15827,-7.58725],[110.1582,-7.5872],[110.15812,-7.58724],[110.15803,-7.58729],[110.15789,-7.58738],[110.15781,-7.58748],[110.15773,-7.58763],[110.15762,-7.58772],[110.15746,-7.5878],[110.1574,-7.58791],[110.15728,-7.58806],[110.15713,-7.58817],[110.15708,-7.58817],[110.15692,-7.58834],[110.15682,-7.58849],[110.15683,-7.5885],[110.15683,-7.58863],[110.15718,-7.58868],[110.15714,-7.58891],[110.15709,-7.58922],[110.15712,-7.5894],[110.15723,-7.58955],[110.1574,-7.58974],[110.15744,-7.58977],[110.15749,-7.58981],[110.15751,-7.58984],[110.1576,-7.5899],[110.15771,-7.58998],[110.15797,-7.59009],[110.15819,-7.59014],[110.15842,-7.59023],[110.15848,-7.59037],[110.15857,-7.5904],[110.15887,-7.59056],[110.15909,-7.5907],[110.15896,-7.59091],[110.15886,-7.59084],[110.15871,-7.59078],[110.15852,-7.59069],[110.15853,-7.5908],[110.1586,-7.59152],[110.15866,-7.59219],[110.15879,-7.59359],[110.15634,-7.595],[110.15577,-7.59522],[110.15541,-7.59531],[110.15538,-7.59531],[110.15489,-7.59549],[110.15288,-7.59621],[110.15277,-7.59625],[110.15265,-7.59629],[110.15175,-7.59662],[110.15093,-7.597],[110.15049,-7.59726],[110.15043,-7.59729],[110.1504,-7.5973]]]}}]}