{"type":"FeatureCollection","features":[{"type":"Feature","properties":{"KECAMATAN":"Candimulyo"},"geometry":{"type":"Polygon","coordinates":[[[110.23358,-7.49933],[110.23359,-7.49935],[110.23359,-7.49945],[110.2336,-7.49955],[110.23361,-7.49961],[110.23361,-7.49962],[110.23363,-7.4997],[110.23365,-7.49983],[110.23366,-7.49987],[110.23367,-7.49992],[110.23373,-7.50014],[110.23383,-7.50042],[110.23385,-7.50046],[110.23396,-7.5007],[110.23408,-7.50096],[110.2341,-7.501],[110.23418,-7.50114],[110.23418,-7.50115],[110.2343,-7.50137],[110.23458,-7.50175],[110.23471,-7.50184],[110.23477,-7.50188],[110.2351,-7.50206],[110.23549,-7.50229],[110.23579,-7.50248],[110.23592,-7.50258],[110.23595,-7.50261],[110.23596,-7.50261],[110.23602,-7.50266],[110.23609,-7.50275],[110.23614,-7.50288],[110.23622,-7.50308],[110.23626,-7.50321],[110.23628,-7.50328],[110.23632,-7.50349],[110.23636,-7.50367],[110.23638,-7.50372],[110.23642,-7.50383],[110.23647,-7.50394],[110.23653,-7.50404],[110.23657,-7.50409],[110.23659,-7.50412],[110.23659,-7.50413],[110.23663,-7.50417],[110.23665,-7.5042],[110.23666,-7.50421],[110.23667,-7.50421],[110.23682,-7.50432],[110.23712,-7.50441],[110.2372,-7.50443],[110.23751,-7.50448],[110.23775,-7.50456],[110.23782,-7.50463],[110.23788,-7.50467],[110.23788,-7.50468],[110.23796,-7.50482],[110.23797,-7.50485],[110.238,-7.50501],[110.23796,-7.50531],[110.2378,-7.50559],[110.23773,-7.50568],[110.23768,-7.50575],[110.23756,-7.5058],[110.23743,-7.50585],[110.23705,-7.50604],[110.23702,-7.50606],[110.23694,-7.50611],[110.23687,-7.50617],[110.23686,-7.50619],[110.23685,-7.50619],[110.23681,-7.50628],[110.23679,-7.50641],[110.23678,-7.50656],[110.23676,-7.50673],[110.23676,-7.5068],[110.23675,-7.5069],[110.23676,-7.50705],[110.23678,-7.50714],[110.23681,-7.50721],[110.23681,-7.50722],[110.23689,-7.50741],[110.23689,-7.50742],[110.2369,-7.50746],[110.23691,-7.5076],[110.23691,-7.50766],[110.23692,-7.50785],[110.23693,-7.50808],[110.23693,-7.50823],[110.23692,-7.50831],[110.23692,-7.50835],[110.23693,-7.50854],[110.23695,-7.50872],[110.23698,-7.50886],[110.237,-7.50892],[110.23704,-7.50901],[110.23709,-7.50913],[110.23715,-7.50921],[110.23722,-7.50927],[110.23723,-7.50927],[110.23725,-7.50929],[110.23741,-7.50937],[110.23758,-7.50947],[110.23776,-7.50956],[110.23794,-7.50964],[110.23802,-7.50966],[110.23814,-7.5097],[110.23832,-7.50974],[110.23836,-7.50975],[110.23856,-7.50978],[110.2386,-7.50978],[110.23873,-7.5098],[110.23895,-7.50984],[110.239,-7.50983],[110.23902,-7.50982],[110.23913,-7.50981],[110.23924,-7.50979],[110.23933,-7.50978],[110.23945,-7.5098],[110.23956,-7.50984],[110.2397,-7.5099],[110.23981,-7.50997],[110.23991,-7.51007],[110.24005,-7.51016],[110.24006,-7.51017],[110.24014,-7.51032],[110.24018,-7.51039],[110.24021,-7.51047],[110.24023,-7.51054],[110.24021,-7.51068],[110.24016,-7.51083],[110.23991,-7.51157],[110.23987,-7.5117],[110.23984,-7.51179],[110.23982,-7.51184],[110.23982,-7.51191],[110.23984,-7.51196],[110.23987,-7.51203],[110.23995,-7.51213],[110.24005,-7.51219],[110.24006,-7.51219],[110.24024,-7.51228],[110.24028,-7.51228],[110.24038,-7.51231],[110.2406,-7.51232],[110.24081,-7.51232],[110.24088,-7.51233],[110.24095,-7.51235],[110.24097,-7.51236],[110.24105,-7.51239],[110.24109,-7.51243],[110.24115,-7.51252],[110.24121,-7.51264],[110.24122,-7.51271],[110.24123,-7.51272],[110.24123,-7.51273],[110.24124,-7.51276],[110.24126,-7.51286],[110.24127,-7.51289],[110.24131,-7.51302],[110.24135,-7.51313],[110.24144,-7.51333],[110.24147,-7.51345],[110.24146,-7.51361],[110.24144,-7.51376],[110.24142,-7.5139],[110.2414,-7.51396],[110.2414,-7.51406],[110.24141,-7.51421],[110.24143,-7.51435],[110.24144,-7.51441],[110.24146,-7.5145],[110.24151,-7.51466],[110.24159,-7.51479],[110.2416,-7.51481],[110.24177,-7.51509],[110.24183,-7.51514],[110.24188,-7.51517],[110.24198,-7.51522],[110.24201,-7.51523],[110.24206,-7.51526],[110.24211,-7.51532],[110.24216,-7.51539],[110.24219,-7.51546],[110.24219,-7.51551],[110.24218,-7.51555],[110.24216,-7.51559],[110.24211,-7.51561],[110.24205,-7.51564],[110.24195,-7.51567],[110.24191,-7.51567],[110.24183,-7.51568],[110.24174,-7.5157],[110.24156,-7.51576],[110.2415,-7.5158],[110.24146,-7.51585],[110.24144,-7.51591],[110.24144,-7.51597],[110.24146,-7.51604],[110.24149,-7.51619],[110.24157,-7.51651],[110.24163,-7.51664],[110.24166,-7.51673],[110.24166,-7.51674],[110.24173,-7.51688],[110.24175,-7.51703],[110.24181,-7.51723],[110.24182,-7.51733],[110.24183,-7.51741],[110.24183,-7.51748],[110.24182,-7.51752],[110.24182,-7.51754],[110.24174,-7.51778],[110.2417,-7.51789],[110.24164,-7.51799],[110.24157,-7.51807],[110.24149,-7.51814],[110.24147,-7.51816],[110.24146,-7.51816],[110.24139,-7.51821],[110.24132,-7.51828],[110.24127,-7.51835],[110.24123,-7.51842],[110.2412,-7.51849],[110.24119,-7.51856],[110.24118,-7.51864],[110.24118,-7.51877],[110.24114,-7.51907],[110.24112,-7.5192],[110.24112,-7.51921],[110.24109,-7.51939],[110.24106,-7.51955],[110.24099,-7.51972],[110.24092,-7.5198],[110.24087,-7.51992],[110.24084,-7.51999],[110.24082,-7.52008],[110.24078,-7.5202],[110.24074,-7.52031],[110.24046,-7.52103],[110.24042,-7.52117],[110.24039,-7.52125],[110.24038,-7.5213],[110.24038,-7.52131],[110.24037,-7.52135],[110.24033,-7.52146],[110.24027,-7.52156],[110.24019,-7.52176],[110.24018,-7.52181],[110.24017,-7.52189],[110.24028,-7.522],[110.24053,-7.52219],[110.24057,-7.52222],[110.24058,-7.52222],[110.24062,-7.52226],[110.24071,-7.52232],[110.24086,-7.5225],[110.24091,-7.52255],[110.241,-7.52266],[110.24109,-7.52275],[110.24116,-7.52283],[110.24121,-7.52289],[110.24122,-7.52294],[110.24124,-7.52299],[110.24123,-7.52304],[110.24129,-7.52313],[110.24133,-7.5232],[110.24133,-7.52321],[110.2415,-7.52355],[110.24157,-7.52371],[110.24162,-7.52386],[110.24164,-7.52396],[110.24165,-7.524],[110.24165,-7.52437],[110.24163,-7.52454],[110.2416,-7.52464],[110.24157,-7.52472],[110.24153,-7.52479],[110.24138,-7.52499],[110.24134,-7.52503],[110.24134,-7.52504],[110.24128,-7.5251],[110.24116,-7.52519],[110.24103,-7.52526],[110.24089,-7.52533],[110.24075,-7.52541],[110.24065,-7.52549],[110.2406,-7.52554],[110.24057,-7.52559],[110.24055,-7.52564],[110.24056,-7.52571],[110.24059,-7.52577],[110.2406,-7.52578],[110.24063,-7.52583],[110.24067,-7.52589],[110.2408,-7.52606],[110.24086,-7.52615],[110.24094,-7.52621],[110.24102,-7.52628],[110.24106,-7.52633],[110.24106,-7.52634],[110.24112,-7.52644],[110.24116,-7.52656],[110.24121,-7.52673],[110.2413,-7.52699],[110.24132,-7.52708],[110.24148,-7.52756],[110.24153,-7.52765],[110.24156,-7.52768],[110.24158,-7.52771],[110.24163,-7.52776],[110.24163,-7.52777],[110.24169,-7.52782],[110.24183,-7.52792],[110.2419,-7.52795],[110.24201,-7.52798],[110.24211,-7.52798],[110.24224,-7.52796],[110.24241,-7.52792],[110.24245,-7.52791],[110.24259,-7.52789],[110.24275,-7.52788],[110.24312,-7.52789],[110.24313,-7.52789],[110.24329,-7.52793],[110.24357,-7.52796],[110.24374,-7.528],[110.24378,-7.52803],[110.2438,-7.52805],[110.2438,-7.52808],[110.24381,-7.52813],[110.24384,-7.52825],[110.24384,-7.52829],[110.24386,-7.52842],[110.24385,-7.52848],[110.24384,-7.52852],[110.24384,-7.52857],[110.24382,-7.52863],[110.24377,-7.52871],[110.24364,-7.52884],[110.24359,-7.5289],[110.2435,-7.52897],[110.24343,-7.52901],[110.24336,-7.52904],[110.24331,-7.52907],[110.24319,-7.52912],[110.24274,-7.52927],[110.24257,-7.5293],[110.24255,-7.5293],[110.24244,-7.52933],[110.24242,-7.52934],[110.24231,-7.52938],[110.2422,-7.52943],[110.24215,-7.52946],[110.24208,-7.52949],[110.24197,-7.52956],[110.24179,-7.52966],[110.24164,-7.52975],[110.24145,-7.52985],[110.24138,-7.52991],[110.24138,-7.52992],[110.24134,-7.52996],[110.24134,-7.52997],[110.24132,-7.53],[110.24125,-7.53009],[110.24117,-7.53018],[110.24115,-7.5302],[110.24114,-7.53022],[110.24109,-7.5303],[110.24104,-7.53039],[110.24099,-7.53049],[110.24096,-7.53056],[110.24094,-7.53063],[110.24094,-7.53066],[110.24093,-7.53069],[110.24093,-7.53086],[110.24092,-7.53089],[110.24092,-7.53091],[110.24091,-7.53094],[110.24085,-7.5311],[110.24085,-7.53114],[110.24084,-7.53115],[110.24084,-7.53119],[110.24085,-7.53125],[110.24085,-7.5313],[110.24086,-7.53136],[110.24085,-7.5315],[110.24082,-7.53171],[110.24081,-7.53201],[110.2408,-7.53226],[110.2408,-7.5327],[110.24079,-7.53285],[110.24079,-7.5332],[110.24084,-7.53343],[110.24085,-7.53358],[110.24086,-7.5336],[110.24089,-7.5339],[110.24092,-7.53418],[110.24096,-7.53432],[110.24099,-7.53441],[110.24103,-7.53449],[110.24109,-7.53473],[110.24111,-7.53482],[110.24113,-7.53492],[110.24113,-7.535],[110.24112,-7.53506],[110.24111,-7.53513],[110.24108,-7.53521],[110.241,-7.53541],[110.24096,-7.53552],[110.2409,-7.53567],[110.24089,-7.53569],[110.24081,-7.53584],[110.24059,-7.53619],[110.24044,-7.53644],[110.24042,-7.53647],[110.24042,-7.53648],[110.24038,-7.53654],[110.24032,-7.53662],[110.23984,-7.53743],[110.23979,-7.5375],[110.23975,-7.53759],[110.23972,-7.53767],[110.23971,-7.53773],[110.23972,-7.53777],[110.23972,-7.53778],[110.23974,-7.53784],[110.23979,-7.5379],[110.23986,-7.53794],[110.23992,-7.53797],[110.24008,-7.53803],[110.24025,-7.5381],[110.24037,-7.53815],[110.24051,-7.53821],[110.24059,-7.53824],[110.24076,-7.5383],[110.24091,-7.53832],[110.24103,-7.53832],[110.24115,-7.53829],[110.24126,-7.53827],[110.24133,-7.53826],[110.24139,-7.53827],[110.24144,-7.53833],[110.24152,-7.53846],[110.24159,-7.53862],[110.24167,-7.53877],[110.24172,-7.53888],[110.24175,-7.53903],[110.24176,-7.53916],[110.24178,-7.53929],[110.24179,-7.5393],[110.24179,-7.53933],[110.2418,-7.53935],[110.24182,-7.53948],[110.24184,-7.53963],[110.24185,-7.53968],[110.24187,-7.53972],[110.24188,-7.53976],[110.24191,-7.53986],[110.24192,-7.53994],[110.24191,-7.54],[110.24188,-7.54011],[110.2418,-7.54032],[110.24175,-7.54051],[110.24168,-7.54072],[110.24163,-7.54081],[110.24145,-7.54099],[110.24144,-7.54099],[110.24116,-7.54125],[110.24101,-7.54141],[110.24092,-7.54154],[110.24078,-7.54168],[110.24068,-7.54181],[110.24063,-7.5419],[110.2406,-7.54196],[110.24058,-7.54201],[110.24056,-7.54205],[110.24053,-7.5421],[110.24049,-7.54214],[110.24052,-7.54231],[110.24059,-7.54229],[110.24087,-7.54222],[110.24106,-7.54213],[110.24122,-7.542],[110.2414,-7.54183],[110.24155,-7.54168],[110.24158,-7.54167],[110.2416,-7.54166],[110.24173,-7.54163],[110.24176,-7.54162],[110.242,-7.54159],[110.24219,-7.54162],[110.24235,-7.54164],[110.24253,-7.54172],[110.24267,-7.54174],[110.24289,-7.54176],[110.24299,-7.54167],[110.24305,-7.54154],[110.24307,-7.54136],[110.24305,-7.54106],[110.24304,-7.54068],[110.24305,-7.54054],[110.24305,-7.54046],[110.243,-7.5404],[110.24299,-7.5404],[110.24294,-7.54038],[110.24282,-7.54035],[110.24268,-7.54031],[110.24263,-7.54023],[110.24262,-7.54021],[110.24263,-7.54015],[110.24263,-7.54012],[110.24266,-7.54007],[110.24276,-7.53999],[110.24286,-7.53997],[110.243,-7.53998],[110.24309,-7.54003],[110.24317,-7.54008],[110.24323,-7.54013],[110.24334,-7.54021],[110.24354,-7.54027],[110.24373,-7.54027],[110.24397,-7.54026],[110.24404,-7.54024],[110.24409,-7.54018],[110.2442,-7.53989],[110.24435,-7.53967],[110.24452,-7.53956],[110.24474,-7.53947],[110.24491,-7.53939],[110.24494,-7.53938],[110.24495,-7.53937],[110.24508,-7.53928],[110.24528,-7.53908],[110.24541,-7.53889],[110.24554,-7.53872],[110.24561,-7.53863],[110.24575,-7.53847],[110.24589,-7.53834],[110.24604,-7.53822],[110.2462,-7.53816],[110.24637,-7.53817],[110.24647,-7.5382],[110.24658,-7.53825],[110.24675,-7.53832],[110.24705,-7.53832],[110.24713,-7.5383],[110.24719,-7.53828],[110.24723,-7.53826],[110.24732,-7.53823],[110.24743,-7.53823],[110.24757,-7.5383],[110.24766,-7.53836],[110.24777,-7.53845],[110.24786,-7.53859],[110.24802,-7.53876],[110.2481,-7.53883],[110.24817,-7.53885],[110.2482,-7.53884],[110.24827,-7.53884],[110.24835,-7.53883],[110.24836,-7.53883],[110.24843,-7.5388],[110.24843,-7.53879],[110.24851,-7.53875],[110.24861,-7.53873],[110.24873,-7.53871],[110.24876,-7.53872],[110.24895,-7.53872],[110.24912,-7.53866],[110.24923,-7.53858],[110.2493,-7.53841],[110.24941,-7.53805],[110.24941,-7.53783],[110.24932,-7.53775],[110.24925,-7.53767],[110.24924,-7.5376],[110.24927,-7.53748],[110.24931,-7.53739],[110.24933,-7.53732],[110.24933,-7.53722],[110.24935,-7.53718],[110.2494,-7.53715],[110.24945,-7.53714],[110.24957,-7.53714],[110.2497,-7.53709],[110.24975,-7.53706],[110.2498,-7.537],[110.24983,-7.53689],[110.24984,-7.53679],[110.24981,-7.53668],[110.24975,-7.53655],[110.24971,-7.53642],[110.24969,-7.53634],[110.24972,-7.53625],[110.24976,-7.53619],[110.2499,-7.53612],[110.25005,-7.53605],[110.25012,-7.53599],[110.25018,-7.53589],[110.25029,-7.53572],[110.25032,-7.53563],[110.25033,-7.53558],[110.2504,-7.53537],[110.25043,-7.5353],[110.25044,-7.53526],[110.25044,-7.53525],[110.25042,-7.53503],[110.25042,-7.53486],[110.25047,-7.53477],[110.25056,-7.53469],[110.25062,-7.53467],[110.25068,-7.53466],[110.25086,-7.53466],[110.25093,-7.53467],[110.25101,-7.53469],[110.25112,-7.53472],[110.25124,-7.53475],[110.25139,-7.53478],[110.25146,-7.53478],[110.25155,-7.53477],[110.2516,-7.53473],[110.25162,-7.53467],[110.25162,-7.53458],[110.2516,-7.5345],[110.25157,-7.53441],[110.25153,-7.53433],[110.25141,-7.53419],[110.25127,-7.534],[110.25121,-7.53391],[110.25118,-7.53388],[110.25118,-7.53365],[110.25121,-7.53357],[110.25123,-7.53352],[110.25125,-7.53351],[110.25129,-7.53352],[110.25133,-7.53355],[110.25136,-7.53358],[110.25139,-7.53363],[110.25142,-7.53369],[110.25144,-7.53377],[110.25147,-7.53385],[110.25148,-7.53395],[110.25152,-7.53401],[110.25155,-7.53403],[110.25159,-7.53403],[110.25166,-7.53396],[110.25173,-7.53384],[110.25179,-7.53363],[110.25181,-7.53358],[110.25188,-7.53341],[110.25187,-7.53314],[110.25185,-7.53306],[110.25184,-7.53299],[110.25185,-7.53291],[110.25187,-7.53284],[110.25186,-7.5327],[110.25183,-7.53264],[110.25179,-7.53253],[110.25177,-7.53248],[110.25173,-7.5324],[110.25174,-7.53233],[110.25176,-7.53231],[110.25182,-7.53231],[110.2519,-7.53234],[110.252,-7.53238],[110.25213,-7.53244],[110.25221,-7.53248],[110.25229,-7.53251],[110.25246,-7.53257],[110.25255,-7.53259],[110.25264,-7.53259],[110.25274,-7.53254],[110.25276,-7.53246],[110.25281,-7.53234],[110.25282,-7.5323],[110.25284,-7.53217],[110.25285,-7.53207],[110.25285,-7.53195],[110.25282,-7.53189],[110.2528,-7.53187],[110.25279,-7.5318],[110.25284,-7.53176],[110.25293,-7.53176],[110.25298,-7.53177],[110.25306,-7.53178],[110.25315,-7.53181],[110.25321,-7.53185],[110.2533,-7.53189],[110.25346,-7.53193],[110.25353,-7.53195],[110.25355,-7.53195],[110.25365,-7.53197],[110.25374,-7.53196],[110.25389,-7.53194],[110.25405,-7.5319],[110.25422,-7.53187],[110.25426,-7.53188],[110.25429,-7.53188],[110.25436,-7.5319],[110.2544,-7.53194],[110.25442,-7.532],[110.25445,-7.53205],[110.25447,-7.53213],[110.25449,-7.53224],[110.25449,-7.53226],[110.2545,-7.53232],[110.2545,-7.5324],[110.25453,-7.53244],[110.2546,-7.53244],[110.25468,-7.53242],[110.25475,-7.53238],[110.25485,-7.53231],[110.25491,-7.53223],[110.25494,-7.53215],[110.25495,-7.53205],[110.25495,-7.53193],[110.25488,-7.53173],[110.25486,-7.53168],[110.25485,-7.53165],[110.25482,-7.53154],[110.25486,-7.53144],[110.25494,-7.53135],[110.255,-7.53132],[110.25509,-7.53131],[110.25516,-7.53131],[110.25522,-7.53132],[110.25531,-7.53132],[110.2554,-7.53134],[110.25548,-7.53135],[110.25556,-7.53138],[110.2556,-7.53141],[110.25563,-7.53146],[110.25562,-7.5315],[110.25556,-7.53164],[110.25553,-7.53174],[110.25552,-7.53181],[110.25555,-7.53189],[110.25561,-7.53198],[110.25566,-7.532],[110.25569,-7.53201],[110.25575,-7.53201],[110.25582,-7.53198],[110.25587,-7.5319],[110.2559,-7.53183],[110.25594,-7.53173],[110.25601,-7.53157],[110.25601,-7.53156],[110.2561,-7.53146],[110.25618,-7.5314],[110.25623,-7.53136],[110.25633,-7.53134],[110.2564,-7.53133],[110.25648,-7.53134],[110.25655,-7.53138],[110.25659,-7.53143],[110.25663,-7.53149],[110.25669,-7.53154],[110.2568,-7.53164],[110.25692,-7.53167],[110.2571,-7.53167],[110.25725,-7.53164],[110.25734,-7.5316],[110.25742,-7.53151],[110.25747,-7.53144],[110.25748,-7.53138],[110.25748,-7.53122],[110.25746,-7.53114],[110.25742,-7.53109],[110.25736,-7.53099],[110.25733,-7.53089],[110.25734,-7.53079],[110.25734,-7.53069],[110.25737,-7.53055],[110.25739,-7.53053],[110.25742,-7.53048],[110.25759,-7.53043],[110.25775,-7.53045],[110.25795,-7.5305],[110.25802,-7.53054],[110.25806,-7.53059],[110.25812,-7.53065],[110.25819,-7.53073],[110.25823,-7.53078],[110.25841,-7.53085],[110.2585,-7.53089],[110.25863,-7.53095],[110.25876,-7.53097],[110.25901,-7.53097],[110.2591,-7.53099],[110.2592,-7.53102],[110.25927,-7.53107],[110.25937,-7.53127],[110.25944,-7.53143],[110.25944,-7.53149],[110.25943,-7.53153],[110.25942,-7.5316],[110.25943,-7.53165],[110.25943,-7.53169],[110.25946,-7.53175],[110.25949,-7.53179],[110.25956,-7.53182],[110.25964,-7.53182],[110.25973,-7.53175],[110.25978,-7.53165],[110.25985,-7.53149],[110.25987,-7.53138],[110.25984,-7.53131],[110.2598,-7.53127],[110.25976,-7.53116],[110.25975,-7.53104],[110.25979,-7.53094],[110.25985,-7.53087],[110.25989,-7.53081],[110.25994,-7.53078],[110.25998,-7.53074],[110.25998,-7.53073],[110.26,-7.5307],[110.26005,-7.53061],[110.26012,-7.53055],[110.26025,-7.53057],[110.26033,-7.53062],[110.2604,-7.53067],[110.26043,-7.53073],[110.2605,-7.5308],[110.26054,-7.53081],[110.26057,-7.53081],[110.26063,-7.5308],[110.26065,-7.53076],[110.26065,-7.53069],[110.26066,-7.5306],[110.26066,-7.5305],[110.26064,-7.5304],[110.26063,-7.5302],[110.26065,-7.53014],[110.26071,-7.52992],[110.26074,-7.52987],[110.26083,-7.52984],[110.26097,-7.52986],[110.26116,-7.52985],[110.26122,-7.52982],[110.26131,-7.52977],[110.26143,-7.52968],[110.26148,-7.52953],[110.26159,-7.52935],[110.26161,-7.5293],[110.26165,-7.52919],[110.26179,-7.52917],[110.26228,-7.52916],[110.26261,-7.52918],[110.26275,-7.5292],[110.26288,-7.52923],[110.2629,-7.52925],[110.26297,-7.52929],[110.26305,-7.5293],[110.26313,-7.52927],[110.26319,-7.52922],[110.26327,-7.52912],[110.26329,-7.52908],[110.2634,-7.52889],[110.26353,-7.52873],[110.26366,-7.52868],[110.26374,-7.52869],[110.26387,-7.52882],[110.26413,-7.52903],[110.26426,-7.52912],[110.26444,-7.52918],[110.26464,-7.52924],[110.26469,-7.52926],[110.26475,-7.52934],[110.26478,-7.52939],[110.26482,-7.52949],[110.26483,-7.5295],[110.26486,-7.52959],[110.26489,-7.52969],[110.26495,-7.52972],[110.2651,-7.52969],[110.26518,-7.52961],[110.26519,-7.52957],[110.26522,-7.52951],[110.26537,-7.52933],[110.26542,-7.52921],[110.2655,-7.52898],[110.26555,-7.52886],[110.26564,-7.52874],[110.26577,-7.52865],[110.26584,-7.52858],[110.26594,-7.52849],[110.26606,-7.52843],[110.26611,-7.52843],[110.2662,-7.52842],[110.26647,-7.52835],[110.26683,-7.52827],[110.26704,-7.52822],[110.26737,-7.52817],[110.26765,-7.52807],[110.26786,-7.52798],[110.26794,-7.52793],[110.26796,-7.52792],[110.26809,-7.52789],[110.26816,-7.52791],[110.26818,-7.52789],[110.26819,-7.52786],[110.26817,-7.52779],[110.26814,-7.52775],[110.2681,-7.5277],[110.26805,-7.52764],[110.26801,-7.52758],[110.26786,-7.52742],[110.26785,-7.5274],[110.26784,-7.52737],[110.26783,-7.5273],[110.26784,-7.52727],[110.26787,-7.52721],[110.26791,-7.52716],[110.26794,-7.52712],[110.26802,-7.52707],[110.26818,-7.52704],[110.26834,-7.52704],[110.2685,-7.52708],[110.26851,-7.52709],[110.26866,-7.52709],[110.2688,-7.52707],[110.26884,-7.52708],[110.26889,-7.52709],[110.26902,-7.52707],[110.26911,-7.52699],[110.26916,-7.52691],[110.2692,-7.52678],[110.26923,-7.52665],[110.26924,-7.5266],[110.26927,-7.52651],[110.26929,-7.52646],[110.26931,-7.52644],[110.26935,-7.52642],[110.2694,-7.52643],[110.26944,-7.52647],[110.26946,-7.52652],[110.26952,-7.52663],[110.26958,-7.52671],[110.26965,-7.52678],[110.26969,-7.52678],[110.26979,-7.52676],[110.26997,-7.52666],[110.27008,-7.52653],[110.27009,-7.52652],[110.2702,-7.52633],[110.2703,-7.52615],[110.27036,-7.52604],[110.27044,-7.5259],[110.27053,-7.52575],[110.2706,-7.52569],[110.27065,-7.52568],[110.27071,-7.52567],[110.27072,-7.52569],[110.27075,-7.52571],[110.27087,-7.52584],[110.271,-7.52596],[110.27112,-7.52606],[110.27125,-7.52612],[110.27131,-7.52615],[110.27155,-7.52619],[110.27157,-7.52619],[110.27169,-7.52617],[110.27172,-7.52616],[110.27182,-7.52611],[110.27202,-7.526],[110.27218,-7.52591],[110.27228,-7.52587],[110.27234,-7.52587],[110.27244,-7.52595],[110.27263,-7.52609],[110.27299,-7.52623],[110.27317,-7.52632],[110.27328,-7.52633],[110.27343,-7.52631],[110.27376,-7.52618],[110.27416,-7.52604],[110.27445,-7.52591],[110.27447,-7.5259],[110.2748,-7.52575],[110.27545,-7.52574],[110.27597,-7.52571],[110.27661,-7.52561],[110.27689,-7.52555],[110.27716,-7.52549],[110.27739,-7.52537],[110.27774,-7.52532],[110.27789,-7.52535],[110.27806,-7.52535],[110.27819,-7.52539],[110.27829,-7.52545],[110.27834,-7.52549],[110.27838,-7.52551],[110.27851,-7.52556],[110.27868,-7.52557],[110.27885,-7.52554],[110.27898,-7.52547],[110.27931,-7.52525],[110.27952,-7.52519],[110.27959,-7.52518],[110.28001,-7.52508],[110.28032,-7.52499],[110.28039,-7.52497],[110.28053,-7.5249],[110.28057,-7.52479],[110.28057,-7.52478],[110.28058,-7.52478],[110.28082,-7.52462],[110.281,-7.52439],[110.28105,-7.52427],[110.28106,-7.52425],[110.28112,-7.52414],[110.28124,-7.52405],[110.28134,-7.52403],[110.28142,-7.52402],[110.28152,-7.52403],[110.28156,-7.52403],[110.28166,-7.52404],[110.28173,-7.524],[110.28176,-7.52395],[110.28178,-7.5239],[110.28185,-7.52364],[110.28191,-7.52359],[110.28199,-7.52355],[110.28215,-7.52351],[110.28226,-7.52349],[110.28237,-7.52349],[110.2826,-7.52344],[110.28274,-7.52338],[110.28287,-7.52331],[110.28294,-7.52323],[110.28298,-7.52314],[110.28298,-7.52304],[110.28299,-7.52294],[110.28302,-7.52287],[110.28307,-7.52283],[110.28316,-7.52277],[110.28334,-7.5227],[110.28345,-7.52266],[110.28353,-7.52262],[110.28361,-7.52257],[110.28367,-7.52252],[110.28368,-7.5225],[110.28374,-7.52245],[110.28388,-7.52237],[110.28399,-7.52233],[110.28404,-7.52235],[110.28409,-7.52238],[110.28412,-7.5224],[110.28419,-7.52242],[110.28429,-7.52245],[110.28452,-7.52243],[110.28459,-7.52241],[110.2847,-7.52238],[110.28475,-7.52233],[110.28477,-7.52228],[110.28477,-7.52222],[110.28474,-7.52214],[110.2847,-7.5221],[110.28466,-7.52205],[110.2846,-7.52195],[110.2846,-7.52184],[110.28459,-7.52181],[110.28456,-7.52179],[110.28452,-7.52169],[110.28452,-7.52164],[110.28453,-7.52157],[110.28453,-7.52147],[110.28455,-7.52137],[110.28457,-7.52133],[110.2846,-7.5213],[110.28463,-7.52128],[110.28469,-7.5213],[110.28477,-7.52136],[110.28485,-7.52144],[110.28494,-7.52146],[110.28505,-7.52145],[110.28509,-7.52145],[110.28526,-7.5214],[110.28528,-7.52139],[110.28533,-7.52137],[110.28541,-7.52134],[110.28547,-7.52133],[110.28552,-7.52133],[110.28562,-7.52134],[110.28569,-7.52135],[110.28579,-7.52136],[110.28589,-7.5214],[110.28599,-7.5214],[110.28609,-7.52138],[110.28623,-7.52134],[110.28638,-7.52126],[110.28643,-7.5212],[110.28646,-7.52114],[110.28646,-7.52109],[110.2864,-7.52104],[110.28631,-7.52097],[110.28617,-7.52089],[110.28603,-7.52082],[110.286,-7.52079],[110.28599,-7.52071],[110.28602,-7.52067],[110.28612,-7.52062],[110.28624,-7.52057],[110.28625,-7.52057],[110.2864,-7.52056],[110.28648,-7.52052],[110.28657,-7.52045],[110.28658,-7.52038],[110.28657,-7.52032],[110.2865,-7.52022],[110.28648,-7.52016],[110.28648,-7.52006],[110.28651,-7.51994],[110.28658,-7.51986],[110.28673,-7.5198],[110.28689,-7.51979],[110.28696,-7.51978],[110.28728,-7.51969],[110.28771,-7.51952],[110.28791,-7.51947],[110.28814,-7.51902],[110.2883,-7.51873],[110.28848,-7.51858],[110.28851,-7.51858],[110.2887,-7.51854],[110.28891,-7.51863],[110.2891,-7.51877],[110.2892,-7.51866],[110.28931,-7.51847],[110.28941,-7.51833],[110.28949,-7.51826],[110.28951,-7.51825],[110.28958,-7.51823],[110.28965,-7.51822],[110.28979,-7.51825],[110.28989,-7.51837],[110.28999,-7.51854],[110.29032,-7.5188],[110.29039,-7.51887],[110.2905,-7.51891],[110.29051,-7.51892],[110.29062,-7.51893],[110.29069,-7.51892],[110.29072,-7.51887],[110.29075,-7.51876],[110.29075,-7.51861],[110.29073,-7.51852],[110.29069,-7.51845],[110.29058,-7.51835],[110.2905,-7.5183],[110.2904,-7.51815],[110.29035,-7.51806],[110.29034,-7.51793],[110.29038,-7.51789],[110.29061,-7.51791],[110.29067,-7.51796],[110.29078,-7.51807],[110.29083,-7.51813],[110.29089,-7.51819],[110.29105,-7.51823],[110.29122,-7.51822],[110.29132,-7.51819],[110.29146,-7.51816],[110.29153,-7.51811],[110.2916,-7.51803],[110.29162,-7.51795],[110.29161,-7.51785],[110.29157,-7.51764],[110.29147,-7.51742],[110.2914,-7.51727],[110.29131,-7.51712],[110.29131,-7.51703],[110.29127,-7.51688],[110.29126,-7.51678],[110.29126,-7.51668],[110.29131,-7.51656],[110.29138,-7.51648],[110.29148,-7.51643],[110.29162,-7.51642],[110.29167,-7.51643],[110.29177,-7.51654],[110.29194,-7.51669],[110.29198,-7.51674],[110.29213,-7.51687],[110.29228,-7.51694],[110.29242,-7.51696],[110.29254,-7.51698],[110.29267,-7.51697],[110.2928,-7.51688],[110.29284,-7.51679],[110.29283,-7.51666],[110.29271,-7.51643],[110.29268,-7.51638],[110.29266,-7.51629],[110.29264,-7.51614],[110.29262,-7.51592],[110.29262,-7.51562],[110.29261,-7.51541],[110.29262,-7.51532],[110.29265,-7.51525],[110.2927,-7.51521],[110.29278,-7.5152],[110.29294,-7.51523],[110.29301,-7.51529],[110.29306,-7.51537],[110.29312,-7.51547],[110.29319,-7.51554],[110.29329,-7.5156],[110.29342,-7.51562],[110.29355,-7.51559],[110.29371,-7.51554],[110.29378,-7.51552],[110.2938,-7.51546],[110.29378,-7.51531],[110.29373,-7.51515],[110.29372,-7.51513],[110.29372,-7.51494],[110.29376,-7.51477],[110.29384,-7.51452],[110.29392,-7.5144],[110.29401,-7.51431],[110.29413,-7.51428],[110.29415,-7.51428],[110.29431,-7.51426],[110.29455,-7.51432],[110.29463,-7.51435],[110.29475,-7.51439],[110.295,-7.51439],[110.29503,-7.51436],[110.29506,-7.51416],[110.29506,-7.51393],[110.29513,-7.51386],[110.29522,-7.51383],[110.29524,-7.51382],[110.29532,-7.51379],[110.29538,-7.51379],[110.29544,-7.5138],[110.29548,-7.5138],[110.29555,-7.51379],[110.29561,-7.51378],[110.29566,-7.51376],[110.29568,-7.51375],[110.29572,-7.51372],[110.29579,-7.51369],[110.29582,-7.51368],[110.29593,-7.51367],[110.29599,-7.51369],[110.29612,-7.51374],[110.29616,-7.51375],[110.29623,-7.51375],[110.29635,-7.51369],[110.29636,-7.51366],[110.29637,-7.5136],[110.29637,-7.51353],[110.29636,-7.51347],[110.29635,-7.51343],[110.29635,-7.51341],[110.29633,-7.5133],[110.29633,-7.51329],[110.29632,-7.51321],[110.29633,-7.51315],[110.29636,-7.5131],[110.2964,-7.51307],[110.29651,-7.51305],[110.29654,-7.51306],[110.29656,-7.51309],[110.29659,-7.51311],[110.29666,-7.51317],[110.29672,-7.51323],[110.29686,-7.51327],[110.29694,-7.5133],[110.29704,-7.51332],[110.29713,-7.51334],[110.29725,-7.51333],[110.2973,-7.51332],[110.29736,-7.5133],[110.2976,-7.5133],[110.29766,-7.51332],[110.29772,-7.51336],[110.29776,-7.51339],[110.29778,-7.51341],[110.2979,-7.51346],[110.29798,-7.51347],[110.29805,-7.51346],[110.29811,-7.51344],[110.29816,-7.51341],[110.29822,-7.51334],[110.29824,-7.51328],[110.2983,-7.51313],[110.29834,-7.51308],[110.29841,-7.51303],[110.29858,-7.51296],[110.29864,-7.51296],[110.29878,-7.51295],[110.29896,-7.51297],[110.29907,-7.51301],[110.29918,-7.51303],[110.29927,-7.51303],[110.29935,-7.51301],[110.29946,-7.51298],[110.29954,-7.51294],[110.29959,-7.51289],[110.29961,-7.51285],[110.29962,-7.51281],[110.29961,-7.51275],[110.29958,-7.5127],[110.29955,-7.51269],[110.29953,-7.51268],[110.29946,-7.51263],[110.29941,-7.51254],[110.2994,-7.51248],[110.2994,-7.51235],[110.29941,-7.51225],[110.29941,-7.51224],[110.29956,-7.51192],[110.29961,-7.51183],[110.29967,-7.5118],[110.29972,-7.51179],[110.29978,-7.51181],[110.29985,-7.51183],[110.29994,-7.51186],[110.30008,-7.51187],[110.30024,-7.51186],[110.30042,-7.51183],[110.3005,-7.5118],[110.30063,-7.51167],[110.30065,-7.51164],[110.30079,-7.51147],[110.30087,-7.5114],[110.30095,-7.51138],[110.30104,-7.5114],[110.30116,-7.51155],[110.3012,-7.51159],[110.30127,-7.51164],[110.30134,-7.51166],[110.3014,-7.51167],[110.30148,-7.51164],[110.30149,-7.51163],[110.3016,-7.51158],[110.30171,-7.51148],[110.30183,-7.51142],[110.30186,-7.5114],[110.30189,-7.51139],[110.30204,-7.51139],[110.30218,-7.51138],[110.30228,-7.51135],[110.30229,-7.51135],[110.30236,-7.51132],[110.30237,-7.5113],[110.30236,-7.51126],[110.30235,-7.51124],[110.30234,-7.51113],[110.30235,-7.51105],[110.30244,-7.51095],[110.30252,-7.51088],[110.30262,-7.51083],[110.30268,-7.51081],[110.30279,-7.51079],[110.30291,-7.51083],[110.30301,-7.51087],[110.3031,-7.51092],[110.3032,-7.51099],[110.30328,-7.51105],[110.30335,-7.51111],[110.3034,-7.51114],[110.30346,-7.51117],[110.30355,-7.51119],[110.30361,-7.5112],[110.30367,-7.51117],[110.30405,-7.51099],[110.30426,-7.51087],[110.3044,-7.51083],[110.3045,-7.51083],[110.3046,-7.51085],[110.30471,-7.51086],[110.30491,-7.51092],[110.30504,-7.51098],[110.30515,-7.51099],[110.30521,-7.51099],[110.30531,-7.51097],[110.30592,-7.51097],[110.30604,-7.51096],[110.30631,-7.51096],[110.3064,-7.51095],[110.30654,-7.51093],[110.30662,-7.51091],[110.30677,-7.51086],[110.30701,-7.51065],[110.30711,-7.5105],[110.3072,-7.51032],[110.30727,-7.51027],[110.30743,-7.51019],[110.30753,-7.51017],[110.30762,-7.51017],[110.30773,-7.51016],[110.30776,-7.51016],[110.30787,-7.51014],[110.30792,-7.51014],[110.30805,-7.51008],[110.30807,-7.51007],[110.3081,-7.51005],[110.30817,-7.51],[110.30821,-7.50995],[110.30822,-7.50987],[110.30821,-7.5098],[110.30814,-7.50972],[110.30805,-7.50963],[110.30799,-7.50958],[110.30795,-7.50953],[110.30792,-7.5094],[110.30792,-7.50936],[110.30805,-7.50927],[110.30833,-7.50916],[110.30838,-7.50912],[110.30841,-7.50908],[110.30844,-7.50906],[110.30851,-7.50905],[110.3086,-7.50906],[110.30867,-7.5091],[110.30879,-7.50914],[110.30893,-7.50918],[110.30896,-7.50918],[110.30902,-7.50919],[110.30907,-7.50919],[110.30911,-7.50917],[110.30912,-7.50916],[110.30914,-7.50911],[110.30919,-7.50882],[110.30925,-7.50863],[110.30928,-7.50855],[110.30933,-7.50851],[110.30937,-7.50849],[110.30941,-7.50848],[110.30951,-7.50847],[110.3096,-7.50853],[110.30971,-7.50865],[110.30981,-7.50879],[110.30983,-7.50881],[110.30994,-7.50888],[110.3101,-7.50894],[110.31017,-7.50893],[110.31018,-7.5089],[110.31017,-7.50885],[110.31011,-7.50876],[110.31009,-7.50869],[110.31008,-7.50861],[110.31012,-7.50855],[110.31016,-7.50853],[110.31023,-7.50853],[110.31028,-7.50857],[110.31035,-7.50858],[110.31043,-7.50856],[110.31052,-7.50848],[110.31059,-7.50836],[110.31066,-7.50831],[110.3107,-7.50828],[110.31079,-7.50822],[110.3109,-7.50819],[110.311,-7.50816],[110.31106,-7.5081],[110.31109,-7.50802],[110.31109,-7.50795],[110.31099,-7.50785],[110.31081,-7.50766],[110.31079,-7.5076],[110.31077,-7.50753],[110.31075,-7.50735],[110.31076,-7.50728],[110.31081,-7.50719],[110.31096,-7.507],[110.31104,-7.50698],[110.31118,-7.50698],[110.31126,-7.50699],[110.31137,-7.50701],[110.31148,-7.50705],[110.31155,-7.50709],[110.31165,-7.50714],[110.31174,-7.50717],[110.31186,-7.50718],[110.31196,-7.50718],[110.31207,-7.50715],[110.31214,-7.50709],[110.31223,-7.507],[110.31229,-7.50691],[110.31234,-7.50685],[110.3124,-7.50681],[110.31248,-7.5068],[110.31259,-7.50681],[110.31276,-7.50686],[110.31285,-7.50688],[110.31289,-7.5069],[110.31292,-7.50692],[110.31293,-7.50692],[110.31299,-7.50695],[110.31307,-7.50697],[110.31317,-7.50698],[110.31321,-7.50697],[110.31324,-7.50695],[110.31325,-7.5069],[110.31325,-7.50681],[110.31323,-7.50673],[110.31323,-7.50664],[110.31326,-7.50652],[110.31333,-7.50647],[110.31335,-7.50647],[110.31341,-7.50645],[110.31351,-7.50648],[110.31357,-7.50653],[110.31358,-7.50653],[110.31378,-7.50657],[110.31386,-7.50657],[110.31391,-7.50651],[110.31394,-7.50646],[110.31399,-7.5064],[110.314,-7.50633],[110.31402,-7.50623],[110.31401,-7.5061],[110.31405,-7.50606],[110.31414,-7.50605],[110.31427,-7.50606],[110.31441,-7.50606],[110.31461,-7.50599],[110.31488,-7.50593],[110.31504,-7.50586],[110.31509,-7.5058],[110.31511,-7.50557],[110.31512,-7.50541],[110.31518,-7.50523],[110.31521,-7.50517],[110.31522,-7.50516],[110.31527,-7.50513],[110.31533,-7.50512],[110.31539,-7.50514],[110.31543,-7.50518],[110.31544,-7.50521],[110.31548,-7.50532],[110.31554,-7.50543],[110.3156,-7.50552],[110.31571,-7.50554],[110.31581,-7.50554],[110.31589,-7.50551],[110.31599,-7.50544],[110.31615,-7.50534],[110.31617,-7.50527],[110.31614,-7.50512],[110.31613,-7.50512],[110.31611,-7.50507],[110.31611,-7.50497],[110.31613,-7.50492],[110.3162,-7.50489],[110.31628,-7.5049],[110.31641,-7.50499],[110.31646,-7.50507],[110.31649,-7.50508],[110.31661,-7.50515],[110.3167,-7.5052],[110.31688,-7.50527],[110.31696,-7.50527],[110.31709,-7.50525],[110.31717,-7.50522],[110.31721,-7.50514],[110.31723,-7.50507],[110.31723,-7.50506],[110.31725,-7.505],[110.3173,-7.50496],[110.31737,-7.50495],[110.31753,-7.50497],[110.31759,-7.50498],[110.31766,-7.50497],[110.31769,-7.50496],[110.31786,-7.50486],[110.31789,-7.5048],[110.31795,-7.50472],[110.31804,-7.50463],[110.31811,-7.50459],[110.31825,-7.50456],[110.3183,-7.50455],[110.31855,-7.5046],[110.31865,-7.50457],[110.31868,-7.50453],[110.3187,-7.50449],[110.3187,-7.50421],[110.31872,-7.50411],[110.3188,-7.50398],[110.31883,-7.50396],[110.31887,-7.50394],[110.31896,-7.5039],[110.31913,-7.50387],[110.31943,-7.50387],[110.31958,-7.50386],[110.31959,-7.50385],[110.31969,-7.50382],[110.31977,-7.50378],[110.3199,-7.50372],[110.31997,-7.5036],[110.31997,-7.50359],[110.32003,-7.50345],[110.32015,-7.50338],[110.32023,-7.50338],[110.3204,-7.50344],[110.32058,-7.50354],[110.32073,-7.50359],[110.32096,-7.50351],[110.321,-7.50349],[110.3211,-7.50346],[110.32117,-7.50341],[110.32138,-7.50303],[110.32153,-7.5028],[110.3216,-7.5027],[110.32171,-7.50258],[110.32198,-7.50238],[110.32206,-7.50233],[110.32217,-7.50226],[110.32232,-7.50196],[110.32232,-7.50194],[110.32241,-7.50183],[110.32268,-7.50183],[110.32272,-7.50181],[110.32278,-7.50179],[110.32286,-7.50169],[110.32307,-7.50127],[110.3235,-7.50083],[110.32378,-7.50061],[110.32409,-7.50043],[110.32438,-7.50031],[110.32458,-7.50025],[110.3248,-7.50031],[110.325,-7.50034],[110.32501,-7.50034],[110.3251,-7.50029],[110.32528,-7.50006],[110.32549,-7.49983],[110.32563,-7.49968],[110.32567,-7.49963],[110.3259,-7.49934],[110.32629,-7.4988],[110.32631,-7.49877],[110.32648,-7.49852],[110.3266,-7.49842],[110.32749,-7.49809],[110.32776,-7.49794],[110.3281,-7.49767],[110.32838,-7.49761],[110.32853,-7.49762],[110.32892,-7.49775],[110.32912,-7.49781],[110.32916,-7.49782],[110.32938,-7.49783],[110.3296,-7.49772],[110.32973,-7.49759],[110.32973,-7.49756],[110.32981,-7.49719],[110.32981,-7.49684],[110.32982,-7.49682],[110.32985,-7.49673],[110.32986,-7.49671],[110.32993,-7.49668],[110.33006,-7.49675],[110.33017,-7.4968],[110.33058,-7.49693],[110.33071,-7.49689],[110.3308,-7.49678],[110.33083,-7.49666],[110.3308,-7.4964],[110.33071,-7.49628],[110.3307,-7.49626],[110.33071,-7.49614],[110.33085,-7.49602],[110.33098,-7.49602],[110.3311,-7.49608],[110.33124,-7.49614],[110.33143,-7.49617],[110.33157,-7.49614],[110.33168,-7.49609],[110.33218,-7.49572],[110.33254,-7.49543],[110.333,-7.49508],[110.33308,-7.49503],[110.33327,-7.4949],[110.33333,-7.4949],[110.33351,-7.49495],[110.33352,-7.49495],[110.3337,-7.49498],[110.33383,-7.49488],[110.33383,-7.49456],[110.33391,-7.4944],[110.33395,-7.49439],[110.33416,-7.49432],[110.3344,-7.49432],[110.33446,-7.49439],[110.33453,-7.49458],[110.33469,-7.49486],[110.33471,-7.4949],[110.33485,-7.49499],[110.33503,-7.495],[110.33516,-7.49493],[110.33521,-7.49486],[110.33522,-7.49463],[110.33522,-7.49455],[110.33534,-7.49426],[110.33553,-7.49411],[110.33568,-7.49404],[110.33602,-7.49392],[110.33612,-7.49388],[110.33627,-7.49381],[110.33646,-7.49373],[110.33665,-7.49364],[110.33677,-7.49363],[110.33639,-7.49313],[110.33626,-7.49302],[110.33613,-7.49293],[110.33601,-7.49284],[110.33594,-7.49266],[110.33586,-7.49249],[110.33575,-7.49232],[110.3358,-7.49222],[110.33579,-7.4921],[110.33578,-7.49191],[110.33577,-7.4918],[110.33574,-7.49171],[110.33576,-7.49156],[110.3358,-7.49134],[110.3358,-7.49127],[110.33566,-7.49097],[110.33555,-7.49092],[110.33545,-7.49091],[110.33518,-7.49087],[110.33511,-7.49084],[110.33496,-7.49084],[110.33485,-7.49088],[110.33477,-7.49093],[110.33471,-7.49099],[110.33462,-7.49103],[110.33441,-7.49112],[110.33436,-7.49111],[110.3343,-7.49109],[110.33424,-7.49111],[110.33422,-7.49114],[110.33419,-7.49119],[110.33413,-7.49124],[110.33408,-7.49126],[110.33403,-7.49129],[110.33397,-7.49131],[110.33383,-7.49139],[110.33378,-7.49142],[110.33371,-7.4915],[110.33367,-7.49157],[110.33358,-7.49168],[110.33348,-7.49185],[110.33348,-7.49186],[110.33328,-7.49197],[110.33319,-7.49209],[110.33307,-7.49222],[110.33297,-7.49232],[110.33286,-7.49249],[110.33279,-7.49255],[110.33266,-7.49263],[110.33256,-7.4927],[110.33254,-7.49272],[110.33248,-7.49272],[110.33244,-7.49271],[110.33237,-7.49269],[110.33234,-7.49268],[110.33229,-7.49268],[110.33227,-7.4927],[110.33222,-7.49276],[110.33219,-7.49282],[110.33217,-7.49289],[110.33217,-7.4929],[110.33202,-7.49295],[110.33187,-7.49299],[110.33173,-7.49303],[110.33153,-7.49308],[110.33132,-7.49315],[110.33115,-7.49322],[110.33093,-7.49329],[110.33045,-7.49313],[110.33036,-7.49307],[110.33014,-7.49289],[110.32994,-7.49273],[110.32975,-7.49263],[110.32966,-7.49253],[110.32957,-7.49238],[110.3294,-7.49214],[110.32948,-7.49202],[110.32937,-7.49164],[110.32924,-7.49134],[110.32918,-7.49117],[110.32905,-7.49089],[110.32896,-7.49068],[110.3289,-7.4905],[110.32883,-7.49037],[110.32868,-7.49019],[110.3288,-7.4901],[110.32932,-7.48972],[110.32917,-7.48949],[110.32909,-7.48926],[110.32903,-7.4891],[110.32897,-7.48891],[110.32896,-7.48877],[110.32895,-7.48858],[110.32891,-7.48834],[110.32877,-7.48779],[110.32889,-7.48763],[110.3289,-7.48756],[110.32891,-7.48747],[110.32895,-7.48737],[110.32896,-7.48733],[110.32917,-7.48699],[110.32917,-7.48695],[110.32915,-7.48682],[110.32913,-7.48671],[110.32909,-7.48659],[110.32903,-7.4865],[110.32893,-7.48639],[110.32888,-7.48633],[110.32882,-7.48627],[110.32875,-7.48621],[110.32873,-7.48613],[110.32869,-7.48601],[110.32859,-7.4859],[110.32843,-7.48585],[110.32832,-7.48587],[110.32828,-7.4859],[110.32825,-7.48594],[110.32822,-7.48597],[110.32813,-7.48598],[110.32793,-7.48598],[110.32783,-7.48596],[110.32752,-7.48592],[110.32744,-7.4859],[110.32731,-7.48586],[110.32721,-7.48582],[110.32714,-7.48581],[110.32706,-7.48581],[110.32699,-7.48583],[110.3269,-7.48589],[110.32685,-7.48595],[110.3268,-7.486],[110.32663,-7.48619],[110.32656,-7.4863],[110.32651,-7.4864],[110.32649,-7.48642],[110.32644,-7.48646],[110.32627,-7.48655],[110.32621,-7.48655],[110.32602,-7.48658],[110.32586,-7.48658],[110.32574,-7.48661],[110.32558,-7.48663],[110.32554,-7.48664],[110.32548,-7.48666],[110.32546,-7.48666],[110.32536,-7.48672],[110.32521,-7.48682],[110.32505,-7.4869],[110.32496,-7.48697],[110.32493,-7.48699],[110.32477,-7.48703],[110.32468,-7.48703],[110.32457,-7.48695],[110.32448,-7.48687],[110.32442,-7.48683],[110.32432,-7.48678],[110.3242,-7.48676],[110.32411,-7.48676],[110.32403,-7.48678],[110.32401,-7.48679],[110.32396,-7.48686],[110.32384,-7.48701],[110.32383,-7.48703],[110.32379,-7.48704],[110.32378,-7.48705],[110.32375,-7.48704],[110.32366,-7.48698],[110.32364,-7.48696],[110.32361,-7.48694],[110.32359,-7.48688],[110.32355,-7.48687],[110.32347,-7.4869],[110.32345,-7.48694],[110.32345,-7.487],[110.32342,-7.48705],[110.32339,-7.48711],[110.32335,-7.48721],[110.32322,-7.4876],[110.32304,-7.48772],[110.32289,-7.48774],[110.32288,-7.48774],[110.32279,-7.48776],[110.32275,-7.4878],[110.32274,-7.48787],[110.3228,-7.48794],[110.32292,-7.48806],[110.32289,-7.48819],[110.32282,-7.48836],[110.32271,-7.48847],[110.32265,-7.48855],[110.32259,-7.48864],[110.3223,-7.48889],[110.32219,-7.4889],[110.32206,-7.48889],[110.322,-7.48888],[110.32191,-7.48887],[110.32179,-7.48887],[110.32159,-7.48892],[110.32154,-7.48896],[110.32148,-7.48902],[110.32142,-7.4891],[110.32132,-7.48915],[110.32127,-7.48916],[110.32118,-7.48913],[110.32115,-7.4891],[110.32111,-7.48905],[110.32109,-7.48901],[110.32105,-7.48896],[110.32099,-7.48888],[110.32094,-7.48881],[110.32088,-7.48879],[110.3208,-7.48877],[110.32064,-7.48867],[110.32052,-7.48858],[110.32034,-7.48848],[110.32018,-7.4884],[110.32005,-7.48832],[110.31953,-7.48782],[110.31917,-7.48752],[110.31879,-7.4872],[110.31869,-7.48705],[110.31849,-7.48672],[110.31822,-7.48642],[110.31795,-7.4861],[110.31778,-7.48591],[110.31767,-7.48579],[110.31764,-7.48577],[110.31749,-7.4857],[110.31708,-7.48551],[110.31682,-7.4854],[110.31654,-7.48531],[110.31603,-7.48526],[110.31576,-7.48525],[110.3153,-7.48528],[110.31489,-7.4852],[110.31484,-7.48518],[110.31476,-7.48513],[110.31473,-7.48504],[110.31473,-7.48502],[110.31472,-7.48494],[110.3147,-7.48437],[110.31468,-7.4841],[110.31468,-7.48394],[110.31472,-7.48387],[110.31476,-7.48381],[110.31483,-7.48378],[110.31497,-7.48374],[110.31506,-7.48367],[110.31512,-7.48354],[110.31513,-7.48334],[110.31508,-7.48295],[110.31506,-7.48284],[110.31506,-7.48217],[110.31507,-7.48204],[110.31506,-7.48188],[110.315,-7.4818],[110.31487,-7.48168],[110.31479,-7.4816],[110.31473,-7.48151],[110.31464,-7.48141],[110.31458,-7.48117],[110.3146,-7.48113],[110.31463,-7.4811],[110.31465,-7.48107],[110.31482,-7.48099],[110.31506,-7.48088],[110.31516,-7.48084],[110.31524,-7.48082],[110.31535,-7.48076],[110.31547,-7.4807],[110.31556,-7.48063],[110.31566,-7.48056],[110.31578,-7.48052],[110.31586,-7.48052],[110.31612,-7.48051],[110.31628,-7.48053],[110.31642,-7.48055],[110.31652,-7.48064],[110.31657,-7.48071],[110.31663,-7.48078],[110.31667,-7.48084],[110.31675,-7.48091],[110.31685,-7.48097],[110.31701,-7.48101],[110.31704,-7.48102],[110.31711,-7.48101],[110.31726,-7.48094],[110.31782,-7.48068],[110.31797,-7.48063],[110.31807,-7.4806],[110.31836,-7.48053],[110.31847,-7.48047],[110.31857,-7.4804],[110.31865,-7.48036],[110.31866,-7.48035],[110.31888,-7.48027],[110.31899,-7.48024],[110.31911,-7.48021],[110.31927,-7.4802],[110.3193,-7.48023],[110.31933,-7.48028],[110.31933,-7.48036],[110.31932,-7.48045],[110.31932,-7.48052],[110.31934,-7.4806],[110.31937,-7.48065],[110.31943,-7.48071],[110.3195,-7.48074],[110.31959,-7.48073],[110.31964,-7.48071],[110.31967,-7.48061],[110.31977,-7.48033],[110.31984,-7.48024],[110.32,-7.48017],[110.32017,-7.48014],[110.32027,-7.48013],[110.32032,-7.48014],[110.32038,-7.48017],[110.32045,-7.4802],[110.32051,-7.48024],[110.32058,-7.48026],[110.32066,-7.48027],[110.32072,-7.48026],[110.32078,-7.48024],[110.32082,-7.48022],[110.32088,-7.48015],[110.32102,-7.48006],[110.32112,-7.48003],[110.32121,-7.48003],[110.32131,-7.48004],[110.32142,-7.48005],[110.32151,-7.48007],[110.3216,-7.48008],[110.32175,-7.48008],[110.32181,-7.48006],[110.32184,-7.48002],[110.32184,-7.47994],[110.32183,-7.47986],[110.3218,-7.47965],[110.32179,-7.47957],[110.32182,-7.47951],[110.32191,-7.47947],[110.32225,-7.47947],[110.32235,-7.47945],[110.32244,-7.47944],[110.32277,-7.47943],[110.32288,-7.47943],[110.32303,-7.47944],[110.3232,-7.47945],[110.32335,-7.47946],[110.32342,-7.47948],[110.32344,-7.47948],[110.32361,-7.47953],[110.32374,-7.47958],[110.32387,-7.47962],[110.32401,-7.47969],[110.32422,-7.47973],[110.32435,-7.47975],[110.32451,-7.47975],[110.32463,-7.47973],[110.32473,-7.47971],[110.32484,-7.47964],[110.32494,-7.47958],[110.32503,-7.47953],[110.32515,-7.47954],[110.3253,-7.47957],[110.32541,-7.47962],[110.3255,-7.47968],[110.32557,-7.47973],[110.32563,-7.47978],[110.32572,-7.47983],[110.32588,-7.47987],[110.32596,-7.47982],[110.32597,-7.47966],[110.32598,-7.47958],[110.32603,-7.47943],[110.32607,-7.4794],[110.3261,-7.47938],[110.32617,-7.47931],[110.32632,-7.47923],[110.32652,-7.47908],[110.3266,-7.479],[110.32664,-7.47891],[110.32665,-7.47882],[110.32665,-7.4787],[110.32662,-7.47849],[110.32666,-7.47811],[110.32665,-7.47773],[110.32675,-7.47755],[110.32689,-7.47715],[110.32701,-7.47687],[110.32702,-7.4767],[110.32683,-7.47604],[110.32688,-7.47562],[110.32688,-7.47545],[110.32683,-7.47539],[110.32666,-7.47515],[110.32656,-7.4751],[110.32644,-7.47506],[110.32635,-7.47508],[110.32627,-7.47513],[110.32618,-7.47519],[110.32603,-7.47531],[110.32589,-7.47538],[110.3258,-7.4754],[110.32567,-7.47537],[110.32557,-7.47533],[110.32542,-7.4752],[110.32532,-7.47514],[110.32521,-7.47508],[110.32511,-7.47508],[110.32492,-7.47514],[110.3246,-7.47529],[110.32441,-7.4754],[110.32424,-7.47548],[110.32413,-7.47551],[110.32404,-7.47551],[110.32398,-7.47542],[110.32386,-7.47531],[110.32371,-7.47525],[110.32356,-7.47525],[110.32347,-7.47529],[110.32306,-7.47552],[110.32254,-7.47583],[110.32229,-7.47601],[110.32212,-7.47621],[110.32208,-7.47634],[110.32208,-7.47644],[110.32213,-7.47656],[110.3222,-7.47674],[110.32227,-7.47686],[110.32233,-7.47696],[110.32235,-7.477],[110.32236,-7.47709],[110.32223,-7.47718],[110.32212,-7.47726],[110.32198,-7.47725],[110.32187,-7.47722],[110.3218,-7.47718],[110.32169,-7.47705],[110.32158,-7.47697],[110.32143,-7.47703],[110.3214,-7.47713],[110.3214,-7.47726],[110.32142,-7.4774],[110.32146,-7.47755],[110.32151,-7.4777],[110.32159,-7.47783],[110.3216,-7.47784],[110.32166,-7.47796],[110.32166,-7.47805],[110.32164,-7.47814],[110.32155,-7.47819],[110.32148,-7.47818],[110.32133,-7.47816],[110.32119,-7.47811],[110.32105,-7.47805],[110.32096,-7.47798],[110.32091,-7.47784],[110.32087,-7.47774],[110.32086,-7.47764],[110.32086,-7.47742],[110.32082,-7.47735],[110.32071,-7.47734],[110.32051,-7.47736],[110.32034,-7.47745],[110.32029,-7.4775],[110.32021,-7.47759],[110.3202,-7.47764],[110.32017,-7.47771],[110.32012,-7.47785],[110.32012,-7.47805],[110.32,-7.47829],[110.31995,-7.47832],[110.31978,-7.47846],[110.31955,-7.47852],[110.31941,-7.47852],[110.31933,-7.47846],[110.31925,-7.47834],[110.31919,-7.47822],[110.31911,-7.47801],[110.31902,-7.47792],[110.31893,-7.47786],[110.31873,-7.47786],[110.31858,-7.4779],[110.31838,-7.47794],[110.31822,-7.47799],[110.31816,-7.47799],[110.31806,-7.47796],[110.31796,-7.47792],[110.3178,-7.4779],[110.31771,-7.47792],[110.31769,-7.47793],[110.31759,-7.47796],[110.31755,-7.47799],[110.31746,-7.47805],[110.31741,-7.47813],[110.31729,-7.47825],[110.31725,-7.47836],[110.31719,-7.47858],[110.31716,-7.47868],[110.31709,-7.47873],[110.31699,-7.4787],[110.31689,-7.47862],[110.31683,-7.47849],[110.31669,-7.4783],[110.31668,-7.47829],[110.31668,-7.47823],[110.31665,-7.47803],[110.31663,-7.47794],[110.31659,-7.47784],[110.31653,-7.47773],[110.31646,-7.47767],[110.31632,-7.47764],[110.31618,-7.47765],[110.31602,-7.47771],[110.31596,-7.47777],[110.31593,-7.47787],[110.31593,-7.47802],[110.31592,-7.47812],[110.31591,-7.47824],[110.31579,-7.47829],[110.31562,-7.4783],[110.31537,-7.47819],[110.31532,-7.47815],[110.31524,-7.47809],[110.3151,-7.47801],[110.31495,-7.47798],[110.3149,-7.478],[110.31486,-7.47801],[110.31481,-7.4781],[110.31479,-7.47822],[110.31476,-7.47837],[110.31473,-7.47851],[110.31468,-7.47857],[110.31461,-7.47857],[110.31459,-7.47858],[110.31442,-7.47854],[110.31431,-7.4785],[110.31412,-7.4784],[110.31396,-7.47829],[110.31383,-7.47821],[110.31369,-7.47815],[110.3135,-7.4781],[110.31336,-7.47813],[110.31322,-7.47828],[110.31321,-7.47839],[110.31321,-7.47849],[110.3132,-7.47853],[110.31318,-7.47867],[110.31314,-7.47887],[110.31308,-7.47898],[110.313,-7.47908],[110.31287,-7.47914],[110.31269,-7.47916],[110.31249,-7.47916],[110.31231,-7.47914],[110.3123,-7.47914],[110.31217,-7.47905],[110.31204,-7.47894],[110.31188,-7.47873],[110.31183,-7.47858],[110.31178,-7.47847],[110.31161,-7.47829],[110.31154,-7.47824],[110.31142,-7.47817],[110.31128,-7.47811],[110.31115,-7.47804],[110.31091,-7.47799],[110.31078,-7.47796],[110.31061,-7.47794],[110.31052,-7.47792],[110.31039,-7.47792],[110.31026,-7.47794],[110.31018,-7.47797],[110.31006,-7.478],[110.30992,-7.47801],[110.30982,-7.47797],[110.30973,-7.4779],[110.30973,-7.47783],[110.30971,-7.47779],[110.30966,-7.47774],[110.30962,-7.47766],[110.30961,-7.47759],[110.30961,-7.47758],[110.30984,-7.47772],[110.30994,-7.47777],[110.31009,-7.47774],[110.31028,-7.47771],[110.31039,-7.47764],[110.31057,-7.47752],[110.31071,-7.47744],[110.31084,-7.4774],[110.31096,-7.47735],[110.31105,-7.47729],[110.31111,-7.47722],[110.31113,-7.47719],[110.31117,-7.47711],[110.31129,-7.47691],[110.31136,-7.47668],[110.31139,-7.47657],[110.31141,-7.47655],[110.31147,-7.47653],[110.31162,-7.47658],[110.31172,-7.47659],[110.31177,-7.47658],[110.31177,-7.47657],[110.31182,-7.47654],[110.31183,-7.4765],[110.31185,-7.47646],[110.31187,-7.47627],[110.31191,-7.4762],[110.31206,-7.476],[110.31217,-7.47594],[110.31224,-7.47589],[110.31235,-7.4758],[110.31248,-7.47562],[110.31251,-7.47547],[110.3125,-7.47535],[110.31247,-7.47523],[110.31243,-7.47515],[110.31241,-7.47512],[110.31239,-7.47498],[110.31241,-7.47489],[110.3125,-7.47471],[110.31254,-7.47465],[110.31263,-7.4746],[110.31269,-7.47458],[110.31279,-7.47457],[110.31285,-7.47459],[110.31296,-7.47467],[110.31302,-7.4747],[110.31315,-7.4748],[110.31325,-7.47488],[110.31333,-7.4749],[110.3134,-7.47491],[110.31347,-7.47491],[110.31359,-7.47489],[110.31373,-7.47479],[110.31399,-7.47457],[110.31424,-7.4743],[110.31428,-7.47421],[110.31442,-7.47383],[110.31446,-7.4737],[110.31448,-7.47362],[110.31454,-7.47358],[110.3146,-7.47356],[110.31475,-7.47356],[110.3148,-7.47361],[110.31486,-7.4737],[110.31496,-7.47386],[110.31499,-7.47392],[110.31505,-7.47398],[110.31509,-7.47401],[110.31523,-7.47402],[110.31528,-7.47397],[110.3153,-7.47394],[110.31533,-7.4739],[110.31537,-7.47383],[110.31542,-7.47377],[110.31552,-7.47372],[110.31567,-7.47365],[110.31587,-7.4736],[110.31602,-7.47359],[110.31617,-7.47359],[110.3164,-7.4736],[110.31651,-7.47358],[110.31658,-7.47354],[110.31666,-7.47341],[110.31667,-7.47332],[110.31672,-7.47318],[110.31669,-7.47293],[110.31672,-7.47266],[110.31674,-7.47259],[110.31674,-7.47258],[110.31677,-7.47252],[110.31687,-7.47247],[110.31705,-7.47247],[110.31714,-7.4725],[110.31721,-7.47254],[110.31725,-7.47259],[110.31737,-7.47271],[110.31741,-7.47273],[110.31749,-7.47276],[110.31757,-7.47277],[110.31766,-7.47278],[110.31776,-7.47276],[110.31792,-7.4727],[110.31803,-7.47267],[110.31808,-7.47266],[110.31813,-7.47264],[110.31824,-7.47258],[110.3183,-7.47246],[110.31829,-7.47237],[110.31827,-7.47231],[110.31822,-7.4721],[110.31821,-7.47203],[110.31821,-7.47194],[110.31826,-7.47182],[110.31831,-7.47179],[110.31836,-7.47175],[110.3186,-7.47167],[110.31869,-7.47163],[110.31878,-7.4716],[110.31888,-7.47152],[110.31892,-7.47146],[110.31894,-7.47135],[110.31897,-7.47119],[110.31898,-7.47113],[110.31902,-7.47097],[110.31906,-7.4709],[110.31911,-7.47081],[110.31916,-7.47073],[110.31923,-7.47066],[110.31928,-7.47062],[110.31941,-7.47056],[110.31956,-7.47052],[110.31968,-7.47046],[110.31979,-7.47041],[110.31991,-7.47034],[110.31995,-7.47029],[110.31999,-7.47022],[110.32001,-7.47014],[110.32002,-7.47003],[110.31999,-7.46993],[110.31999,-7.46992],[110.31997,-7.46985],[110.31997,-7.46975],[110.32002,-7.46962],[110.32016,-7.46948],[110.3202,-7.46945],[110.32021,-7.46945],[110.32035,-7.46935],[110.32047,-7.46928],[110.32067,-7.46923],[110.32079,-7.46919],[110.321,-7.46901],[110.3212,-7.46881],[110.32126,-7.46873],[110.32134,-7.46866],[110.32148,-7.4686],[110.32151,-7.46859],[110.32165,-7.4686],[110.32175,-7.4686],[110.32185,-7.46859],[110.32197,-7.46855],[110.32206,-7.46845],[110.32214,-7.46823],[110.32216,-7.46814],[110.32224,-7.46788],[110.32228,-7.46777],[110.32241,-7.46753],[110.3227,-7.46732],[110.32279,-7.46721],[110.3229,-7.46708],[110.32297,-7.46698],[110.32303,-7.46677],[110.32311,-7.4667],[110.32316,-7.46665],[110.32322,-7.46662],[110.32337,-7.46663],[110.32349,-7.46669],[110.32364,-7.46677],[110.32383,-7.46678],[110.32396,-7.46667],[110.32397,-7.46661],[110.32396,-7.46629],[110.32393,-7.46619],[110.32397,-7.46607],[110.32407,-7.46588],[110.3245,-7.46528],[110.32459,-7.46516],[110.32491,-7.46476],[110.325,-7.46458],[110.32507,-7.46447],[110.32517,-7.46442],[110.32525,-7.46439],[110.32535,-7.46436],[110.32548,-7.46433],[110.32562,-7.46426],[110.32607,-7.46395],[110.32617,-7.46384],[110.32625,-7.46373],[110.32632,-7.46361],[110.32643,-7.46349],[110.32659,-7.46332],[110.32661,-7.46325],[110.32637,-7.46291],[110.32652,-7.46278],[110.32652,-7.46276],[110.32653,-7.46269],[110.32654,-7.4626],[110.32655,-7.46252],[110.32655,-7.46244],[110.32657,-7.46236],[110.32662,-7.4623],[110.32668,-7.46228],[110.32682,-7.46227],[110.32692,-7.46227],[110.32703,-7.46226],[110.32716,-7.46221],[110.32722,-7.46214],[110.32726,-7.46203],[110.32732,-7.46183],[110.32733,-7.46157],[110.32729,-7.46137],[110.32725,-7.46128],[110.32725,-7.4612],[110.32726,-7.46114],[110.32726,-7.46113],[110.32731,-7.46102],[110.32737,-7.46094],[110.3274,-7.46092],[110.32746,-7.46087],[110.32763,-7.46077],[110.32781,-7.4607],[110.32785,-7.46065],[110.32787,-7.46054],[110.32787,-7.46045],[110.3279,-7.46031],[110.32794,-7.46023],[110.32805,-7.46017],[110.32816,-7.46014],[110.32817,-7.46014],[110.32828,-7.46011],[110.32833,-7.46003],[110.32835,-7.45991],[110.32826,-7.45972],[110.32806,-7.45956],[110.32783,-7.45931],[110.32766,-7.45909],[110.32742,-7.45879],[110.3274,-7.45877],[110.32738,-7.45874],[110.32725,-7.45841],[110.32679,-7.45807],[110.32663,-7.45805],[110.32647,-7.45806],[110.32631,-7.45811],[110.32614,-7.45822],[110.32596,-7.45831],[110.3258,-7.45838],[110.32559,-7.45841],[110.3253,-7.45844],[110.32512,-7.45852],[110.32495,-7.4586],[110.32477,-7.45868],[110.32471,-7.45871],[110.32459,-7.45876],[110.32442,-7.45883],[110.32423,-7.45893],[110.32378,-7.45919],[110.32364,-7.4593],[110.32339,-7.45953],[110.32327,-7.4597],[110.32311,-7.4599],[110.32294,-7.46008],[110.32271,-7.46027],[110.3227,-7.46028],[110.32255,-7.46035],[110.32251,-7.46036],[110.32232,-7.46039],[110.32215,-7.46042],[110.32193,-7.46044],[110.32168,-7.46049],[110.3215,-7.46055],[110.32133,-7.46062],[110.32118,-7.4607],[110.32102,-7.46082],[110.32086,-7.461],[110.32076,-7.46112],[110.32058,-7.46127],[110.32048,-7.46134],[110.32035,-7.46143],[110.32024,-7.46151],[110.32011,-7.46156],[110.31997,-7.4616],[110.31994,-7.46161],[110.31984,-7.46163],[110.31973,-7.46164],[110.31957,-7.46163],[110.3193,-7.46158],[110.31929,-7.46158],[110.31903,-7.46147],[110.31896,-7.46146],[110.31883,-7.46145],[110.31868,-7.46143],[110.31851,-7.46144],[110.3183,-7.46149],[110.31805,-7.46159],[110.31801,-7.46161],[110.31777,-7.46175],[110.3176,-7.46183],[110.31742,-7.46192],[110.31726,-7.46199],[110.31702,-7.46203],[110.3167,-7.4621],[110.31652,-7.46212],[110.31643,-7.46212],[110.31622,-7.46211],[110.31592,-7.46208],[110.31572,-7.46205],[110.3156,-7.46201],[110.3155,-7.46193],[110.31542,-7.46185],[110.31539,-7.46181],[110.31523,-7.46171],[110.31509,-7.46166],[110.31507,-7.46165],[110.3149,-7.46164],[110.31484,-7.46163],[110.31435,-7.46165],[110.31431,-7.46164],[110.31389,-7.46157],[110.31373,-7.46155],[110.3135,-7.46158],[110.31329,-7.46167],[110.31314,-7.4618],[110.31297,-7.46188],[110.3127,-7.462],[110.31232,-7.46213],[110.31225,-7.46215],[110.31214,-7.46218],[110.31199,-7.46225],[110.31182,-7.46233],[110.31163,-7.46244],[110.31159,-7.46246],[110.31122,-7.46265],[110.31076,-7.46291],[110.31045,-7.46301],[110.31029,-7.46307],[110.31013,-7.46314],[110.30993,-7.46321],[110.30979,-7.46323],[110.3097,-7.46325],[110.30937,-7.46328],[110.30932,-7.46327],[110.30919,-7.46327],[110.30899,-7.46325],[110.30883,-7.46319],[110.30868,-7.46312],[110.30851,-7.46306],[110.3083,-7.46302],[110.30778,-7.46315],[110.30752,-7.4632],[110.30727,-7.4632],[110.30709,-7.46314],[110.30687,-7.46308],[110.30672,-7.46305],[110.30646,-7.46305],[110.30626,-7.46307],[110.30619,-7.46309],[110.30595,-7.46319],[110.30585,-7.46325],[110.30576,-7.4633],[110.30551,-7.46348],[110.30546,-7.46352],[110.30544,-7.46352],[110.30523,-7.46359],[110.30493,-7.46363],[110.30464,-7.46369],[110.30461,-7.46369],[110.3045,-7.46371],[110.30437,-7.46373],[110.30412,-7.46378],[110.30369,-7.46381],[110.30356,-7.46391],[110.30344,-7.46409],[110.30338,-7.46424],[110.30328,-7.4644],[110.30312,-7.46461],[110.30292,-7.46484],[110.30286,-7.4649],[110.3025,-7.46505],[110.30229,-7.46512],[110.30221,-7.46514],[110.30215,-7.46517],[110.30201,-7.46523],[110.30197,-7.46525],[110.30166,-7.46541],[110.30157,-7.46545],[110.30142,-7.46544],[110.30121,-7.46541],[110.30096,-7.46538],[110.30075,-7.46541],[110.30058,-7.46544],[110.30013,-7.46564],[110.29974,-7.46578],[110.29926,-7.46593],[110.29895,-7.46602],[110.29891,-7.46606],[110.29861,-7.46629],[110.29858,-7.4663],[110.29825,-7.46663],[110.29807,-7.46679],[110.29772,-7.4671],[110.29726,-7.46747],[110.29691,-7.46776],[110.29641,-7.46806],[110.29632,-7.4681],[110.29617,-7.46816],[110.29588,-7.46817],[110.29561,-7.46819],[110.29548,-7.46821],[110.29529,-7.46824],[110.29513,-7.4683],[110.29507,-7.4684],[110.295,-7.46858],[110.29497,-7.46875],[110.29492,-7.46885],[110.29483,-7.46896],[110.29462,-7.4691],[110.29457,-7.46913],[110.29444,-7.46922],[110.29437,-7.46925],[110.29423,-7.46928],[110.29412,-7.46931],[110.29396,-7.46937],[110.29394,-7.46938],[110.29413,-7.46947],[110.29421,-7.46956],[110.29422,-7.46973],[110.29423,-7.46982],[110.29397,-7.47001],[110.29386,-7.4703],[110.29369,-7.47027],[110.29355,-7.47025],[110.29347,-7.47019],[110.29322,-7.47022],[110.29296,-7.47035],[110.29276,-7.47039],[110.29256,-7.47038],[110.29239,-7.47039],[110.29223,-7.4704],[110.29204,-7.47048],[110.29187,-7.47052],[110.29175,-7.47056],[110.29164,-7.47062],[110.2916,-7.47068],[110.29141,-7.47078],[110.29121,-7.47085],[110.29092,-7.47101],[110.29077,-7.47121],[110.29074,-7.47134],[110.29048,-7.47135],[110.29032,-7.47135],[110.29001,-7.47147],[110.28977,-7.47156],[110.2894,-7.47171],[110.28931,-7.47174],[110.28892,-7.47189],[110.28846,-7.47201],[110.28836,-7.47208],[110.28834,-7.47208],[110.2881,-7.47216],[110.28787,-7.47222],[110.2874,-7.47226],[110.28718,-7.4721],[110.28717,-7.4721],[110.28661,-7.47201],[110.28658,-7.472],[110.28616,-7.47199],[110.28597,-7.472],[110.28588,-7.47194],[110.28574,-7.4718],[110.28572,-7.4718],[110.28546,-7.47177],[110.28534,-7.47181],[110.28517,-7.47177],[110.285,-7.4718],[110.28487,-7.4718],[110.28481,-7.47169],[110.28475,-7.47157],[110.28465,-7.4715],[110.28456,-7.47135],[110.28452,-7.47127],[110.28437,-7.47107],[110.28437,-7.47106],[110.28423,-7.47089],[110.28412,-7.47063],[110.28418,-7.47042],[110.28424,-7.47009],[110.2841,-7.46989],[110.28415,-7.46975],[110.28426,-7.46976],[110.28417,-7.46966],[110.2841,-7.46952],[110.28409,-7.46943],[110.28404,-7.46932],[110.28389,-7.46916],[110.28371,-7.46913],[110.2835,-7.46906],[110.28333,-7.46892],[110.28314,-7.46874],[110.283,-7.46859],[110.28283,-7.46844],[110.28261,-7.46834],[110.28234,-7.46836],[110.28221,-7.46834],[110.28214,-7.46825],[110.2822,-7.46805],[110.28228,-7.46788],[110.28209,-7.46775],[110.28186,-7.46763],[110.28169,-7.46797],[110.28159,-7.46836],[110.28147,-7.46887],[110.28148,-7.46914],[110.28145,-7.46923],[110.2815,-7.46939],[110.28133,-7.46966],[110.28125,-7.46984],[110.28123,-7.46994],[110.28105,-7.47023],[110.28078,-7.47061],[110.28077,-7.47062],[110.28064,-7.47079],[110.28054,-7.47075],[110.28039,-7.47083],[110.28024,-7.4709],[110.28016,-7.47099],[110.28009,-7.47113],[110.28011,-7.47121],[110.28023,-7.47132],[110.28014,-7.4715],[110.2801,-7.47156],[110.28009,-7.47157],[110.27998,-7.47175],[110.27995,-7.4718],[110.27981,-7.472],[110.27969,-7.4721],[110.27965,-7.47212],[110.27965,-7.47213],[110.27941,-7.4722],[110.27921,-7.47226],[110.27904,-7.47238],[110.279,-7.47243],[110.27881,-7.47248],[110.27869,-7.47242],[110.27852,-7.4724],[110.27851,-7.4724],[110.27841,-7.47241],[110.2785,-7.47252],[110.27855,-7.47266],[110.27862,-7.47278],[110.27864,-7.47299],[110.27861,-7.47331],[110.27861,-7.47366],[110.27846,-7.47434],[110.27838,-7.47476],[110.27834,-7.47517],[110.2784,-7.47565],[110.27823,-7.47586],[110.27816,-7.47593],[110.27794,-7.47609],[110.27755,-7.47626],[110.2774,-7.47632],[110.27709,-7.47653],[110.27682,-7.47672],[110.27675,-7.47677],[110.27666,-7.47692],[110.27659,-7.477],[110.27641,-7.47708],[110.27615,-7.47711],[110.27601,-7.47716],[110.27583,-7.47712],[110.2757,-7.47706],[110.27563,-7.47702],[110.27547,-7.4771],[110.27534,-7.47719],[110.27508,-7.4772],[110.27499,-7.47716],[110.27486,-7.47711],[110.27473,-7.47703],[110.27454,-7.47694],[110.27436,-7.4769],[110.27422,-7.47695],[110.27407,-7.47713],[110.27402,-7.47723],[110.27399,-7.47728],[110.27369,-7.47775],[110.27356,-7.47788],[110.27342,-7.47795],[110.2733,-7.47802],[110.27299,-7.47802],[110.27286,-7.478],[110.27277,-7.47792],[110.27269,-7.47767],[110.27264,-7.47745],[110.27258,-7.47738],[110.27253,-7.47731],[110.27231,-7.47727],[110.27206,-7.47732],[110.27178,-7.47744],[110.27164,-7.47754],[110.27146,-7.47767],[110.27129,-7.47771],[110.27103,-7.47778],[110.2708,-7.4778],[110.27069,-7.47771],[110.27053,-7.4778],[110.27054,-7.478],[110.27046,-7.47814],[110.27022,-7.47826],[110.27001,-7.47851],[110.26975,-7.47878],[110.26954,-7.47896],[110.26948,-7.47901],[110.26924,-7.47908],[110.26922,-7.47908],[110.26886,-7.4791],[110.26864,-7.47909],[110.26853,-7.47913],[110.26846,-7.47944],[110.26845,-7.4795],[110.26841,-7.4797],[110.26825,-7.4797],[110.26803,-7.47969],[110.26771,-7.47967],[110.2675,-7.47981],[110.26739,-7.48006],[110.26725,-7.48036],[110.26725,-7.48043],[110.26726,-7.48053],[110.26712,-7.48064],[110.26686,-7.48076],[110.2666,-7.48081],[110.2663,-7.48083],[110.26625,-7.48083],[110.26621,-7.48081],[110.26607,-7.48071],[110.26598,-7.48071],[110.26584,-7.48073],[110.26568,-7.4808],[110.26548,-7.48094],[110.26546,-7.48097],[110.26543,-7.481],[110.26535,-7.48105],[110.26508,-7.48113],[110.26478,-7.4816],[110.26476,-7.48162],[110.26443,-7.482],[110.26396,-7.48206],[110.2637,-7.48203],[110.26311,-7.48183],[110.26289,-7.48219],[110.26281,-7.48231],[110.26244,-7.48326],[110.2622,-7.48385],[110.2622,-7.48386],[110.26214,-7.48405],[110.26195,-7.48426],[110.26188,-7.48425],[110.26183,-7.48423],[110.26173,-7.48418],[110.26149,-7.48407],[110.26121,-7.48409],[110.26105,-7.48421],[110.26054,-7.48441],[110.26033,-7.4843],[110.25991,-7.4841],[110.25951,-7.48395],[110.25919,-7.48403],[110.25906,-7.48421],[110.25874,-7.48436],[110.25843,-7.4845],[110.25827,-7.4845],[110.25812,-7.48448],[110.25798,-7.48445],[110.25773,-7.48432],[110.25765,-7.48428],[110.25747,-7.48421],[110.25725,-7.48406],[110.25704,-7.48406],[110.25687,-7.48414],[110.25687,-7.48435],[110.25694,-7.48458],[110.25695,-7.48469],[110.25697,-7.48481],[110.25676,-7.48493],[110.25676,-7.48494],[110.25649,-7.48481],[110.25635,-7.48466],[110.25608,-7.48462],[110.25587,-7.48471],[110.25568,-7.48495],[110.25561,-7.48508],[110.25545,-7.48536],[110.25518,-7.48547],[110.25501,-7.48546],[110.25483,-7.48537],[110.2545,-7.48524],[110.25449,-7.48524],[110.25423,-7.48522],[110.25423,-7.48523],[110.25397,-7.48532],[110.25367,-7.48554],[110.25348,-7.4856],[110.2534,-7.48563],[110.2533,-7.48573],[110.25307,-7.48609],[110.25295,-7.48616],[110.25289,-7.4862],[110.25269,-7.48608],[110.25246,-7.48588],[110.25242,-7.48576],[110.25241,-7.48572],[110.2523,-7.48561],[110.25212,-7.48564],[110.25199,-7.48578],[110.2518,-7.48613],[110.25172,-7.48633],[110.2516,-7.48664],[110.25143,-7.48692],[110.25124,-7.487],[110.25095,-7.48691],[110.25064,-7.48682],[110.25063,-7.48682],[110.25049,-7.48692],[110.25035,-7.48706],[110.25016,-7.48708],[110.25009,-7.48709],[110.24983,-7.48709],[110.24956,-7.4871],[110.24945,-7.4871],[110.24928,-7.48707],[110.249,-7.48698],[110.24891,-7.48695],[110.24859,-7.48713],[110.24839,-7.48739],[110.24811,-7.48758],[110.24803,-7.48751],[110.2479,-7.48725],[110.24787,-7.4872],[110.24776,-7.48701],[110.24757,-7.48682],[110.24738,-7.48687],[110.24725,-7.48716],[110.24707,-7.48744],[110.24661,-7.48705],[110.24626,-7.4866],[110.24552,-7.48583],[110.2451,-7.48537],[110.24515,-7.48519],[110.24504,-7.48508],[110.24492,-7.48509],[110.24462,-7.48516],[110.2439,-7.48542],[110.24323,-7.48554],[110.24269,-7.48534],[110.24246,-7.48533],[110.24245,-7.48533],[110.24236,-7.48527],[110.24213,-7.48514],[110.24206,-7.48518],[110.24196,-7.48535],[110.24175,-7.48575],[110.24142,-7.48612],[110.24141,-7.48614],[110.24109,-7.48641],[110.24105,-7.48641],[110.24071,-7.48644],[110.2406,-7.48658],[110.24043,-7.48671],[110.24035,-7.48678],[110.24002,-7.48669],[110.23978,-7.48667],[110.23967,-7.48665],[110.23959,-7.48663],[110.23958,-7.48663],[110.23955,-7.48656],[110.23942,-7.48659],[110.2394,-7.48659],[110.23873,-7.48657],[110.23862,-7.48662],[110.23815,-7.48682],[110.23805,-7.48682],[110.23782,-7.48684],[110.23772,-7.48697],[110.2376,-7.48703],[110.2374,-7.48718],[110.23735,-7.48732],[110.23736,-7.48742],[110.23738,-7.48768],[110.23733,-7.48775],[110.23725,-7.48789],[110.23724,-7.48789],[110.23724,-7.48795],[110.23723,-7.48804],[110.23717,-7.48816],[110.23714,-7.48819],[110.23713,-7.48822],[110.23701,-7.48837],[110.23676,-7.48856],[110.23667,-7.4886],[110.23617,-7.48887],[110.23576,-7.48915],[110.23566,-7.48926],[110.23563,-7.48935],[110.23562,-7.48947],[110.23573,-7.4897],[110.23574,-7.48971],[110.236,-7.4901],[110.23634,-7.49053],[110.23649,-7.49075],[110.23657,-7.4909],[110.2366,-7.49101],[110.23661,-7.4911],[110.23659,-7.49128],[110.23647,-7.49155],[110.23633,-7.49168],[110.23624,-7.49178],[110.23619,-7.49183],[110.23612,-7.49193],[110.23604,-7.49206],[110.236,-7.49217],[110.23599,-7.49228],[110.236,-7.49234],[110.236,-7.49235],[110.23601,-7.49238],[110.23602,-7.49243],[110.23603,-7.49247],[110.23608,-7.49255],[110.23615,-7.49257],[110.23622,-7.49261],[110.2363,-7.49265],[110.23664,-7.49276],[110.23692,-7.49288],[110.23698,-7.49291],[110.23722,-7.49304],[110.23733,-7.49311],[110.2374,-7.49318],[110.23745,-7.49326],[110.23745,-7.49327],[110.23748,-7.49335],[110.23748,-7.49345],[110.23746,-7.49355],[110.23745,-7.49357],[110.23742,-7.49365],[110.23741,-7.49366],[110.23734,-7.49375],[110.23689,-7.4942],[110.23676,-7.49435],[110.23675,-7.49436],[110.23669,-7.49445],[110.23664,-7.49454],[110.23663,-7.49462],[110.23663,-7.49463],[110.23662,-7.4947],[110.23665,-7.49479],[110.23672,-7.49491],[110.23696,-7.49535],[110.23696,-7.49536],[110.23703,-7.49548],[110.23705,-7.4956],[110.23705,-7.49572],[110.23701,-7.49581],[110.23699,-7.49586],[110.23697,-7.49589],[110.2369,-7.49599],[110.23684,-7.49603],[110.23673,-7.49608],[110.23654,-7.49616],[110.23653,-7.49616],[110.23652,-7.49617],[110.23646,-7.49618],[110.23645,-7.49618],[110.23644,-7.49619],[110.23642,-7.49619],[110.23641,-7.4962],[110.23639,-7.4962],[110.23621,-7.49625],[110.23574,-7.49625],[110.23562,-7.49628],[110.23548,-7.49632],[110.23534,-7.49638],[110.23522,-7.49646],[110.23513,-7.49657],[110.23504,-7.49669],[110.23496,-7.4968],[110.23491,-7.49688],[110.23487,-7.49695],[110.23477,-7.49706],[110.23467,-7.49715],[110.23456,-7.49726],[110.23442,-7.49734],[110.23421,-7.49748],[110.23404,-7.49764],[110.23398,-7.49769],[110.2339,-7.49779],[110.2338,-7.4979],[110.23373,-7.49797],[110.2337,-7.49805],[110.23367,-7.49822],[110.23365,-7.49838],[110.23364,-7.49847],[110.23363,-7.49853],[110.23362,-7.49861],[110.2336,-7.49895],[110.23359,-7.49903],[110.23359,-7.49909],[110.23358,-7.4992],[110.23358,-7.49933]]]}}]}