{"type":"FeatureCollection","features":[{"type":"Feature","properties":{"KECAMATAN":"Dukun"},"geometry":{"type":"Polygon","coordinates":[[[110.29749,-7.56625],[110.29751,-7.5663],[110.29754,-7.56636],[110.29756,-7.56637],[110.29759,-7.56639],[110.29764,-7.56642],[110.29767,-7.56645],[110.29772,-7.56648],[110.29775,-7.56655],[110.29777,-7.56661],[110.29783,-7.56667],[110.29786,-7.56671],[110.2979,-7.56675],[110.29797,-7.56681],[110.29801,-7.56684],[110.29805,-7.56684],[110.29812,-7.5668],[110.29816,-7.56677],[110.29819,-7.56675],[110.29828,-7.56675],[110.29834,-7.56676],[110.29848,-7.56676],[110.29852,-7.56677],[110.29856,-7.56679],[110.29859,-7.56682],[110.29861,-7.56685],[110.29864,-7.56688],[110.29864,-7.56697],[110.29872,-7.56705],[110.29874,-7.56708],[110.29875,-7.56712],[110.29875,-7.56718],[110.29874,-7.5672],[110.2987,-7.56726],[110.29866,-7.56736],[110.29861,-7.56745],[110.29856,-7.56751],[110.29853,-7.56757],[110.29853,-7.5676],[110.29854,-7.56762],[110.29858,-7.56766],[110.2986,-7.56767],[110.29861,-7.56769],[110.2986,-7.56772],[110.2986,-7.56778],[110.29864,-7.56784],[110.29865,-7.56784],[110.29867,-7.56786],[110.29867,-7.56797],[110.29869,-7.56803],[110.29871,-7.56807],[110.29873,-7.56813],[110.29878,-7.56816],[110.29888,-7.56816],[110.2989,-7.56815],[110.29896,-7.56813],[110.299,-7.56813],[110.29913,-7.56811],[110.29921,-7.5681],[110.29924,-7.5681],[110.2993,-7.56811],[110.29934,-7.56811],[110.29949,-7.56812],[110.29954,-7.56811],[110.29962,-7.56804],[110.29972,-7.56794],[110.29981,-7.56791],[110.29992,-7.56791],[110.30001,-7.56795],[110.30007,-7.56798],[110.30011,-7.56802],[110.30016,-7.56812],[110.30016,-7.56828],[110.30012,-7.56841],[110.30006,-7.56852],[110.30002,-7.56862],[110.3,-7.56871],[110.30001,-7.56876],[110.30001,-7.56879],[110.30002,-7.56897],[110.30002,-7.5691],[110.29997,-7.56915],[110.29983,-7.56921],[110.29979,-7.56924],[110.29975,-7.5693],[110.29975,-7.56934],[110.29976,-7.56939],[110.29978,-7.56945],[110.29982,-7.56954],[110.29982,-7.56957],[110.29981,-7.56961],[110.29977,-7.56973],[110.29973,-7.56984],[110.29971,-7.56995],[110.2997,-7.57],[110.29967,-7.57006],[110.29964,-7.5701],[110.29961,-7.57015],[110.29961,-7.57019],[110.29962,-7.57024],[110.29966,-7.5703],[110.29972,-7.5704],[110.29974,-7.57043],[110.29977,-7.57045],[110.29983,-7.57051],[110.29985,-7.57054],[110.29988,-7.57058],[110.29991,-7.57063],[110.29996,-7.57066],[110.3,-7.57067],[110.29998,-7.57069],[110.29996,-7.57072],[110.2998,-7.5709],[110.29979,-7.57091],[110.29976,-7.57095],[110.29958,-7.57114],[110.2995,-7.57122],[110.29904,-7.57172],[110.29899,-7.57178],[110.29894,-7.57183],[110.29889,-7.57187],[110.29884,-7.57193],[110.29875,-7.57202],[110.2987,-7.57208],[110.29863,-7.57215],[110.29862,-7.57215],[110.29861,-7.57216],[110.29869,-7.57237],[110.2987,-7.57239],[110.29871,-7.5724],[110.29875,-7.57253],[110.29878,-7.57265],[110.29884,-7.57279],[110.29888,-7.57291],[110.29889,-7.57292],[110.29892,-7.57292],[110.29893,-7.57293],[110.29897,-7.57293],[110.29899,-7.57295],[110.299,-7.57297],[110.299,-7.57303],[110.29899,-7.57305],[110.29899,-7.57308],[110.299,-7.57311],[110.299,-7.57313],[110.29901,-7.57317],[110.29903,-7.5732],[110.29905,-7.57324],[110.29907,-7.57333],[110.29908,-7.57337],[110.29911,-7.57343],[110.29914,-7.57347],[110.29917,-7.57352],[110.29917,-7.5736],[110.29919,-7.57367],[110.2992,-7.57369],[110.29923,-7.57376],[110.29935,-7.57383],[110.29946,-7.57389],[110.2996,-7.5738],[110.29967,-7.57374],[110.29972,-7.5737],[110.29982,-7.5736],[110.2999,-7.57353],[110.30005,-7.57334],[110.30013,-7.57325],[110.30018,-7.57316],[110.3003,-7.57302],[110.30038,-7.573],[110.30045,-7.573],[110.3005,-7.57301],[110.30053,-7.57303],[110.30063,-7.57307],[110.30069,-7.57309],[110.30072,-7.57312],[110.30077,-7.57318],[110.3008,-7.57325],[110.30083,-7.57329],[110.30086,-7.57336],[110.30114,-7.57363],[110.30107,-7.57381],[110.30153,-7.57415],[110.3015,-7.5742],[110.30139,-7.57438],[110.30135,-7.57444],[110.30133,-7.57449],[110.3013,-7.57455],[110.30126,-7.57465],[110.30121,-7.57471],[110.30114,-7.57483],[110.30108,-7.57493],[110.30104,-7.575],[110.30105,-7.57509],[110.30105,-7.57533],[110.30106,-7.5754],[110.30118,-7.57559],[110.30127,-7.57567],[110.30138,-7.57577],[110.30155,-7.57591],[110.30175,-7.57604],[110.30196,-7.57615],[110.30201,-7.57618],[110.30202,-7.57618],[110.30207,-7.5762],[110.30206,-7.57629],[110.30205,-7.57636],[110.30207,-7.57642],[110.3021,-7.57647],[110.30224,-7.57657],[110.30227,-7.57662],[110.30228,-7.57663],[110.30232,-7.57662],[110.30234,-7.57661],[110.30236,-7.57658],[110.3024,-7.57653],[110.30244,-7.57653],[110.30249,-7.57655],[110.30251,-7.57657],[110.30259,-7.57662],[110.30263,-7.57662],[110.30268,-7.57659],[110.30272,-7.5766],[110.30273,-7.5766],[110.30275,-7.57661],[110.30278,-7.57662],[110.30281,-7.57662],[110.30283,-7.57661],[110.30286,-7.57661],[110.3029,-7.57663],[110.30298,-7.57671],[110.30314,-7.577],[110.30334,-7.57741],[110.30338,-7.57747],[110.30357,-7.57778],[110.30361,-7.57789],[110.30369,-7.57797],[110.30377,-7.57806],[110.30383,-7.57814],[110.30389,-7.57823],[110.30394,-7.57836],[110.304,-7.57855],[110.30404,-7.57863],[110.30407,-7.57873],[110.30417,-7.57891],[110.3042,-7.57892],[110.30422,-7.57891],[110.30425,-7.57889],[110.30427,-7.57889],[110.30435,-7.57895],[110.30437,-7.57901],[110.30436,-7.57907],[110.30429,-7.57921],[110.30429,-7.57925],[110.30435,-7.57926],[110.30446,-7.57924],[110.30453,-7.57921],[110.30461,-7.57916],[110.30472,-7.57904],[110.3048,-7.57903],[110.30486,-7.57901],[110.30491,-7.57906],[110.30495,-7.57909],[110.30498,-7.57913],[110.30506,-7.57915],[110.30532,-7.57915],[110.30539,-7.57911],[110.30543,-7.57907],[110.30549,-7.57904],[110.30553,-7.57903],[110.3056,-7.57901],[110.30569,-7.57895],[110.30585,-7.57895],[110.30591,-7.57893],[110.30603,-7.57892],[110.30612,-7.57892],[110.3062,-7.5789],[110.30629,-7.57889],[110.30633,-7.57887],[110.30646,-7.57887],[110.3065,-7.57885],[110.3066,-7.57882],[110.30668,-7.57889],[110.30671,-7.57889],[110.30672,-7.57878],[110.30669,-7.5787],[110.30666,-7.57861],[110.30669,-7.57852],[110.30669,-7.57842],[110.30664,-7.57822],[110.30648,-7.57807],[110.30661,-7.578],[110.30664,-7.57797],[110.30676,-7.5778],[110.3073,-7.57848],[110.30723,-7.57896],[110.30738,-7.57897],[110.30744,-7.57909],[110.30751,-7.57912],[110.30765,-7.57906],[110.30785,-7.57899],[110.30803,-7.57894],[110.30817,-7.57888],[110.30828,-7.57884],[110.30825,-7.57859],[110.30825,-7.57857],[110.3083,-7.57825],[110.30835,-7.57814],[110.30842,-7.57802],[110.30844,-7.57798],[110.30854,-7.57794],[110.30863,-7.57792],[110.30873,-7.57788],[110.30886,-7.57785],[110.30901,-7.57782],[110.30931,-7.57772],[110.30935,-7.5777],[110.30941,-7.57766],[110.30949,-7.57758],[110.30958,-7.57748],[110.30964,-7.57741],[110.30968,-7.57731],[110.30972,-7.57705],[110.30972,-7.57698],[110.30973,-7.57695],[110.30974,-7.57686],[110.30976,-7.57676],[110.30979,-7.57669],[110.31004,-7.5763],[110.31019,-7.57596],[110.31021,-7.57591],[110.31027,-7.57583],[110.31032,-7.57578],[110.31048,-7.57559],[110.31054,-7.57553],[110.31056,-7.57552],[110.31068,-7.57539],[110.31075,-7.57534],[110.31081,-7.57528],[110.31085,-7.57525],[110.31092,-7.57522],[110.31098,-7.5752],[110.31108,-7.57516],[110.31116,-7.57516],[110.31128,-7.57514],[110.31131,-7.57513],[110.31159,-7.57509],[110.31173,-7.57501],[110.31214,-7.57461],[110.3122,-7.57456],[110.31239,-7.57441],[110.31246,-7.57437],[110.31272,-7.57422],[110.31308,-7.574],[110.31325,-7.57386],[110.31342,-7.57362],[110.31364,-7.57344],[110.31378,-7.57329],[110.31381,-7.57317],[110.31392,-7.57303],[110.31415,-7.57288],[110.31438,-7.57276],[110.31454,-7.57261],[110.31465,-7.57244],[110.3149,-7.57213],[110.31503,-7.57191],[110.3153,-7.57173],[110.31558,-7.57157],[110.31568,-7.57149],[110.3157,-7.57144],[110.31577,-7.57132],[110.31587,-7.57118],[110.31602,-7.57107],[110.31632,-7.57101],[110.31675,-7.57098],[110.3168,-7.57097],[110.31692,-7.57094],[110.31724,-7.57094],[110.31733,-7.57093],[110.31745,-7.57093],[110.31765,-7.57087],[110.31793,-7.5707],[110.31805,-7.57051],[110.31817,-7.57031],[110.31839,-7.56995],[110.31856,-7.56978],[110.3187,-7.56963],[110.31891,-7.56958],[110.31922,-7.56973],[110.31937,-7.56989],[110.31951,-7.56998],[110.31972,-7.57001],[110.31989,-7.57],[110.32011,-7.56998],[110.32044,-7.56983],[110.32067,-7.56966],[110.3209,-7.56952],[110.32119,-7.56939],[110.3214,-7.56935],[110.32141,-7.56934],[110.32163,-7.56935],[110.32198,-7.56935],[110.32209,-7.56929],[110.3222,-7.56912],[110.32228,-7.56891],[110.32239,-7.56875],[110.32244,-7.56863],[110.32251,-7.56856],[110.32262,-7.56849],[110.3228,-7.56848],[110.32304,-7.56847],[110.32311,-7.56846],[110.32331,-7.56844],[110.32356,-7.56834],[110.32375,-7.56827],[110.32396,-7.56808],[110.32409,-7.56786],[110.32431,-7.56742],[110.32436,-7.56738],[110.3244,-7.56734],[110.3245,-7.56728],[110.32462,-7.56723],[110.32475,-7.56719],[110.32492,-7.56713],[110.32505,-7.56706],[110.32528,-7.56682],[110.32535,-7.56676],[110.32544,-7.56668],[110.32549,-7.56657],[110.32556,-7.56642],[110.32557,-7.56638],[110.32564,-7.56626],[110.32572,-7.5662],[110.32585,-7.56615],[110.32611,-7.56615],[110.32616,-7.56616],[110.32628,-7.56618],[110.32648,-7.56621],[110.3266,-7.56622],[110.32685,-7.56625],[110.32694,-7.56628],[110.32703,-7.56634],[110.32716,-7.56638],[110.32726,-7.56639],[110.3274,-7.56637],[110.32751,-7.56632],[110.32765,-7.56621],[110.3278,-7.56605],[110.32787,-7.56595],[110.32797,-7.56581],[110.32808,-7.56567],[110.32822,-7.56555],[110.32825,-7.56553],[110.32833,-7.56544],[110.32845,-7.56537],[110.32858,-7.56534],[110.32868,-7.56533],[110.32874,-7.5653],[110.32887,-7.56525],[110.32897,-7.56528],[110.32904,-7.56532],[110.3291,-7.56536],[110.32917,-7.56538],[110.32925,-7.56538],[110.32934,-7.5654],[110.3294,-7.56541],[110.32943,-7.56543],[110.32948,-7.56548],[110.32954,-7.5655],[110.32962,-7.5655],[110.32967,-7.56549],[110.32978,-7.5654],[110.32985,-7.56535],[110.32998,-7.56529],[110.33006,-7.56526],[110.33014,-7.56526],[110.33022,-7.56527],[110.33039,-7.56533],[110.33049,-7.56538],[110.33059,-7.5654],[110.33067,-7.56537],[110.33077,-7.56532],[110.33084,-7.56527],[110.33095,-7.56518],[110.33105,-7.5651],[110.33123,-7.56498],[110.33133,-7.56494],[110.33146,-7.5649],[110.33159,-7.56488],[110.33171,-7.56488],[110.33182,-7.5649],[110.33197,-7.56494],[110.33209,-7.56499],[110.33222,-7.56501],[110.33237,-7.56506],[110.33239,-7.56508],[110.33242,-7.5651],[110.33248,-7.56515],[110.33254,-7.56516],[110.33272,-7.56513],[110.33275,-7.56511],[110.33278,-7.5651],[110.33284,-7.56505],[110.33288,-7.56502],[110.33298,-7.56498],[110.33307,-7.56499],[110.33317,-7.56504],[110.33323,-7.56513],[110.33327,-7.56517],[110.33337,-7.56522],[110.33346,-7.56526],[110.33356,-7.56531],[110.33363,-7.56535],[110.33369,-7.56537],[110.33378,-7.56536],[110.33394,-7.56535],[110.33409,-7.56533],[110.33418,-7.56532],[110.33421,-7.56532],[110.33434,-7.5653],[110.33444,-7.56527],[110.33445,-7.56526],[110.33455,-7.56525],[110.33471,-7.56522],[110.33482,-7.56525],[110.33485,-7.5653],[110.33491,-7.5655],[110.33492,-7.56555],[110.33494,-7.56566],[110.33497,-7.56588],[110.33499,-7.56592],[110.33509,-7.56611],[110.33517,-7.56622],[110.33523,-7.56631],[110.33535,-7.56639],[110.33543,-7.56643],[110.33574,-7.56651],[110.33607,-7.56662],[110.33609,-7.56663],[110.33634,-7.5667],[110.3365,-7.56675],[110.33663,-7.5668],[110.33677,-7.56688],[110.33692,-7.56692],[110.33705,-7.56692],[110.33715,-7.56689],[110.33725,-7.56682],[110.33732,-7.56673],[110.33735,-7.56668],[110.33738,-7.56665],[110.3374,-7.56654],[110.33747,-7.56646],[110.33763,-7.56635],[110.33785,-7.56623],[110.33804,-7.56616],[110.33823,-7.56607],[110.33851,-7.566],[110.33861,-7.56597],[110.33866,-7.56593],[110.33869,-7.56591],[110.33877,-7.56583],[110.33883,-7.56581],[110.33893,-7.56581],[110.33902,-7.56584],[110.33919,-7.56589],[110.33929,-7.5659],[110.33941,-7.56587],[110.3395,-7.56582],[110.33965,-7.56568],[110.33971,-7.5656],[110.33973,-7.56557],[110.33983,-7.56548],[110.33992,-7.56544],[110.34004,-7.56541],[110.34017,-7.56539],[110.3403,-7.56538],[110.34034,-7.56538],[110.34048,-7.56536],[110.3406,-7.56534],[110.34075,-7.56529],[110.34092,-7.56524],[110.34104,-7.56525],[110.34113,-7.56528],[110.34135,-7.56539],[110.3414,-7.56541],[110.34149,-7.56546],[110.34162,-7.56546],[110.34171,-7.56543],[110.34184,-7.56539],[110.34185,-7.56539],[110.34192,-7.56532],[110.34203,-7.56523],[110.3421,-7.56515],[110.34217,-7.56513],[110.34226,-7.56508],[110.34241,-7.56499],[110.34257,-7.56491],[110.34285,-7.56481],[110.343,-7.56475],[110.34312,-7.56474],[110.34326,-7.56476],[110.34352,-7.56485],[110.34364,-7.56488],[110.34371,-7.5649],[110.34378,-7.56487],[110.3438,-7.56486],[110.34393,-7.56479],[110.34402,-7.56472],[110.34411,-7.56463],[110.34417,-7.56461],[110.34427,-7.56457],[110.34436,-7.56454],[110.34446,-7.5645],[110.34471,-7.56442],[110.34492,-7.5644],[110.34513,-7.56445],[110.34524,-7.5645],[110.34528,-7.56453],[110.34533,-7.56461],[110.34541,-7.56468],[110.34547,-7.56472],[110.34554,-7.56472],[110.34564,-7.56471],[110.34569,-7.56468],[110.34572,-7.56466],[110.34579,-7.56462],[110.34584,-7.56458],[110.34592,-7.56458],[110.34604,-7.5646],[110.34614,-7.56461],[110.34622,-7.56463],[110.34631,-7.56468],[110.34639,-7.56476],[110.3465,-7.56478],[110.34665,-7.56481],[110.34677,-7.56485],[110.34693,-7.56487],[110.34699,-7.5649],[110.34703,-7.56497],[110.3471,-7.56502],[110.34716,-7.56504],[110.34722,-7.56507],[110.34738,-7.56512],[110.34757,-7.56515],[110.34774,-7.56518],[110.34784,-7.56518],[110.34795,-7.56517],[110.34806,-7.56513],[110.34823,-7.5651],[110.34848,-7.56502],[110.34851,-7.565],[110.34859,-7.56496],[110.3487,-7.5649],[110.34878,-7.56487],[110.34887,-7.56482],[110.34897,-7.56482],[110.34907,-7.56483],[110.34921,-7.56483],[110.34941,-7.5648],[110.34949,-7.56478],[110.34956,-7.56475],[110.34975,-7.56473],[110.3499,-7.56475],[110.35,-7.56479],[110.35007,-7.56482],[110.35014,-7.56486],[110.35023,-7.56485],[110.35035,-7.56481],[110.35037,-7.56475],[110.35058,-7.56475],[110.35076,-7.56474],[110.35095,-7.5647],[110.35124,-7.5647],[110.35131,-7.56471],[110.35141,-7.56478],[110.35146,-7.56479],[110.35165,-7.56479],[110.35176,-7.5648],[110.35185,-7.56483],[110.35194,-7.56496],[110.352,-7.56502],[110.35207,-7.56505],[110.35212,-7.56505],[110.35217,-7.56506],[110.35229,-7.56509],[110.35243,-7.56511],[110.35256,-7.56517],[110.35267,-7.56528],[110.35275,-7.56533],[110.35291,-7.5654],[110.35311,-7.56551],[110.35315,-7.56553],[110.35326,-7.5656],[110.35346,-7.56568],[110.35361,-7.56572],[110.35373,-7.56574],[110.35386,-7.5656],[110.35395,-7.56545],[110.35404,-7.56538],[110.35418,-7.56529],[110.35425,-7.56524],[110.35431,-7.56516],[110.35436,-7.56511],[110.35441,-7.56509],[110.35446,-7.56509],[110.35453,-7.56511],[110.35465,-7.56514],[110.3549,-7.56511],[110.35504,-7.56509],[110.35514,-7.56508],[110.35527,-7.56507],[110.35541,-7.56509],[110.35548,-7.56511],[110.35557,-7.56513],[110.35565,-7.56511],[110.35574,-7.56507],[110.35587,-7.56497],[110.35596,-7.56486],[110.35604,-7.56476],[110.35619,-7.56467],[110.35632,-7.56462],[110.35642,-7.5646],[110.35647,-7.5646],[110.35653,-7.56463],[110.35657,-7.56466],[110.35664,-7.56467],[110.3567,-7.56467],[110.35676,-7.56463],[110.35682,-7.56457],[110.35688,-7.56452],[110.35696,-7.56449],[110.35703,-7.56449],[110.35709,-7.56448],[110.35713,-7.56447],[110.35719,-7.56447],[110.35723,-7.56448],[110.35728,-7.5645],[110.35731,-7.56451],[110.35735,-7.56452],[110.35741,-7.56453],[110.35744,-7.56454],[110.35748,-7.56457],[110.35754,-7.56459],[110.35761,-7.56461],[110.35769,-7.56462],[110.35775,-7.56463],[110.35777,-7.56463],[110.35785,-7.56464],[110.35793,-7.56464],[110.358,-7.56463],[110.35809,-7.56461],[110.35811,-7.56461],[110.35817,-7.56458],[110.35818,-7.56456],[110.35819,-7.56455],[110.35819,-7.56454],[110.35821,-7.56453],[110.35824,-7.56452],[110.35829,-7.56451],[110.35832,-7.56451],[110.35836,-7.56454],[110.35838,-7.56459],[110.35844,-7.56467],[110.35846,-7.56471],[110.35847,-7.56471],[110.35848,-7.56473],[110.35854,-7.56476],[110.35858,-7.56475],[110.35859,-7.56475],[110.35875,-7.56471],[110.3588,-7.5647],[110.35884,-7.56469],[110.35888,-7.56467],[110.35891,-7.56467],[110.35893,-7.56468],[110.35895,-7.56467],[110.35904,-7.56458],[110.35909,-7.56454],[110.35915,-7.56452],[110.35919,-7.56452],[110.35923,-7.56453],[110.35926,-7.56452],[110.35934,-7.5645],[110.35937,-7.56449],[110.35942,-7.56448],[110.35946,-7.56448],[110.35948,-7.56449],[110.35949,-7.5645],[110.35951,-7.56449],[110.35954,-7.56449],[110.35956,-7.5645],[110.35958,-7.56452],[110.35972,-7.56459],[110.35981,-7.56462],[110.35989,-7.5646],[110.35993,-7.5646],[110.35995,-7.56462],[110.35996,-7.56464],[110.35997,-7.56467],[110.35998,-7.56469],[110.36,-7.5647],[110.36001,-7.5647],[110.36004,-7.56472],[110.36006,-7.56473],[110.36016,-7.56473],[110.36018,-7.56474],[110.36021,-7.56475],[110.36024,-7.56477],[110.36028,-7.56478],[110.36032,-7.5648],[110.36036,-7.56481],[110.36046,-7.56481],[110.3605,-7.56483],[110.36055,-7.56485],[110.36057,-7.56486],[110.36069,-7.56489],[110.3607,-7.5649],[110.36073,-7.5649],[110.36076,-7.56492],[110.36082,-7.56493],[110.36088,-7.56495],[110.36092,-7.56496],[110.36099,-7.56496],[110.36099,-7.56495],[110.36111,-7.56495],[110.36114,-7.56496],[110.36118,-7.56497],[110.36119,-7.56498],[110.36123,-7.56499],[110.36126,-7.56502],[110.36128,-7.56503],[110.36129,-7.56504],[110.36132,-7.56503],[110.36134,-7.56502],[110.36135,-7.56501],[110.36136,-7.56499],[110.36139,-7.56497],[110.36141,-7.56491],[110.36141,-7.56489],[110.36143,-7.56487],[110.36146,-7.56487],[110.3615,-7.56485],[110.36158,-7.56483],[110.36158,-7.56482],[110.36162,-7.5648],[110.36167,-7.56476],[110.36169,-7.56473],[110.36175,-7.5647],[110.36183,-7.56467],[110.36184,-7.56466],[110.36192,-7.56463],[110.36199,-7.5646],[110.36203,-7.56459],[110.36205,-7.56459],[110.36213,-7.56458],[110.36233,-7.56458],[110.3624,-7.5646],[110.36249,-7.56463],[110.36256,-7.56466],[110.36257,-7.56467],[110.36262,-7.56468],[110.36265,-7.56469],[110.36273,-7.56475],[110.36279,-7.56481],[110.36283,-7.56489],[110.36287,-7.56498],[110.3629,-7.56501],[110.36294,-7.56503],[110.36301,-7.56503],[110.36308,-7.56501],[110.3632,-7.56501],[110.36323,-7.565],[110.36329,-7.56495],[110.36337,-7.56491],[110.36347,-7.56488],[110.36357,-7.56484],[110.36361,-7.56482],[110.36366,-7.56481],[110.3637,-7.56481],[110.36376,-7.56487],[110.36379,-7.56489],[110.36383,-7.56492],[110.36385,-7.56493],[110.36385,-7.56494],[110.36392,-7.56495],[110.36397,-7.56494],[110.36398,-7.56493],[110.36398,-7.56491],[110.364,-7.5649],[110.36404,-7.56492],[110.36405,-7.56493],[110.36408,-7.56493],[110.36411,-7.56492],[110.36415,-7.56492],[110.36419,-7.56488],[110.36422,-7.56486],[110.36425,-7.56485],[110.36429,-7.56485],[110.36437,-7.56487],[110.36441,-7.56489],[110.36448,-7.56489],[110.3645,-7.56488],[110.36452,-7.56486],[110.36456,-7.56483],[110.36458,-7.56481],[110.36462,-7.56476],[110.36469,-7.56469],[110.3647,-7.56469],[110.36474,-7.56464],[110.36478,-7.56461],[110.3648,-7.56459],[110.36484,-7.56458],[110.36488,-7.56458],[110.36492,-7.56459],[110.36493,-7.56459],[110.36496,-7.56461],[110.36496,-7.56463],[110.36498,-7.56465],[110.36499,-7.56467],[110.36501,-7.56468],[110.36504,-7.56468],[110.36507,-7.56469],[110.3651,-7.56469],[110.36516,-7.56471],[110.3652,-7.56471],[110.36524,-7.56472],[110.36532,-7.5647],[110.36537,-7.56469],[110.36542,-7.5647],[110.36546,-7.56471],[110.36548,-7.56473],[110.3655,-7.56474],[110.3656,-7.56482],[110.36569,-7.56491],[110.36573,-7.56494],[110.36575,-7.56495],[110.36578,-7.56496],[110.36586,-7.565],[110.3659,-7.565],[110.36595,-7.56501],[110.366,-7.56504],[110.36603,-7.56507],[110.36603,-7.56508],[110.36607,-7.56512],[110.36609,-7.56513],[110.3661,-7.56513],[110.36616,-7.56515],[110.3662,-7.56516],[110.36621,-7.56516],[110.36625,-7.56517],[110.36625,-7.56518],[110.36628,-7.56519],[110.36636,-7.56519],[110.3664,-7.56518],[110.36646,-7.5652],[110.36655,-7.5652],[110.36659,-7.56518],[110.36669,-7.56514],[110.36675,-7.56511],[110.36685,-7.56505],[110.36687,-7.56504],[110.36687,-7.56501],[110.36686,-7.56499],[110.36687,-7.56493],[110.36689,-7.56488],[110.36693,-7.56483],[110.36697,-7.56479],[110.367,-7.56475],[110.36703,-7.56472],[110.36704,-7.56469],[110.36709,-7.56464],[110.36712,-7.56459],[110.3672,-7.56455],[110.36728,-7.56455],[110.36731,-7.56454],[110.36733,-7.56454],[110.36739,-7.56453],[110.36744,-7.56451],[110.36747,-7.5645],[110.36748,-7.5645],[110.36751,-7.56452],[110.36753,-7.56454],[110.36763,-7.56454],[110.36767,-7.56452],[110.3677,-7.56451],[110.36771,-7.56451],[110.36772,-7.5645],[110.36775,-7.5645],[110.36778,-7.56451],[110.36786,-7.56455],[110.36789,-7.56457],[110.36795,-7.56459],[110.36797,-7.56461],[110.36798,-7.56463],[110.36802,-7.56467],[110.36805,-7.56468],[110.36807,-7.5647],[110.36813,-7.5647],[110.36814,-7.56468],[110.36814,-7.56466],[110.36816,-7.56465],[110.36818,-7.56465],[110.3682,-7.56466],[110.36823,-7.56472],[110.36825,-7.56474],[110.36826,-7.56474],[110.36831,-7.56475],[110.36834,-7.56475],[110.36839,-7.56474],[110.36843,-7.56472],[110.36847,-7.56472],[110.3685,-7.5647],[110.36855,-7.56469],[110.36859,-7.56468],[110.36864,-7.56469],[110.36869,-7.56471],[110.36879,-7.56476],[110.36883,-7.56479],[110.36886,-7.56483],[110.36889,-7.56486],[110.36891,-7.56489],[110.36892,-7.56492],[110.36894,-7.56494],[110.36896,-7.56495],[110.36899,-7.56497],[110.36901,-7.56499],[110.36902,-7.56501],[110.36908,-7.56505],[110.36913,-7.56509],[110.36915,-7.56511],[110.36917,-7.56514],[110.36921,-7.56516],[110.36923,-7.56516],[110.36927,-7.56514],[110.3693,-7.56514],[110.36933,-7.56515],[110.36935,-7.56516],[110.36938,-7.56517],[110.3694,-7.5652],[110.36943,-7.56522],[110.36944,-7.56523],[110.36948,-7.56524],[110.36951,-7.56525],[110.36953,-7.56525],[110.36956,-7.56524],[110.36957,-7.56524],[110.3696,-7.56525],[110.36965,-7.56526],[110.36967,-7.56526],[110.36969,-7.56527],[110.36973,-7.56527],[110.36978,-7.56528],[110.36982,-7.56529],[110.36984,-7.56529],[110.36992,-7.56531],[110.37002,-7.56532],[110.37009,-7.56535],[110.37012,-7.56542],[110.37013,-7.5655],[110.37012,-7.56552],[110.37015,-7.56562],[110.37021,-7.56573],[110.37031,-7.56586],[110.37058,-7.56595],[110.37071,-7.56599],[110.37081,-7.56603],[110.37111,-7.56609],[110.37134,-7.56612],[110.37187,-7.56613],[110.37231,-7.56614],[110.37283,-7.56613],[110.37342,-7.56612],[110.37384,-7.56612],[110.37407,-7.56613],[110.37436,-7.56614],[110.3745,-7.5661],[110.37484,-7.56637],[110.37517,-7.56652],[110.37554,-7.56671],[110.37557,-7.56672],[110.37599,-7.56689],[110.37636,-7.56701],[110.37684,-7.56694],[110.37718,-7.5668],[110.37743,-7.56666],[110.37761,-7.56649],[110.37797,-7.56639],[110.37837,-7.56631],[110.37857,-7.56615],[110.37884,-7.56607],[110.37911,-7.56597],[110.37944,-7.56602],[110.37985,-7.56605],[110.38018,-7.56604],[110.38047,-7.56605],[110.3809,-7.56615],[110.38101,-7.56625],[110.38137,-7.56644],[110.38182,-7.56647],[110.38198,-7.56644],[110.38206,-7.56637],[110.3823,-7.5663],[110.38239,-7.56625],[110.38252,-7.5662],[110.38266,-7.56614],[110.38279,-7.5661],[110.38284,-7.56609],[110.38293,-7.56607],[110.38304,-7.56608],[110.38315,-7.56608],[110.38322,-7.56606],[110.38328,-7.56601],[110.38335,-7.56595],[110.38343,-7.5659],[110.38355,-7.56586],[110.38379,-7.56577],[110.38384,-7.56574],[110.38388,-7.56572],[110.38398,-7.56566],[110.38402,-7.56563],[110.38411,-7.56559],[110.38414,-7.56558],[110.38444,-7.56535],[110.38477,-7.56502],[110.3848,-7.56498],[110.3854,-7.56498],[110.38569,-7.56494],[110.38614,-7.56457],[110.38643,-7.56428],[110.38667,-7.56397],[110.38671,-7.56393],[110.38737,-7.5635],[110.38797,-7.5634],[110.38819,-7.5633],[110.38859,-7.56283],[110.38892,-7.56278],[110.38988,-7.56242],[110.39044,-7.56196],[110.39119,-7.5615],[110.39175,-7.56095],[110.39336,-7.55922],[110.39469,-7.55898],[110.3955,-7.55882],[110.39778,-7.55882],[110.39845,-7.55879],[110.39896,-7.55863],[110.3996,-7.55811],[110.4005,-7.55776],[110.40067,-7.55774],[110.40093,-7.55771],[110.40193,-7.5575],[110.40309,-7.5575],[110.4034,-7.55751],[110.40388,-7.55691],[110.40435,-7.55642],[110.4046,-7.55617],[110.40525,-7.55565],[110.40594,-7.55508],[110.40656,-7.55489],[110.40685,-7.5548],[110.40705,-7.55469],[110.40719,-7.55453],[110.40732,-7.5543],[110.40738,-7.5542],[110.40761,-7.55386],[110.40791,-7.5538],[110.4082,-7.55374],[110.40855,-7.55367],[110.40872,-7.55358],[110.40935,-7.55326],[110.40983,-7.5525],[110.41,-7.55185],[110.41015,-7.55122],[110.41042,-7.55077],[110.4106,-7.55054],[110.41065,-7.55003],[110.41074,-7.54975],[110.41105,-7.54941],[110.41137,-7.54922],[110.41176,-7.54902],[110.41218,-7.54871],[110.41244,-7.54848],[110.41305,-7.54809],[110.41347,-7.54808],[110.41403,-7.5477],[110.41464,-7.54744],[110.41511,-7.54697],[110.41574,-7.54672],[110.41681,-7.54649],[110.41754,-7.54607],[110.41811,-7.54573],[110.41887,-7.54561],[110.41914,-7.54524],[110.41954,-7.54489],[110.42003,-7.5448],[110.42025,-7.54471],[110.42047,-7.54461],[110.42072,-7.54451],[110.4213,-7.54423],[110.42185,-7.54402],[110.42191,-7.544],[110.42205,-7.54396],[110.4222,-7.54393],[110.42232,-7.5439],[110.42271,-7.54401],[110.42309,-7.54426],[110.4235,-7.5444],[110.42375,-7.54465],[110.42394,-7.54481],[110.42452,-7.54469],[110.42458,-7.54468],[110.42482,-7.5445],[110.42515,-7.54426],[110.42585,-7.54403],[110.42592,-7.544],[110.42615,-7.54383],[110.42645,-7.54361],[110.42732,-7.54304],[110.42852,-7.5426],[110.43087,-7.5428],[110.43177,-7.54298],[110.43179,-7.54298],[110.432,-7.54303],[110.43329,-7.54329],[110.43685,-7.54329],[110.44,-7.54324],[110.443,-7.54248],[110.4433,-7.5424],[110.44462,-7.54216],[110.44472,-7.54206],[110.44474,-7.54203],[110.4448,-7.54197],[110.4448,-7.54196],[110.44481,-7.54196],[110.44487,-7.54188],[110.44492,-7.5418],[110.44498,-7.54171],[110.44501,-7.54165],[110.44503,-7.54163],[110.44507,-7.54154],[110.44511,-7.54144],[110.44519,-7.54126],[110.44522,-7.54116],[110.4447,-7.54117],[110.44469,-7.54117],[110.44427,-7.54118],[110.44381,-7.54118],[110.44288,-7.5412],[110.44251,-7.5412],[110.44242,-7.54116],[110.44235,-7.54113],[110.44224,-7.54107],[110.44202,-7.54096],[110.442,-7.54096],[110.44177,-7.54084],[110.44113,-7.54053],[110.43948,-7.53973],[110.43935,-7.53967],[110.43838,-7.53904],[110.43656,-7.53787],[110.43575,-7.53726],[110.43516,-7.53661],[110.43484,-7.53625],[110.43395,-7.53527],[110.43394,-7.53526],[110.43354,-7.53462],[110.43261,-7.53338],[110.43244,-7.53314],[110.43232,-7.53299],[110.43181,-7.5323],[110.43175,-7.53225],[110.4307,-7.53137],[110.43047,-7.53118],[110.43041,-7.53113],[110.43019,-7.53095],[110.42959,-7.53059],[110.42863,-7.53006],[110.42816,-7.52981],[110.42786,-7.52965],[110.42756,-7.52946],[110.42736,-7.52932],[110.42704,-7.52909],[110.42665,-7.5287],[110.42652,-7.52842],[110.42637,-7.52812],[110.42622,-7.52792],[110.42611,-7.52778],[110.426,-7.52767],[110.42568,-7.52745],[110.42536,-7.52729],[110.42529,-7.52726],[110.4252,-7.52716],[110.42496,-7.52692],[110.42482,-7.52652],[110.42477,-7.52639],[110.42456,-7.52577],[110.42451,-7.52568],[110.42447,-7.52564],[110.42427,-7.52546],[110.42401,-7.52527],[110.42358,-7.52498],[110.42337,-7.52478],[110.42321,-7.52448],[110.42313,-7.52431],[110.42295,-7.52397],[110.42271,-7.52373],[110.42237,-7.52358],[110.42203,-7.52342],[110.42192,-7.52321],[110.42157,-7.52255],[110.42156,-7.52254],[110.42116,-7.52213],[110.42113,-7.52206],[110.42111,-7.52202],[110.42111,-7.52199],[110.42109,-7.52191],[110.4211,-7.52191],[110.42111,-7.52187],[110.42112,-7.52184],[110.42112,-7.52182],[110.42114,-7.52177],[110.42116,-7.52169],[110.42117,-7.52167],[110.42122,-7.52161],[110.4213,-7.52152],[110.42131,-7.52147],[110.42131,-7.5214],[110.42132,-7.52135],[110.42131,-7.52134],[110.42131,-7.52133],[110.42123,-7.52122],[110.42116,-7.52111],[110.42116,-7.5211],[110.42105,-7.52094],[110.42097,-7.52088],[110.42064,-7.52061],[110.42063,-7.52059],[110.42062,-7.52056],[110.42056,-7.52045],[110.4205,-7.52026],[110.42046,-7.52023],[110.42035,-7.52015],[110.42003,-7.52015],[110.41981,-7.52008],[110.41955,-7.51993],[110.41945,-7.51987],[110.41919,-7.51969],[110.41917,-7.51968],[110.41901,-7.51956],[110.41872,-7.51937],[110.41813,-7.51902],[110.41805,-7.51897],[110.41804,-7.51897],[110.4158,-7.51847],[110.4154,-7.51838],[110.41482,-7.51825],[110.41395,-7.5181],[110.41378,-7.51807],[110.4135,-7.51802],[110.41343,-7.51801],[110.41276,-7.51789],[110.41274,-7.51789],[110.41243,-7.51783],[110.41238,-7.51783],[110.41231,-7.51781],[110.41193,-7.51775],[110.41192,-7.51775],[110.41081,-7.51752],[110.40974,-7.51731],[110.40924,-7.51719],[110.40737,-7.51675],[110.4073,-7.51674],[110.40607,-7.51625],[110.40589,-7.51621],[110.4049,-7.516],[110.40484,-7.51599],[110.40407,-7.51586],[110.40321,-7.51572],[110.40141,-7.51539],[110.40107,-7.51537],[110.40076,-7.51537],[110.40068,-7.51538],[110.40061,-7.51538],[110.40025,-7.51544],[110.40019,-7.51544],[110.3999,-7.51547],[110.3992,-7.51538],[110.39897,-7.51536],[110.39841,-7.51529],[110.39795,-7.51531],[110.3976,-7.51537],[110.39661,-7.5157],[110.39641,-7.51572],[110.39629,-7.51573],[110.39614,-7.51573],[110.39552,-7.51571],[110.3952,-7.51561],[110.39464,-7.51543],[110.39411,-7.51529],[110.3938,-7.51529],[110.39346,-7.51537],[110.39324,-7.51542],[110.39303,-7.51537],[110.39282,-7.51526],[110.39255,-7.51512],[110.39246,-7.5151],[110.39235,-7.51507],[110.39232,-7.51506],[110.39225,-7.51505],[110.39218,-7.51505],[110.39211,-7.51504],[110.39203,-7.51503],[110.39187,-7.51498],[110.39177,-7.51496],[110.39156,-7.51488],[110.39124,-7.51476],[110.39114,-7.51476],[110.39101,-7.51479],[110.39088,-7.51483],[110.39086,-7.51484],[110.39074,-7.51489],[110.39063,-7.51495],[110.39031,-7.51495],[110.39011,-7.51491],[110.39002,-7.51487],[110.38964,-7.5147],[110.38953,-7.51466],[110.38948,-7.51464],[110.38922,-7.51456],[110.3888,-7.51433],[110.38866,-7.51425],[110.38829,-7.51409],[110.38824,-7.51406],[110.38804,-7.51397],[110.38791,-7.51391],[110.38789,-7.5139],[110.38773,-7.5138],[110.38758,-7.51372],[110.38743,-7.51365],[110.38723,-7.51345],[110.38701,-7.5133],[110.38678,-7.51333],[110.3865,-7.5134],[110.3863,-7.5134],[110.38609,-7.51338],[110.3855,-7.51332],[110.38509,-7.51328],[110.38473,-7.51324],[110.38453,-7.51318],[110.38451,-7.51319],[110.38413,-7.51325],[110.3839,-7.51313],[110.38368,-7.51312],[110.38354,-7.51321],[110.38346,-7.51332],[110.38336,-7.51343],[110.38324,-7.5136],[110.38304,-7.51371],[110.38299,-7.51379],[110.38294,-7.51395],[110.38288,-7.51403],[110.3828,-7.5141],[110.38268,-7.51409],[110.38257,-7.51407],[110.38245,-7.51408],[110.3824,-7.51412],[110.38223,-7.5142],[110.38214,-7.51419],[110.38208,-7.51418],[110.38191,-7.51415],[110.38177,-7.51412],[110.38153,-7.51409],[110.38137,-7.51406],[110.38129,-7.51393],[110.38119,-7.51384],[110.38097,-7.51374],[110.3808,-7.51373],[110.38064,-7.51372],[110.38047,-7.51366],[110.38031,-7.51363],[110.38019,-7.51362],[110.37993,-7.51364],[110.37977,-7.51361],[110.37968,-7.51353],[110.37941,-7.51346],[110.37894,-7.51333],[110.37842,-7.51318],[110.37817,-7.51311],[110.37814,-7.5131],[110.37801,-7.51302],[110.37795,-7.51297],[110.37789,-7.51293],[110.37776,-7.51284],[110.37775,-7.51282],[110.37755,-7.51266],[110.37747,-7.51259],[110.37732,-7.51259],[110.37717,-7.51254],[110.37698,-7.51235],[110.37692,-7.51228],[110.37687,-7.51221],[110.37681,-7.51214],[110.37676,-7.5121],[110.37667,-7.51208],[110.37656,-7.51208],[110.3765,-7.51209],[110.37644,-7.51212],[110.37634,-7.5122],[110.37623,-7.51231],[110.37613,-7.51236],[110.37606,-7.51239],[110.37598,-7.51241],[110.37583,-7.51242],[110.3756,-7.51242],[110.37545,-7.51245],[110.3754,-7.51248],[110.37536,-7.5125],[110.37532,-7.51253],[110.3752,-7.51266],[110.37505,-7.51281],[110.37486,-7.51288],[110.37454,-7.51288],[110.37447,-7.51289],[110.37434,-7.51291],[110.37416,-7.51293],[110.37412,-7.51294],[110.37404,-7.51295],[110.37398,-7.51297],[110.37395,-7.51299],[110.37392,-7.513],[110.37387,-7.51306],[110.37385,-7.51312],[110.3738,-7.51331],[110.37378,-7.51342],[110.37376,-7.51354],[110.37372,-7.51373],[110.37371,-7.51378],[110.37361,-7.51388],[110.37349,-7.51396],[110.37343,-7.51399],[110.37333,-7.51399],[110.37327,-7.51401],[110.37312,-7.51432],[110.37296,-7.51449],[110.37283,-7.51467],[110.37272,-7.51488],[110.37266,-7.51511],[110.37265,-7.51569],[110.37265,-7.51599],[110.37252,-7.51631],[110.37237,-7.51652],[110.37201,-7.51681],[110.37166,-7.51704],[110.37126,-7.51723],[110.37122,-7.51725],[110.37098,-7.51732],[110.3707,-7.51739],[110.37041,-7.51744],[110.37021,-7.51749],[110.37002,-7.51752],[110.36989,-7.51752],[110.36901,-7.5184],[110.36783,-7.51883],[110.36623,-7.51849],[110.36598,-7.51848],[110.36557,-7.51846],[110.36534,-7.51845],[110.36498,-7.51853],[110.3647,-7.5186],[110.36448,-7.51873],[110.36421,-7.5188],[110.36401,-7.5189],[110.36384,-7.51892],[110.36353,-7.51898],[110.36284,-7.51914],[110.36205,-7.5193],[110.36156,-7.51956],[110.36101,-7.51967],[110.36048,-7.51978],[110.36036,-7.51981],[110.36011,-7.51988],[110.35966,-7.51996],[110.35922,-7.51997],[110.35893,-7.52003],[110.35848,-7.52025],[110.35822,-7.52036],[110.3578,-7.52053],[110.3575,-7.52068],[110.35733,-7.52076],[110.35669,-7.52104],[110.35624,-7.52123],[110.3554,-7.52158],[110.35497,-7.52176],[110.35432,-7.52224],[110.35329,-7.52285],[110.3532,-7.52291],[110.35281,-7.52321],[110.35275,-7.52338],[110.35276,-7.52355],[110.35279,-7.52382],[110.3528,-7.52392],[110.35266,-7.5241],[110.3526,-7.52417],[110.35249,-7.52447],[110.35232,-7.52481],[110.35225,-7.52492],[110.35218,-7.52502],[110.35194,-7.52517],[110.3519,-7.52519],[110.35161,-7.52537],[110.35125,-7.5255],[110.35092,-7.5256],[110.35063,-7.52574],[110.35047,-7.52586],[110.35036,-7.52598],[110.35023,-7.52622],[110.35014,-7.52644],[110.35004,-7.52665],[110.34979,-7.52684],[110.34967,-7.52723],[110.34969,-7.52746],[110.34969,-7.5276],[110.34968,-7.52764],[110.34962,-7.52786],[110.34957,-7.52813],[110.34956,-7.52814],[110.34941,-7.52845],[110.3494,-7.52846],[110.34934,-7.52853],[110.34891,-7.52896],[110.34848,-7.52936],[110.34831,-7.52946],[110.3482,-7.52953],[110.34807,-7.52968],[110.34782,-7.5298],[110.34774,-7.52984],[110.34747,-7.52983],[110.34733,-7.52983],[110.34653,-7.52976],[110.34589,-7.52978],[110.34582,-7.5298],[110.34548,-7.52993],[110.3445,-7.53042],[110.34428,-7.53048],[110.344,-7.53056],[110.34305,-7.53084],[110.34303,-7.53085],[110.34266,-7.53096],[110.34262,-7.53097],[110.34231,-7.53125],[110.34225,-7.53131],[110.34217,-7.53152],[110.34201,-7.53192],[110.34197,-7.53197],[110.34185,-7.53215],[110.34165,-7.53239],[110.34164,-7.5324],[110.34089,-7.53285],[110.34064,-7.53325],[110.34063,-7.53325],[110.34048,-7.5334],[110.34032,-7.53355],[110.34031,-7.53356],[110.34022,-7.53381],[110.34005,-7.53427],[110.33984,-7.53452],[110.33984,-7.53453],[110.33978,-7.53458],[110.33964,-7.53469],[110.33875,-7.53459],[110.3387,-7.53461],[110.33858,-7.53466],[110.33828,-7.53509],[110.33823,-7.53509],[110.33788,-7.53512],[110.33744,-7.53559],[110.33702,-7.53605],[110.33698,-7.5361],[110.33689,-7.53631],[110.33688,-7.53633],[110.33673,-7.53642],[110.33668,-7.53644],[110.33657,-7.53644],[110.33557,-7.53642],[110.3355,-7.53644],[110.33494,-7.53658],[110.33448,-7.53688],[110.33436,-7.53701],[110.33422,-7.53716],[110.33341,-7.53817],[110.33291,-7.53822],[110.33262,-7.53826],[110.33243,-7.53839],[110.33242,-7.5384],[110.33221,-7.53857],[110.33185,-7.53866],[110.33139,-7.53875],[110.33098,-7.53898],[110.33063,-7.53895],[110.33049,-7.53878],[110.33045,-7.53874],[110.32971,-7.53882],[110.32926,-7.53898],[110.32909,-7.53904],[110.32862,-7.53932],[110.32844,-7.53942],[110.32837,-7.53947],[110.32766,-7.54003],[110.32749,-7.54005],[110.32714,-7.54008],[110.32648,-7.54036],[110.32647,-7.54037],[110.32645,-7.54037],[110.3258,-7.54053],[110.32541,-7.54085],[110.32532,-7.54092],[110.32465,-7.54117],[110.32418,-7.54134],[110.32301,-7.54195],[110.32241,-7.54225],[110.32155,-7.5427],[110.3212,-7.543],[110.32114,-7.54305],[110.32088,-7.54326],[110.3204,-7.54364],[110.32007,-7.54383],[110.31952,-7.54397],[110.31934,-7.54402],[110.31824,-7.5442],[110.31808,-7.54423],[110.31786,-7.5441],[110.31767,-7.54399],[110.31761,-7.54399],[110.31704,-7.54395],[110.31573,-7.54382],[110.31489,-7.54369],[110.3148,-7.54368],[110.31454,-7.54377],[110.3141,-7.54395],[110.31406,-7.54396],[110.31403,-7.54398],[110.31321,-7.54446],[110.31281,-7.54469],[110.31189,-7.54522],[110.31104,-7.54567],[110.31013,-7.54613],[110.30929,-7.54647],[110.30904,-7.54657],[110.30895,-7.54654],[110.30839,-7.54634],[110.30745,-7.54674],[110.30716,-7.54686],[110.30714,-7.54691],[110.30713,-7.54697],[110.30714,-7.54705],[110.30716,-7.54715],[110.30713,-7.54723],[110.30709,-7.54725],[110.30701,-7.54725],[110.30699,-7.54726],[110.30699,-7.54735],[110.30698,-7.54737],[110.30697,-7.5474],[110.30696,-7.54742],[110.30695,-7.54746],[110.30692,-7.54749],[110.30691,-7.54751],[110.30692,-7.54752],[110.30695,-7.54753],[110.30702,-7.54753],[110.30704,-7.54754],[110.30705,-7.54756],[110.30705,-7.54758],[110.30706,-7.5476],[110.30707,-7.5476],[110.30709,-7.54761],[110.30709,-7.54763],[110.30708,-7.54764],[110.30705,-7.54765],[110.30702,-7.54767],[110.30696,-7.54773],[110.30694,-7.54777],[110.30694,-7.54781],[110.30695,-7.54784],[110.30698,-7.54788],[110.307,-7.54791],[110.30702,-7.54795],[110.30703,-7.54807],[110.30704,-7.54811],[110.30711,-7.54813],[110.30716,-7.54817],[110.30719,-7.5482],[110.3072,-7.54823],[110.30722,-7.54824],[110.30727,-7.54824],[110.30731,-7.54825],[110.30733,-7.54826],[110.30733,-7.54828],[110.30732,-7.54831],[110.30728,-7.54837],[110.30723,-7.54843],[110.3072,-7.54846],[110.30713,-7.54848],[110.30707,-7.54852],[110.30701,-7.54866],[110.30694,-7.54871],[110.30686,-7.54879],[110.30682,-7.54881],[110.30678,-7.54882],[110.30675,-7.54882],[110.30673,-7.54881],[110.30663,-7.54881],[110.3066,-7.54883],[110.30654,-7.54889],[110.30645,-7.549],[110.30641,-7.54903],[110.30638,-7.54907],[110.30633,-7.54913],[110.30631,-7.54918],[110.30623,-7.54928],[110.30619,-7.54932],[110.30614,-7.54938],[110.30611,-7.54942],[110.30606,-7.54946],[110.30599,-7.54948],[110.3059,-7.54947],[110.30578,-7.54949],[110.30562,-7.54953],[110.30557,-7.54956],[110.30551,-7.54963],[110.30549,-7.54969],[110.30548,-7.54977],[110.30543,-7.54983],[110.30536,-7.54989],[110.3053,-7.54995],[110.30523,-7.54999],[110.30516,-7.55002],[110.3051,-7.55004],[110.30506,-7.55005],[110.305,-7.55007],[110.30493,-7.5502],[110.30478,-7.55044],[110.30474,-7.55073],[110.30477,-7.55078],[110.30485,-7.55091],[110.30495,-7.55103],[110.30496,-7.55103],[110.30499,-7.55104],[110.305,-7.55104],[110.30501,-7.55105],[110.30503,-7.55105],[110.30505,-7.55104],[110.30514,-7.55098],[110.30515,-7.55097],[110.3052,-7.55101],[110.30523,-7.5511],[110.30521,-7.55114],[110.30517,-7.55118],[110.30514,-7.5512],[110.30506,-7.55124],[110.30503,-7.55127],[110.305,-7.55132],[110.30499,-7.55134],[110.30497,-7.55141],[110.30483,-7.55171],[110.30488,-7.55176],[110.30492,-7.55177],[110.30496,-7.55179],[110.30501,-7.55181],[110.30505,-7.55183],[110.30508,-7.55184],[110.30511,-7.55186],[110.30513,-7.55189],[110.30509,-7.55191],[110.30503,-7.55192],[110.30497,-7.55192],[110.30495,-7.55194],[110.30487,-7.55201],[110.30484,-7.55203],[110.3048,-7.55207],[110.30476,-7.55212],[110.30475,-7.55216],[110.30472,-7.55224],[110.30472,-7.55233],[110.30473,-7.55236],[110.30473,-7.55239],[110.30472,-7.55242],[110.30466,-7.55244],[110.30463,-7.55246],[110.30462,-7.55252],[110.30472,-7.55248],[110.30488,-7.55238],[110.30498,-7.55234],[110.30505,-7.55232],[110.30515,-7.55231],[110.30521,-7.55232],[110.30525,-7.55232],[110.30529,-7.55233],[110.3054,-7.55234],[110.30563,-7.55234],[110.30568,-7.55233],[110.30574,-7.55232],[110.3058,-7.5523],[110.30593,-7.55227],[110.30601,-7.55226],[110.30605,-7.55225],[110.30608,-7.55226],[110.30611,-7.5523],[110.30613,-7.55241],[110.30615,-7.55253],[110.30615,-7.5528],[110.30618,-7.55289],[110.30617,-7.55303],[110.30614,-7.55314],[110.30611,-7.55323],[110.30608,-7.55328],[110.30604,-7.55335],[110.30597,-7.55342],[110.30597,-7.55344],[110.306,-7.55347],[110.30603,-7.55347],[110.30605,-7.55346],[110.30606,-7.55345],[110.30609,-7.55346],[110.30611,-7.55346],[110.30613,-7.55348],[110.30614,-7.5535],[110.30618,-7.55355],[110.30618,-7.55359],[110.30617,-7.55363],[110.30614,-7.55369],[110.30614,-7.55373],[110.30615,-7.55376],[110.30618,-7.55376],[110.3062,-7.55375],[110.30626,-7.55369],[110.3063,-7.55366],[110.30636,-7.55366],[110.3064,-7.55369],[110.30642,-7.55372],[110.30645,-7.55376],[110.30652,-7.55381],[110.30659,-7.55387],[110.30662,-7.55392],[110.30664,-7.55402],[110.30662,-7.55416],[110.30661,-7.55421],[110.30658,-7.55429],[110.30657,-7.55434],[110.30658,-7.55439],[110.30659,-7.55442],[110.30662,-7.55443],[110.30666,-7.55446],[110.30673,-7.5545],[110.30679,-7.55451],[110.3068,-7.55451],[110.3069,-7.55455],[110.30695,-7.55456],[110.30699,-7.55459],[110.30704,-7.55463],[110.30713,-7.55473],[110.30718,-7.5548],[110.30724,-7.5549],[110.30733,-7.55504],[110.30734,-7.55506],[110.30728,-7.55509],[110.30715,-7.55516],[110.30692,-7.55525],[110.30677,-7.55531],[110.30675,-7.55533],[110.30661,-7.55541],[110.30644,-7.55551],[110.30623,-7.55563],[110.30617,-7.55568],[110.30612,-7.55574],[110.30607,-7.55577],[110.30592,-7.55595],[110.30586,-7.55608],[110.30582,-7.55615],[110.30577,-7.55619],[110.30574,-7.5562],[110.30564,-7.55623],[110.30556,-7.55627],[110.30549,-7.5563],[110.30532,-7.55641],[110.30518,-7.55652],[110.30514,-7.55656],[110.30506,-7.55666],[110.30498,-7.55675],[110.30488,-7.55683],[110.30483,-7.55686],[110.30478,-7.55687],[110.30469,-7.55687],[110.30459,-7.55689],[110.30455,-7.55692],[110.30453,-7.55695],[110.30451,-7.55705],[110.30449,-7.5571],[110.30449,-7.55715],[110.30448,-7.55721],[110.30447,-7.55728],[110.30444,-7.55737],[110.3044,-7.55744],[110.30436,-7.55756],[110.30435,-7.55761],[110.30438,-7.55774],[110.30439,-7.55783],[110.30439,-7.55789],[110.30438,-7.55792],[110.30436,-7.55794],[110.30435,-7.55796],[110.30435,-7.55801],[110.30436,-7.55803],[110.30437,-7.55803],[110.30438,-7.55805],[110.3044,-7.55807],[110.30441,-7.55809],[110.30441,-7.55811],[110.3044,-7.55814],[110.30439,-7.55816],[110.30436,-7.55819],[110.30436,-7.55826],[110.30434,-7.5583],[110.30432,-7.55831],[110.3043,-7.55835],[110.30427,-7.55842],[110.30427,-7.55845],[110.30425,-7.55853],[110.30424,-7.55856],[110.30421,-7.55863],[110.30419,-7.55866],[110.30416,-7.55868],[110.30412,-7.55869],[110.30407,-7.55871],[110.30403,-7.55872],[110.30398,-7.55873],[110.30393,-7.55877],[110.30382,-7.55888],[110.3038,-7.55892],[110.30378,-7.55895],[110.30377,-7.55899],[110.30377,-7.55903],[110.30378,-7.55906],[110.30379,-7.55907],[110.30382,-7.55911],[110.30383,-7.55917],[110.30384,-7.55921],[110.30383,-7.55924],[110.30383,-7.55927],[110.30382,-7.55929],[110.30381,-7.55932],[110.3038,-7.55936],[110.30379,-7.55939],[110.30379,-7.55945],[110.30381,-7.55949],[110.30385,-7.55962],[110.30372,-7.55967],[110.30359,-7.55968],[110.30357,-7.55971],[110.30353,-7.55976],[110.30343,-7.55979],[110.30338,-7.55982],[110.30334,-7.55985],[110.30328,-7.5599],[110.30318,-7.55991],[110.30301,-7.5599],[110.30283,-7.55989],[110.30271,-7.55988],[110.30263,-7.55989],[110.30253,-7.5599],[110.30248,-7.55992],[110.3024,-7.55995],[110.30235,-7.55998],[110.30228,-7.56002],[110.3022,-7.56008],[110.30214,-7.5601],[110.30204,-7.56014],[110.30195,-7.56014],[110.30183,-7.56016],[110.30178,-7.56018],[110.30172,-7.56023],[110.30157,-7.56031],[110.30146,-7.56024],[110.30143,-7.56024],[110.30131,-7.56027],[110.30124,-7.56031],[110.30112,-7.56037],[110.30101,-7.56045],[110.30093,-7.56051],[110.30082,-7.56062],[110.30075,-7.56071],[110.30069,-7.5608],[110.30062,-7.56091],[110.30051,-7.56099],[110.30044,-7.56106],[110.30025,-7.56118],[110.30015,-7.56123],[110.3,-7.56137],[110.29991,-7.56147],[110.29982,-7.5616],[110.29981,-7.56162],[110.29973,-7.56183],[110.29972,-7.5619],[110.29966,-7.56198],[110.29959,-7.56203],[110.29934,-7.56218],[110.29925,-7.56226],[110.29916,-7.56235],[110.2989,-7.56292],[110.29873,-7.56318],[110.29861,-7.56336],[110.29835,-7.5637],[110.29857,-7.5637],[110.29866,-7.56372],[110.29873,-7.56372],[110.29876,-7.5637],[110.2988,-7.56368],[110.29884,-7.56365],[110.29888,-7.56357],[110.29896,-7.56368],[110.29905,-7.56378],[110.29914,-7.56389],[110.29924,-7.56405],[110.29928,-7.5641],[110.2994,-7.56418],[110.29954,-7.56428],[110.2995,-7.56434],[110.29959,-7.56442],[110.29964,-7.56443],[110.29966,-7.56445],[110.29966,-7.56447],[110.29957,-7.56459],[110.29948,-7.56466],[110.29937,-7.56473],[110.29927,-7.5648],[110.29925,-7.56482],[110.29923,-7.56485],[110.29917,-7.56493],[110.29912,-7.56496],[110.29909,-7.56498],[110.29898,-7.56502],[110.2989,-7.56504],[110.29879,-7.56505],[110.29865,-7.56507],[110.29858,-7.56509],[110.29845,-7.56516],[110.29841,-7.56517],[110.29832,-7.5652],[110.29826,-7.56517],[110.29819,-7.56518],[110.29811,-7.56521],[110.29808,-7.56522],[110.29806,-7.56523],[110.29804,-7.56527],[110.29799,-7.56535],[110.29796,-7.5654],[110.29792,-7.56547],[110.2979,-7.56553],[110.29785,-7.56559],[110.29781,-7.56565],[110.29776,-7.56572],[110.2977,-7.56578],[110.29768,-7.56581],[110.29763,-7.56584],[110.29761,-7.5659],[110.29761,-7.56596],[110.29754,-7.56613],[110.29753,-7.56614],[110.2975,-7.56618],[110.29749,-7.56622],[110.29749,-7.56625]]]}}]}