{"type":"FeatureCollection","features":[{"type":"Feature","properties":{"KECAMATAN":"Grabag"},"geometry":{"type":"Polygon","coordinates":[[[110.26824,-7.38115],[110.26828,-7.38114],[110.26833,-7.38114],[110.26834,-7.38115],[110.26836,-7.38116],[110.26839,-7.38116],[110.26842,-7.38115],[110.26847,-7.38114],[110.2685,-7.38113],[110.26851,-7.38113],[110.26855,-7.38112],[110.26857,-7.38114],[110.26859,-7.38117],[110.26859,-7.3812],[110.26858,-7.38123],[110.26859,-7.38123],[110.26861,-7.38122],[110.26864,-7.3812],[110.26868,-7.38119],[110.26874,-7.38116],[110.26876,-7.3811],[110.26879,-7.38099],[110.26885,-7.38092],[110.26889,-7.38089],[110.26895,-7.38088],[110.26911,-7.38088],[110.26923,-7.38089],[110.26927,-7.3809],[110.26931,-7.38092],[110.26934,-7.38091],[110.26938,-7.38089],[110.26946,-7.38087],[110.26951,-7.38089],[110.26955,-7.38093],[110.26957,-7.38097],[110.26958,-7.38101],[110.26961,-7.38104],[110.26958,-7.38107],[110.26956,-7.3811],[110.26955,-7.38114],[110.26954,-7.38117],[110.26955,-7.38127],[110.26961,-7.38135],[110.26964,-7.38137],[110.26967,-7.38137],[110.26977,-7.38135],[110.26988,-7.38133],[110.26994,-7.38131],[110.27001,-7.38131],[110.27004,-7.38132],[110.27006,-7.38133],[110.27006,-7.38134],[110.27008,-7.38136],[110.27011,-7.38142],[110.27011,-7.38143],[110.27013,-7.38147],[110.27013,-7.38151],[110.2701,-7.3816],[110.27006,-7.38168],[110.27,-7.38177],[110.26994,-7.38189],[110.26992,-7.38192],[110.26992,-7.38193],[110.2698,-7.38205],[110.26976,-7.38208],[110.26975,-7.38209],[110.26973,-7.3821],[110.26969,-7.38213],[110.26969,-7.38214],[110.26965,-7.38218],[110.26962,-7.38224],[110.26961,-7.38227],[110.2696,-7.38232],[110.26958,-7.38239],[110.26956,-7.38244],[110.26954,-7.38248],[110.26944,-7.38263],[110.26939,-7.38273],[110.26939,-7.38276],[110.26938,-7.3828],[110.26936,-7.38286],[110.26935,-7.38291],[110.26931,-7.38302],[110.26931,-7.38306],[110.2693,-7.38308],[110.26926,-7.3832],[110.26923,-7.38325],[110.26918,-7.38336],[110.26901,-7.38377],[110.26895,-7.38389],[110.26894,-7.38392],[110.26892,-7.38397],[110.26887,-7.3841],[110.26881,-7.38422],[110.26868,-7.38445],[110.26865,-7.38451],[110.26864,-7.38452],[110.26862,-7.38458],[110.2686,-7.38462],[110.26859,-7.38466],[110.26859,-7.38477],[110.2686,-7.38481],[110.26881,-7.38502],[110.269,-7.38517],[110.26902,-7.38518],[110.26939,-7.38531],[110.26967,-7.38534],[110.26995,-7.38536],[110.27002,-7.38541],[110.27012,-7.38554],[110.27025,-7.38576],[110.27037,-7.38594],[110.27058,-7.38607],[110.27075,-7.38613],[110.27084,-7.38614],[110.27085,-7.38613],[110.27093,-7.3861],[110.27095,-7.38603],[110.27095,-7.38595],[110.27098,-7.38589],[110.27102,-7.38587],[110.27108,-7.38585],[110.27124,-7.3858],[110.27167,-7.38579],[110.27179,-7.38585],[110.27189,-7.38591],[110.27204,-7.38597],[110.27222,-7.38604],[110.2724,-7.38614],[110.27252,-7.3862],[110.27281,-7.38654],[110.27286,-7.38665],[110.27294,-7.38686],[110.27301,-7.38697],[110.27308,-7.38702],[110.27312,-7.38696],[110.27314,-7.38688],[110.27316,-7.38683],[110.27322,-7.3868],[110.27348,-7.38692],[110.27368,-7.38699],[110.27373,-7.38688],[110.27392,-7.38676],[110.27412,-7.38668],[110.27426,-7.38661],[110.2743,-7.38661],[110.27444,-7.38664],[110.27475,-7.38669],[110.27483,-7.38666],[110.27508,-7.38676],[110.27531,-7.38688],[110.27545,-7.38698],[110.2756,-7.38715],[110.27563,-7.3872],[110.27574,-7.38725],[110.27583,-7.38733],[110.27607,-7.38765],[110.27624,-7.38786],[110.27631,-7.38805],[110.27636,-7.3882],[110.27632,-7.38827],[110.27632,-7.38832],[110.27638,-7.38841],[110.27665,-7.3886],[110.27677,-7.38855],[110.27693,-7.38848],[110.27733,-7.38825],[110.27744,-7.38845],[110.27754,-7.38856],[110.27747,-7.38874],[110.27762,-7.38881],[110.27768,-7.38888],[110.27754,-7.38918],[110.27769,-7.38924],[110.27782,-7.38933],[110.27803,-7.38941],[110.27804,-7.38935],[110.27808,-7.38829],[110.27811,-7.38819],[110.27819,-7.3881],[110.27831,-7.38805],[110.27845,-7.38806],[110.27852,-7.38808],[110.27854,-7.38807],[110.2786,-7.38805],[110.27865,-7.38791],[110.27864,-7.3877],[110.27863,-7.3876],[110.27867,-7.38743],[110.27877,-7.38734],[110.27875,-7.38731],[110.2787,-7.38723],[110.27869,-7.38717],[110.27885,-7.3868],[110.27896,-7.38676],[110.27908,-7.38676],[110.27928,-7.3868],[110.27946,-7.38693],[110.2798,-7.38663],[110.28,-7.3862],[110.28005,-7.38602],[110.28006,-7.38602],[110.28014,-7.38585],[110.2803,-7.3858],[110.28069,-7.38578],[110.28084,-7.3857],[110.28092,-7.38552],[110.281,-7.38528],[110.28109,-7.38512],[110.28128,-7.38504],[110.28134,-7.38503],[110.28147,-7.385],[110.28157,-7.38494],[110.28159,-7.38481],[110.28163,-7.38468],[110.28169,-7.38463],[110.2817,-7.38462],[110.28184,-7.38457],[110.28188,-7.38456],[110.28207,-7.38451],[110.28218,-7.38448],[110.28226,-7.38446],[110.28231,-7.38445],[110.28236,-7.38443],[110.28239,-7.38441],[110.28253,-7.38434],[110.28283,-7.384],[110.28284,-7.38399],[110.28302,-7.38389],[110.28314,-7.38389],[110.28329,-7.38392],[110.28346,-7.38398],[110.28357,-7.38397],[110.2837,-7.38394],[110.28387,-7.38381],[110.28397,-7.38372],[110.28399,-7.38362],[110.28402,-7.38352],[110.2841,-7.38332],[110.28418,-7.38323],[110.28432,-7.38318],[110.28453,-7.38315],[110.28456,-7.38314],[110.28481,-7.38308],[110.28498,-7.38297],[110.28514,-7.38289],[110.28528,-7.38288],[110.28538,-7.38287],[110.2856,-7.38279],[110.28575,-7.38269],[110.28588,-7.38255],[110.28603,-7.38233],[110.28616,-7.38234],[110.2861,-7.38247],[110.28586,-7.38278],[110.28574,-7.3829],[110.28542,-7.38302],[110.28529,-7.38308],[110.28515,-7.38317],[110.28509,-7.38324],[110.28512,-7.38342],[110.28515,-7.3835],[110.28519,-7.38358],[110.28531,-7.38385],[110.28606,-7.38338],[110.28609,-7.38351],[110.28617,-7.38357],[110.28631,-7.38357],[110.28642,-7.38343],[110.28656,-7.38331],[110.28668,-7.3832],[110.28672,-7.38295],[110.2875,-7.38249],[110.28759,-7.3827],[110.28775,-7.38277],[110.28809,-7.38283],[110.28845,-7.38277],[110.28866,-7.38305],[110.28881,-7.3832],[110.28899,-7.38331],[110.28919,-7.38338],[110.28947,-7.38347],[110.28951,-7.38349],[110.28968,-7.38352],[110.28982,-7.38355],[110.28987,-7.38356],[110.29004,-7.38364],[110.28997,-7.38374],[110.28986,-7.3838],[110.28966,-7.38381],[110.28959,-7.3838],[110.2895,-7.38382],[110.28945,-7.38389],[110.28948,-7.38401],[110.28953,-7.3841],[110.28946,-7.38422],[110.28923,-7.3845],[110.28923,-7.38458],[110.28933,-7.38461],[110.28947,-7.38461],[110.28939,-7.38468],[110.28928,-7.38478],[110.28905,-7.38499],[110.28899,-7.38518],[110.28895,-7.38542],[110.2889,-7.38562],[110.28884,-7.38568],[110.2887,-7.38575],[110.28856,-7.38576],[110.28843,-7.38583],[110.28835,-7.38595],[110.2883,-7.38604],[110.28818,-7.3862],[110.28804,-7.38634],[110.28797,-7.38638],[110.28792,-7.3864],[110.28767,-7.38637],[110.28764,-7.38637],[110.28757,-7.38639],[110.28749,-7.38644],[110.28744,-7.38654],[110.28742,-7.38671],[110.28739,-7.38687],[110.28696,-7.38734],[110.28685,-7.38751],[110.28685,-7.38768],[110.28688,-7.38783],[110.28688,-7.38799],[110.28685,-7.38811],[110.28679,-7.38822],[110.28667,-7.3883],[110.28653,-7.38838],[110.28641,-7.38846],[110.28623,-7.38857],[110.28573,-7.38927],[110.28567,-7.38952],[110.28563,-7.38965],[110.28562,-7.38967],[110.28558,-7.38978],[110.28543,-7.39011],[110.28538,-7.39023],[110.28529,-7.39037],[110.2852,-7.39043],[110.28512,-7.39044],[110.28508,-7.39045],[110.28491,-7.39038],[110.28473,-7.39019],[110.28469,-7.39017],[110.28461,-7.3902],[110.28457,-7.39023],[110.28456,-7.39028],[110.28456,-7.39035],[110.28454,-7.39044],[110.28455,-7.39063],[110.28457,-7.39085],[110.28526,-7.3908],[110.28582,-7.39075],[110.28622,-7.39075],[110.28651,-7.39085],[110.28728,-7.39115],[110.28816,-7.39113],[110.28895,-7.39068],[110.28992,-7.39025],[110.29083,-7.39011],[110.29093,-7.3901],[110.2927,-7.38988],[110.29364,-7.38975],[110.29388,-7.39005],[110.29415,-7.39026],[110.29453,-7.39025],[110.29488,-7.39014],[110.29529,-7.38988],[110.29583,-7.38953],[110.29661,-7.38957],[110.29692,-7.38973],[110.29731,-7.39007],[110.29788,-7.39054],[110.29887,-7.39088],[110.29939,-7.39115],[110.29946,-7.39119],[110.29985,-7.3916],[110.30021,-7.39197],[110.29997,-7.3921],[110.29979,-7.39221],[110.29971,-7.39224],[110.29954,-7.39231],[110.29924,-7.39243],[110.2992,-7.39245],[110.29902,-7.39252],[110.299,-7.39253],[110.29893,-7.39257],[110.29887,-7.3926],[110.29864,-7.3927],[110.29852,-7.39276],[110.29851,-7.39277],[110.29833,-7.39288],[110.29814,-7.39301],[110.29798,-7.3931],[110.29783,-7.39318],[110.29766,-7.39323],[110.29757,-7.39324],[110.29753,-7.39334],[110.2975,-7.39336],[110.29734,-7.39353],[110.2972,-7.39378],[110.29704,-7.39406],[110.29689,-7.39437],[110.29656,-7.39494],[110.29633,-7.39528],[110.29626,-7.39541],[110.29624,-7.39561],[110.29624,-7.39583],[110.29631,-7.39614],[110.29644,-7.39651],[110.29645,-7.39655],[110.29656,-7.39678],[110.29661,-7.39698],[110.29661,-7.39707],[110.29656,-7.39715],[110.29648,-7.39722],[110.29626,-7.39728],[110.29609,-7.39734],[110.29576,-7.39737],[110.29549,-7.3974],[110.29501,-7.39746],[110.29442,-7.39756],[110.29434,-7.39757],[110.29431,-7.39758],[110.29401,-7.39766],[110.29369,-7.39775],[110.29323,-7.39801],[110.29318,-7.39804],[110.29239,-7.39865],[110.29231,-7.39873],[110.29195,-7.39907],[110.29142,-7.39953],[110.29124,-7.39972],[110.29109,-7.39984],[110.29098,-7.39993],[110.29088,-7.40005],[110.29086,-7.40009],[110.29084,-7.40015],[110.29081,-7.40023],[110.2908,-7.40033],[110.2908,-7.40042],[110.29084,-7.40053],[110.29093,-7.40079],[110.29097,-7.40101],[110.29096,-7.40109],[110.29092,-7.40122],[110.29088,-7.40128],[110.29086,-7.40132],[110.29085,-7.40135],[110.29084,-7.40142],[110.29084,-7.40156],[110.29085,-7.4016],[110.29094,-7.40162],[110.29095,-7.40162],[110.29107,-7.40164],[110.29115,-7.40168],[110.2912,-7.40174],[110.29123,-7.40184],[110.29122,-7.40193],[110.29116,-7.40205],[110.29107,-7.4022],[110.29103,-7.40225],[110.29094,-7.40238],[110.2908,-7.4026],[110.29072,-7.40278],[110.29066,-7.40284],[110.29065,-7.40284],[110.29056,-7.40289],[110.2905,-7.40294],[110.2905,-7.40302],[110.29054,-7.40315],[110.2906,-7.4033],[110.29065,-7.40341],[110.29067,-7.40345],[110.29071,-7.40358],[110.29071,-7.40366],[110.29069,-7.40371],[110.29065,-7.4038],[110.29054,-7.40399],[110.29038,-7.40418],[110.29023,-7.40436],[110.28997,-7.40457],[110.28974,-7.40478],[110.28966,-7.40484],[110.28952,-7.40497],[110.28949,-7.40506],[110.2895,-7.40512],[110.28954,-7.40516],[110.28968,-7.40529],[110.2897,-7.40536],[110.28968,-7.40543],[110.28959,-7.4055],[110.28957,-7.40551],[110.28951,-7.4055],[110.2894,-7.40543],[110.28928,-7.40538],[110.28923,-7.40535],[110.28913,-7.40537],[110.28906,-7.40543],[110.28896,-7.40547],[110.28882,-7.40548],[110.28872,-7.40546],[110.28856,-7.40545],[110.28846,-7.40548],[110.28842,-7.40552],[110.28837,-7.40563],[110.28835,-7.40573],[110.28831,-7.40579],[110.28824,-7.4059],[110.28841,-7.40598],[110.28856,-7.40594],[110.28862,-7.4059],[110.28872,-7.4059],[110.28901,-7.40596],[110.2891,-7.40602],[110.28916,-7.40612],[110.28917,-7.4062],[110.28921,-7.40626],[110.28928,-7.40637],[110.2894,-7.40646],[110.28941,-7.40653],[110.2893,-7.40657],[110.28912,-7.4066],[110.28891,-7.40669],[110.28905,-7.4067],[110.28919,-7.40677],[110.2893,-7.40682],[110.28937,-7.40685],[110.28945,-7.40695],[110.28948,-7.40697],[110.28956,-7.40702],[110.28966,-7.40717],[110.28957,-7.40716],[110.28949,-7.40714],[110.2894,-7.40714],[110.28936,-7.40725],[110.28929,-7.40742],[110.28923,-7.40751],[110.28917,-7.40756],[110.28906,-7.4076],[110.28897,-7.40762],[110.28894,-7.40766],[110.28894,-7.40772],[110.28899,-7.40774],[110.28912,-7.40778],[110.28923,-7.4078],[110.28933,-7.40781],[110.2894,-7.40781],[110.28951,-7.40774],[110.28964,-7.40765],[110.28953,-7.40792],[110.28946,-7.40804],[110.28936,-7.40809],[110.28927,-7.40814],[110.28922,-7.4082],[110.28916,-7.40832],[110.28906,-7.40838],[110.28885,-7.40848],[110.28893,-7.4086],[110.28941,-7.4084],[110.28954,-7.40836],[110.28966,-7.40831],[110.28971,-7.4083],[110.28984,-7.4083],[110.28994,-7.40833],[110.29014,-7.40841],[110.29042,-7.4085],[110.29065,-7.40857],[110.29077,-7.4086],[110.29063,-7.40869],[110.29046,-7.40879],[110.29038,-7.40884],[110.29024,-7.40894],[110.29019,-7.40904],[110.29015,-7.40916],[110.29011,-7.40923],[110.29004,-7.40939],[110.28997,-7.40948],[110.28988,-7.40957],[110.28984,-7.40964],[110.2898,-7.40974],[110.28975,-7.40991],[110.28974,-7.40992],[110.2897,-7.41011],[110.28967,-7.41025],[110.28964,-7.41037],[110.28961,-7.41048],[110.28957,-7.41057],[110.28951,-7.41064],[110.28941,-7.41067],[110.28925,-7.41067],[110.28915,-7.41062],[110.28911,-7.41072],[110.28914,-7.41078],[110.2892,-7.41086],[110.28926,-7.41096],[110.28914,-7.41121],[110.28908,-7.41133],[110.28904,-7.41164],[110.28898,-7.41185],[110.28896,-7.41202],[110.28895,-7.41228],[110.28905,-7.4123],[110.28907,-7.41232],[110.28908,-7.41235],[110.28908,-7.41238],[110.28901,-7.41241],[110.28894,-7.41243],[110.28891,-7.41246],[110.28889,-7.4125],[110.28892,-7.41271],[110.28892,-7.41273],[110.28889,-7.41283],[110.2889,-7.41293],[110.28888,-7.41296],[110.2888,-7.41297],[110.28877,-7.41297],[110.28871,-7.41291],[110.28866,-7.41289],[110.28851,-7.41287],[110.28836,-7.41282],[110.2883,-7.41276],[110.28824,-7.41264],[110.2882,-7.41255],[110.2882,-7.41253],[110.28811,-7.41248],[110.28805,-7.41249],[110.28793,-7.41249],[110.28783,-7.41246],[110.28772,-7.4125],[110.28767,-7.41254],[110.28756,-7.41256],[110.28737,-7.41247],[110.28722,-7.4124],[110.28711,-7.41244],[110.28707,-7.41254],[110.28709,-7.41273],[110.28718,-7.41282],[110.28714,-7.41287],[110.28709,-7.41301],[110.28713,-7.41309],[110.28718,-7.41323],[110.28718,-7.41333],[110.28717,-7.41333],[110.28714,-7.41342],[110.2871,-7.41345],[110.28702,-7.41347],[110.28693,-7.41349],[110.28688,-7.41349],[110.28682,-7.41348],[110.28676,-7.41349],[110.28667,-7.41355],[110.28657,-7.4136],[110.28653,-7.41361],[110.28646,-7.41361],[110.28639,-7.41363],[110.28636,-7.41375],[110.28623,-7.41401],[110.28623,-7.41402],[110.28604,-7.41424],[110.28575,-7.41442],[110.28568,-7.41463],[110.28571,-7.41474],[110.28584,-7.41484],[110.28604,-7.41495],[110.28613,-7.41494],[110.28647,-7.41487],[110.28669,-7.41477],[110.28712,-7.41467],[110.28732,-7.41464],[110.28747,-7.41464],[110.28753,-7.4147],[110.2876,-7.41479],[110.28768,-7.41484],[110.28783,-7.41488],[110.288,-7.41493],[110.28813,-7.415],[110.28822,-7.41515],[110.2883,-7.41535],[110.2884,-7.41552],[110.28859,-7.41563],[110.28886,-7.41578],[110.289,-7.41571],[110.28909,-7.41563],[110.28917,-7.41556],[110.28926,-7.41539],[110.2894,-7.41511],[110.28947,-7.41495],[110.28957,-7.41501],[110.28971,-7.41513],[110.28973,-7.41518],[110.28979,-7.41527],[110.28988,-7.41539],[110.28987,-7.4154],[110.28978,-7.4155],[110.28968,-7.41562],[110.28966,-7.41564],[110.28965,-7.41566],[110.28964,-7.41569],[110.28962,-7.41573],[110.28962,-7.41585],[110.28963,-7.41586],[110.28966,-7.41599],[110.28969,-7.41608],[110.28973,-7.41619],[110.28978,-7.41631],[110.28982,-7.41639],[110.28983,-7.41644],[110.28983,-7.41649],[110.28982,-7.41651],[110.28981,-7.41654],[110.28978,-7.41657],[110.28973,-7.41661],[110.28972,-7.41661],[110.28971,-7.41662],[110.28969,-7.41663],[110.28961,-7.41665],[110.28954,-7.41666],[110.28944,-7.41667],[110.28929,-7.41667],[110.28923,-7.41666],[110.28914,-7.41664],[110.28894,-7.4166],[110.28886,-7.4166],[110.28882,-7.41661],[110.28872,-7.41665],[110.28868,-7.4167],[110.28865,-7.41676],[110.28864,-7.41682],[110.28865,-7.4169],[110.28865,-7.41691],[110.28866,-7.417],[110.28867,-7.41702],[110.28872,-7.41717],[110.28874,-7.41724],[110.28874,-7.41732],[110.28873,-7.41738],[110.2887,-7.4175],[110.28866,-7.41763],[110.28862,-7.41775],[110.28861,-7.41779],[110.28855,-7.41793],[110.28848,-7.41807],[110.28845,-7.4181],[110.2884,-7.41814],[110.28832,-7.41818],[110.28831,-7.41819],[110.2883,-7.41819],[110.28828,-7.41821],[110.28827,-7.41821],[110.28827,-7.41822],[110.28824,-7.41824],[110.28822,-7.41827],[110.28816,-7.41833],[110.2881,-7.41841],[110.28808,-7.41843],[110.28801,-7.41852],[110.28795,-7.4186],[110.28787,-7.41871],[110.28775,-7.41887],[110.28769,-7.41898],[110.28764,-7.41907],[110.28762,-7.41915],[110.28761,-7.41915],[110.28761,-7.41918],[110.28757,-7.41927],[110.28754,-7.41935],[110.28753,-7.41938],[110.28751,-7.41945],[110.28747,-7.41955],[110.28741,-7.41968],[110.28732,-7.41984],[110.28725,-7.41995],[110.28725,-7.41997],[110.28721,-7.42004],[110.2872,-7.42005],[110.2871,-7.42025],[110.28705,-7.42033],[110.28699,-7.42042],[110.28693,-7.42052],[110.28692,-7.42057],[110.28692,-7.42071],[110.28693,-7.42073],[110.28694,-7.42076],[110.28695,-7.42078],[110.28696,-7.42079],[110.28697,-7.42082],[110.28699,-7.42084],[110.28705,-7.42094],[110.28707,-7.42096],[110.28711,-7.42102],[110.28717,-7.42109],[110.28719,-7.42111],[110.28719,-7.42112],[110.28721,-7.42114],[110.28724,-7.42118],[110.28725,-7.4212],[110.2873,-7.42124],[110.28735,-7.4213],[110.28738,-7.42135],[110.28742,-7.42139],[110.28744,-7.42142],[110.28745,-7.42146],[110.28746,-7.42151],[110.28746,-7.42155],[110.28745,-7.42158],[110.28744,-7.42162],[110.28738,-7.42169],[110.28737,-7.4217],[110.28725,-7.42184],[110.28719,-7.4219],[110.28713,-7.42195],[110.28708,-7.42199],[110.28703,-7.42206],[110.28699,-7.42211],[110.28694,-7.42214],[110.28688,-7.42216],[110.28683,-7.42216],[110.28679,-7.42215],[110.28675,-7.42213],[110.2867,-7.42209],[110.28665,-7.42204],[110.28661,-7.42198],[110.28659,-7.42194],[110.28657,-7.42187],[110.28655,-7.42179],[110.28654,-7.4217],[110.28653,-7.42168],[110.28652,-7.42157],[110.28652,-7.42145],[110.28654,-7.42138],[110.28656,-7.4213],[110.28659,-7.42121],[110.2866,-7.42116],[110.2866,-7.42115],[110.28663,-7.42106],[110.28665,-7.42094],[110.28664,-7.42089],[110.28664,-7.42085],[110.28663,-7.42078],[110.2866,-7.4207],[110.28654,-7.4206],[110.28651,-7.42058],[110.28645,-7.42056],[110.28641,-7.42054],[110.28632,-7.42054],[110.28625,-7.42055],[110.28612,-7.42058],[110.28607,-7.4206],[110.28597,-7.42062],[110.28587,-7.42068],[110.28579,-7.42074],[110.28576,-7.42078],[110.28575,-7.42085],[110.28574,-7.42094],[110.28574,-7.42115],[110.28575,-7.42123],[110.28577,-7.4213],[110.2858,-7.42136],[110.28581,-7.42137],[110.28584,-7.42144],[110.28588,-7.42151],[110.28589,-7.42156],[110.28589,-7.42161],[110.28588,-7.42167],[110.28586,-7.42173],[110.28583,-7.42177],[110.28581,-7.4218],[110.28575,-7.42184],[110.28574,-7.42185],[110.28573,-7.42185],[110.28572,-7.42186],[110.28569,-7.42187],[110.28568,-7.42188],[110.28558,-7.42192],[110.28549,-7.42196],[110.28548,-7.42196],[110.28541,-7.42198],[110.28529,-7.42203],[110.28522,-7.42206],[110.28516,-7.4221],[110.28509,-7.42214],[110.28504,-7.42217],[110.285,-7.42219],[110.28496,-7.4222],[110.28493,-7.42221],[110.28486,-7.42224],[110.28479,-7.42226],[110.28472,-7.42227],[110.28466,-7.42228],[110.28456,-7.42228],[110.28447,-7.42225],[110.28444,-7.42222],[110.2844,-7.42217],[110.28435,-7.42208],[110.28429,-7.42196],[110.28424,-7.42183],[110.2842,-7.42176],[110.28415,-7.42172],[110.28412,-7.4217],[110.28406,-7.42168],[110.284,-7.42169],[110.28392,-7.4217],[110.28376,-7.42178],[110.28371,-7.42182],[110.28368,-7.42185],[110.28366,-7.42188],[110.28361,-7.42197],[110.2836,-7.422],[110.28359,-7.42202],[110.28358,-7.42206],[110.28357,-7.42213],[110.28357,-7.42214],[110.28358,-7.42215],[110.28358,-7.42219],[110.28361,-7.4223],[110.28367,-7.42245],[110.28372,-7.42255],[110.28375,-7.4226],[110.28376,-7.42262],[110.28384,-7.42272],[110.28391,-7.4228],[110.28391,-7.42281],[110.28392,-7.42282],[110.28397,-7.42289],[110.28398,-7.42293],[110.28398,-7.42306],[110.28396,-7.42315],[110.2839,-7.42326],[110.28386,-7.42332],[110.28382,-7.42336],[110.28382,-7.42337],[110.28381,-7.42337],[110.28372,-7.42342],[110.28359,-7.42348],[110.2835,-7.42352],[110.28343,-7.42358],[110.28341,-7.42361],[110.28339,-7.42362],[110.28333,-7.42371],[110.28333,-7.42372],[110.28331,-7.42376],[110.28329,-7.42384],[110.28328,-7.42395],[110.28328,-7.42403],[110.28329,-7.42409],[110.2833,-7.42414],[110.2833,-7.42418],[110.28336,-7.4244],[110.28337,-7.42447],[110.28337,-7.42451],[110.28335,-7.42456],[110.2833,-7.42461],[110.28326,-7.42464],[110.2832,-7.42466],[110.28319,-7.42466],[110.28315,-7.42467],[110.28295,-7.42462],[110.28284,-7.42459],[110.28277,-7.42457],[110.28255,-7.4245],[110.28237,-7.42446],[110.28233,-7.42446],[110.2823,-7.42447],[110.28226,-7.42448],[110.28221,-7.42453],[110.28219,-7.42459],[110.28219,-7.4247],[110.2822,-7.4248],[110.28222,-7.4249],[110.28225,-7.42504],[110.28228,-7.42514],[110.28231,-7.42522],[110.28231,-7.42523],[110.28232,-7.42524],[110.28237,-7.42535],[110.28244,-7.42548],[110.28248,-7.42558],[110.28251,-7.4257],[110.28254,-7.42583],[110.28256,-7.4259],[110.28256,-7.42592],[110.28257,-7.42596],[110.28259,-7.42618],[110.2826,-7.42631],[110.2826,-7.42679],[110.28259,-7.4269],[110.28256,-7.42708],[110.28252,-7.42724],[110.28249,-7.42742],[110.28247,-7.4275],[110.28247,-7.42766],[110.28248,-7.42775],[110.28248,-7.42781],[110.28251,-7.42798],[110.28252,-7.42804],[110.28254,-7.4281],[110.28254,-7.42821],[110.28255,-7.42823],[110.28255,-7.42826],[110.28256,-7.42832],[110.28256,-7.42842],[110.2826,-7.42857],[110.28261,-7.42863],[110.28257,-7.42871],[110.28255,-7.42871],[110.2825,-7.42876],[110.28243,-7.42882],[110.28227,-7.42892],[110.28224,-7.42894],[110.2822,-7.42897],[110.28215,-7.42901],[110.28214,-7.42905],[110.28214,-7.4291],[110.28216,-7.4292],[110.28224,-7.42936],[110.28227,-7.42943],[110.2823,-7.42948],[110.28234,-7.42956],[110.28248,-7.42968],[110.28254,-7.42972],[110.28263,-7.42977],[110.28289,-7.42989],[110.28306,-7.42997],[110.28311,-7.43001],[110.28314,-7.43007],[110.28315,-7.43014],[110.28314,-7.43021],[110.28305,-7.43036],[110.28301,-7.43041],[110.28296,-7.43047],[110.28293,-7.43053],[110.28292,-7.43061],[110.28293,-7.43064],[110.283,-7.43071],[110.28317,-7.4308],[110.28327,-7.43091],[110.28334,-7.43102],[110.28341,-7.43114],[110.28346,-7.43127],[110.28349,-7.4314],[110.28355,-7.43167],[110.28361,-7.43183],[110.2837,-7.432],[110.28381,-7.4322],[110.28399,-7.43249],[110.28411,-7.43276],[110.28424,-7.43302],[110.28433,-7.43306],[110.28444,-7.43304],[110.28447,-7.43304],[110.28462,-7.433],[110.28488,-7.43292],[110.28507,-7.4329],[110.28521,-7.43296],[110.28524,-7.43304],[110.28527,-7.43317],[110.28529,-7.43322],[110.28533,-7.43337],[110.28537,-7.43341],[110.2854,-7.43343],[110.28549,-7.43348],[110.28565,-7.43353],[110.2859,-7.43356],[110.286,-7.43357],[110.2861,-7.43361],[110.28624,-7.43375],[110.28625,-7.43377],[110.2863,-7.43383],[110.28643,-7.43391],[110.28655,-7.43396],[110.28657,-7.43397],[110.28668,-7.43402],[110.2868,-7.43409],[110.28687,-7.43413],[110.28696,-7.43417],[110.28702,-7.43418],[110.28707,-7.43417],[110.28713,-7.43414],[110.28722,-7.43409],[110.28726,-7.43407],[110.28735,-7.43401],[110.28736,-7.434],[110.28768,-7.43392],[110.2878,-7.43391],[110.28788,-7.43391],[110.28795,-7.43392],[110.28808,-7.43395],[110.28818,-7.43395],[110.28826,-7.43393],[110.28836,-7.4339],[110.28846,-7.43384],[110.28858,-7.43381],[110.28868,-7.43381],[110.28873,-7.43383],[110.28876,-7.43388],[110.28883,-7.43403],[110.2889,-7.43424],[110.28891,-7.43428],[110.28893,-7.43434],[110.28899,-7.43442],[110.28905,-7.43447],[110.28914,-7.4345],[110.28916,-7.43451],[110.28928,-7.43455],[110.28945,-7.43457],[110.28966,-7.43459],[110.28994,-7.4346],[110.29034,-7.4346],[110.29051,-7.43461],[110.29061,-7.43462],[110.2909,-7.43462],[110.29103,-7.43464],[110.29112,-7.43465],[110.29113,-7.43465],[110.29132,-7.43463],[110.29147,-7.43459],[110.29158,-7.43455],[110.29169,-7.4345],[110.2918,-7.43442],[110.29192,-7.43432],[110.29203,-7.43423],[110.2921,-7.43419],[110.29217,-7.43414],[110.29232,-7.43412],[110.29246,-7.43414],[110.2926,-7.43421],[110.29273,-7.4343],[110.2929,-7.4344],[110.29304,-7.43446],[110.29315,-7.4345],[110.29316,-7.4345],[110.29333,-7.43454],[110.29345,-7.43455],[110.29377,-7.43455],[110.29388,-7.43454],[110.29398,-7.43462],[110.294,-7.43468],[110.29402,-7.43475],[110.29402,-7.43486],[110.29403,-7.43492],[110.29403,-7.43508],[110.29405,-7.43517],[110.29409,-7.43523],[110.29413,-7.43526],[110.29415,-7.43528],[110.29417,-7.43528],[110.29425,-7.43529],[110.29431,-7.43529],[110.29439,-7.43528],[110.29448,-7.43526],[110.29453,-7.43521],[110.29459,-7.43512],[110.29462,-7.43506],[110.29465,-7.43496],[110.29468,-7.43487],[110.29472,-7.43477],[110.29477,-7.43473],[110.29484,-7.43473],[110.29493,-7.43474],[110.29501,-7.43479],[110.29515,-7.43489],[110.29537,-7.43507],[110.29558,-7.43517],[110.29569,-7.43517],[110.29572,-7.43514],[110.29579,-7.43504],[110.29587,-7.43492],[110.29596,-7.43478],[110.29598,-7.43475],[110.29601,-7.43472],[110.29608,-7.43472],[110.2961,-7.43473],[110.29618,-7.43479],[110.29632,-7.43497],[110.29637,-7.43504],[110.29645,-7.43507],[110.29655,-7.43507],[110.29662,-7.43502],[110.2967,-7.43495],[110.29678,-7.43485],[110.29685,-7.4348],[110.29686,-7.43479],[110.29698,-7.43474],[110.29706,-7.43474],[110.29725,-7.43477],[110.29742,-7.43484],[110.2976,-7.43486],[110.2978,-7.4349],[110.29789,-7.43493],[110.29799,-7.43499],[110.29802,-7.435],[110.29819,-7.43507],[110.29847,-7.43519],[110.29863,-7.43528],[110.29877,-7.43531],[110.29883,-7.43531],[110.29894,-7.43529],[110.299,-7.43524],[110.29919,-7.43518],[110.2992,-7.43518],[110.29937,-7.43519],[110.29944,-7.43521],[110.29957,-7.43524],[110.29973,-7.43534],[110.29984,-7.43541],[110.29991,-7.43546],[110.30005,-7.43554],[110.30047,-7.43572],[110.30054,-7.43574],[110.3006,-7.43576],[110.30073,-7.43576],[110.30097,-7.43571],[110.30111,-7.43566],[110.30118,-7.43561],[110.30121,-7.43556],[110.30124,-7.43548],[110.30128,-7.4354],[110.30132,-7.43533],[110.30137,-7.43524],[110.30142,-7.4352],[110.30152,-7.4352],[110.30162,-7.43523],[110.30177,-7.43527],[110.30195,-7.43528],[110.3021,-7.43526],[110.30237,-7.43522],[110.30257,-7.43524],[110.30275,-7.4353],[110.30279,-7.4353],[110.30288,-7.43532],[110.30305,-7.43532],[110.30312,-7.43531],[110.30319,-7.43527],[110.30323,-7.43522],[110.30337,-7.43504],[110.30348,-7.43493],[110.30357,-7.43493],[110.30361,-7.43497],[110.30366,-7.43504],[110.30372,-7.43513],[110.30375,-7.43523],[110.30379,-7.43537],[110.30382,-7.43544],[110.30384,-7.43547],[110.30386,-7.43552],[110.3039,-7.43555],[110.30399,-7.4356],[110.3041,-7.43564],[110.30416,-7.43565],[110.30422,-7.43565],[110.30438,-7.43566],[110.30453,-7.43568],[110.30461,-7.43567],[110.30463,-7.43567],[110.30471,-7.43568],[110.30475,-7.43568],[110.3048,-7.43567],[110.30485,-7.43565],[110.30488,-7.43562],[110.3049,-7.43558],[110.30492,-7.43555],[110.30493,-7.43549],[110.30494,-7.43545],[110.30496,-7.43541],[110.30497,-7.43532],[110.30503,-7.43525],[110.30509,-7.43519],[110.30511,-7.43518],[110.30518,-7.43516],[110.30527,-7.43515],[110.30535,-7.43517],[110.30543,-7.43521],[110.30559,-7.43537],[110.30567,-7.43548],[110.30567,-7.43549],[110.30571,-7.43553],[110.30582,-7.43557],[110.30594,-7.43561],[110.30601,-7.43561],[110.30605,-7.4356],[110.3061,-7.43557],[110.30611,-7.43557],[110.30615,-7.43554],[110.30619,-7.4355],[110.30622,-7.43548],[110.30634,-7.43546],[110.30642,-7.43546],[110.30661,-7.43548],[110.30681,-7.4355],[110.30695,-7.4355],[110.30698,-7.43544],[110.30699,-7.43541],[110.30707,-7.43506],[110.30711,-7.4349],[110.30721,-7.43483],[110.30723,-7.43482],[110.30754,-7.43482],[110.30757,-7.43481],[110.30768,-7.43475],[110.30771,-7.43471],[110.30782,-7.43447],[110.30786,-7.4344],[110.30791,-7.43424],[110.30806,-7.43422],[110.30831,-7.43428],[110.30849,-7.43432],[110.30861,-7.43425],[110.30877,-7.43402],[110.30887,-7.43387],[110.30892,-7.43384],[110.30928,-7.43363],[110.30959,-7.43352],[110.30988,-7.43346],[110.31009,-7.43353],[110.31039,-7.43366],[110.31099,-7.43381],[110.31123,-7.43379],[110.31134,-7.43379],[110.31154,-7.43362],[110.31181,-7.43343],[110.31186,-7.43343],[110.31212,-7.4334],[110.31246,-7.43337],[110.3125,-7.43337],[110.31265,-7.43333],[110.31279,-7.4333],[110.31283,-7.43324],[110.31307,-7.43285],[110.31308,-7.43284],[110.31315,-7.43281],[110.31334,-7.43273],[110.31335,-7.43273],[110.3134,-7.43274],[110.31365,-7.43281],[110.31366,-7.43281],[110.314,-7.433],[110.31426,-7.433],[110.31437,-7.43297],[110.31529,-7.43268],[110.31611,-7.43245],[110.31667,-7.43218],[110.31695,-7.43207],[110.31745,-7.43186],[110.31747,-7.43186],[110.31839,-7.4317],[110.31917,-7.4317],[110.31955,-7.43168],[110.31976,-7.43164],[110.31981,-7.43163],[110.31999,-7.43148],[110.32002,-7.43118],[110.32007,-7.43095],[110.32031,-7.43079],[110.32112,-7.43065],[110.32196,-7.43065],[110.3229,-7.43081],[110.32346,-7.43096],[110.32419,-7.4312],[110.32454,-7.43124],[110.3248,-7.43119],[110.32503,-7.43092],[110.32525,-7.43075],[110.32554,-7.43056],[110.32587,-7.4305],[110.32609,-7.43059],[110.32618,-7.43072],[110.32631,-7.43098],[110.32632,-7.43098],[110.32646,-7.43114],[110.32698,-7.43128],[110.3273,-7.4313],[110.32777,-7.43121],[110.32838,-7.43116],[110.32886,-7.4311],[110.32913,-7.431],[110.32967,-7.43094],[110.33004,-7.43103],[110.33019,-7.43104],[110.33038,-7.43103],[110.33051,-7.43094],[110.33066,-7.43079],[110.33082,-7.43066],[110.33112,-7.4304],[110.33117,-7.43035],[110.33152,-7.43015],[110.33178,-7.43003],[110.3318,-7.43002],[110.33237,-7.4296],[110.33262,-7.42936],[110.33311,-7.42868],[110.33337,-7.42828],[110.33337,-7.42827],[110.33386,-7.42768],[110.33395,-7.42747],[110.33422,-7.4272],[110.33424,-7.42719],[110.33449,-7.42709],[110.33504,-7.42711],[110.33505,-7.42711],[110.33567,-7.4272],[110.33572,-7.42721],[110.33623,-7.42721],[110.33662,-7.42714],[110.33706,-7.42699],[110.33761,-7.42676],[110.33809,-7.4265],[110.33812,-7.42648],[110.33852,-7.4262],[110.33852,-7.42619],[110.33853,-7.42619],[110.33905,-7.426],[110.33944,-7.42591],[110.34015,-7.42574],[110.34082,-7.42565],[110.34086,-7.42565],[110.34132,-7.42562],[110.34134,-7.42562],[110.34204,-7.42565],[110.34307,-7.42582],[110.34344,-7.42582],[110.34357,-7.42578],[110.34371,-7.42573],[110.34373,-7.42572],[110.34416,-7.42557],[110.34463,-7.42537],[110.34505,-7.42532],[110.34544,-7.42524],[110.34582,-7.42511],[110.3467,-7.42459],[110.34671,-7.42459],[110.34683,-7.42453],[110.34698,-7.42445],[110.34735,-7.42432],[110.34801,-7.42417],[110.34803,-7.42417],[110.34871,-7.42408],[110.34886,-7.42406],[110.349,-7.42405],[110.34988,-7.424],[110.35038,-7.42391],[110.35091,-7.42362],[110.35095,-7.4236],[110.35146,-7.42329],[110.3515,-7.42327],[110.35183,-7.42308],[110.35185,-7.42307],[110.35224,-7.42291],[110.35258,-7.4229],[110.35266,-7.4229],[110.35338,-7.42292],[110.35338,-7.42293],[110.35384,-7.42297],[110.35406,-7.42299],[110.35463,-7.42301],[110.3552,-7.42284],[110.35569,-7.42251],[110.35628,-7.42196],[110.35649,-7.42174],[110.35665,-7.42162],[110.35668,-7.42159],[110.35703,-7.42151],[110.3572,-7.4215],[110.35733,-7.42151],[110.35768,-7.42153],[110.35787,-7.4215],[110.35793,-7.42146],[110.35797,-7.4214],[110.35811,-7.42124],[110.35816,-7.42116],[110.35819,-7.4211],[110.35821,-7.42105],[110.35797,-7.42112],[110.35776,-7.42116],[110.35754,-7.42116],[110.35745,-7.42114],[110.35732,-7.42112],[110.35718,-7.42112],[110.35692,-7.42114],[110.35658,-7.42116],[110.35654,-7.42117],[110.35636,-7.42117],[110.35628,-7.42114],[110.35627,-7.42114],[110.35613,-7.42107],[110.35598,-7.42092],[110.35584,-7.42081],[110.35572,-7.42075],[110.35553,-7.42066],[110.35529,-7.42056],[110.35528,-7.42056],[110.35512,-7.42043],[110.35498,-7.42035],[110.35494,-7.42033],[110.35489,-7.42031],[110.35489,-7.4203],[110.35479,-7.42028],[110.35475,-7.42028],[110.35471,-7.42027],[110.3547,-7.42027],[110.35458,-7.42028],[110.3545,-7.4203],[110.35423,-7.42037],[110.35422,-7.42037],[110.35412,-7.42038],[110.35397,-7.4204],[110.35384,-7.42041],[110.35359,-7.4204],[110.35352,-7.4204],[110.35349,-7.42039],[110.35321,-7.42037],[110.35299,-7.42034],[110.35297,-7.42033],[110.35277,-7.42029],[110.3525,-7.42024],[110.35238,-7.42023],[110.35223,-7.42021],[110.3521,-7.4202],[110.35174,-7.4202],[110.35156,-7.42022],[110.35141,-7.42023],[110.3514,-7.42023],[110.35119,-7.42024],[110.35097,-7.42026],[110.35066,-7.42026],[110.35059,-7.42025],[110.35055,-7.42024],[110.35032,-7.42019],[110.35005,-7.42013],[110.34977,-7.42008],[110.34965,-7.42005],[110.34963,-7.42004],[110.34947,-7.41999],[110.34931,-7.41993],[110.34908,-7.41987],[110.34884,-7.41983],[110.34868,-7.41982],[110.34859,-7.41981],[110.34856,-7.41979],[110.34772,-7.41966],[110.34724,-7.41962],[110.34722,-7.41947],[110.3472,-7.41933],[110.34717,-7.41913],[110.34756,-7.41915],[110.34758,-7.41889],[110.34718,-7.41854],[110.34687,-7.41842],[110.34654,-7.41838],[110.3463,-7.41833],[110.34615,-7.41828],[110.34599,-7.41824],[110.34587,-7.41818],[110.34562,-7.41794],[110.34559,-7.41776],[110.34556,-7.41763],[110.3455,-7.41733],[110.34545,-7.41716],[110.34543,-7.41708],[110.34543,-7.41707],[110.34528,-7.41682],[110.34492,-7.41646],[110.34464,-7.41622],[110.34444,-7.416],[110.34435,-7.4159],[110.34427,-7.41553],[110.34421,-7.4152],[110.34419,-7.41491],[110.34418,-7.41438],[110.34406,-7.41433],[110.34388,-7.41426],[110.34364,-7.41418],[110.34358,-7.41415],[110.34336,-7.41362],[110.34329,-7.41318],[110.34331,-7.41289],[110.34324,-7.41249],[110.34341,-7.41242],[110.34342,-7.41242],[110.34295,-7.41225],[110.3424,-7.41199],[110.34194,-7.41143],[110.34177,-7.41111],[110.34155,-7.41038],[110.34155,-7.41037],[110.34126,-7.40932],[110.3412,-7.4091],[110.34082,-7.40814],[110.34041,-7.40752],[110.34002,-7.40707],[110.33949,-7.40657],[110.33948,-7.40657],[110.33936,-7.40633],[110.33935,-7.40632],[110.33923,-7.40604],[110.33919,-7.40595],[110.33922,-7.40562],[110.33939,-7.4053],[110.33944,-7.40522],[110.33949,-7.40488],[110.33952,-7.40453],[110.33952,-7.40433],[110.33946,-7.4041],[110.33943,-7.40406],[110.33939,-7.40398],[110.33939,-7.40391],[110.33943,-7.40386],[110.33947,-7.40379],[110.33953,-7.40371],[110.33957,-7.40359],[110.33958,-7.40344],[110.33957,-7.40337],[110.33954,-7.40332],[110.33949,-7.40329],[110.33944,-7.40327],[110.33934,-7.40324],[110.33929,-7.40319],[110.33926,-7.40304],[110.33945,-7.40283],[110.33958,-7.40289],[110.33966,-7.40289],[110.33975,-7.40286],[110.33986,-7.40289],[110.33998,-7.40301],[110.34002,-7.4031],[110.34004,-7.40317],[110.34012,-7.40326],[110.3402,-7.40333],[110.34033,-7.40333],[110.34045,-7.40334],[110.34051,-7.40338],[110.34057,-7.40349],[110.34065,-7.40365],[110.34079,-7.40386],[110.3409,-7.40395],[110.34101,-7.40399],[110.34127,-7.40399],[110.34148,-7.40395],[110.34158,-7.40391],[110.34159,-7.4039],[110.34171,-7.40382],[110.34181,-7.40367],[110.34186,-7.40359],[110.34187,-7.40351],[110.34187,-7.4034],[110.34186,-7.40333],[110.34186,-7.40327],[110.34189,-7.40312],[110.34191,-7.40303],[110.34194,-7.40295],[110.34199,-7.40284],[110.34199,-7.40276],[110.34197,-7.40265],[110.34193,-7.40251],[110.34198,-7.40236],[110.342,-7.40221],[110.342,-7.40212],[110.34193,-7.40203],[110.34184,-7.40196],[110.34176,-7.40186],[110.3417,-7.40179],[110.34164,-7.40169],[110.3416,-7.40159],[110.3416,-7.40148],[110.34159,-7.40135],[110.34157,-7.40124],[110.34151,-7.4011],[110.34149,-7.40098],[110.34143,-7.40079],[110.3414,-7.40063],[110.34141,-7.40042],[110.34145,-7.40023],[110.34145,-7.40021],[110.3415,-7.4],[110.34156,-7.39982],[110.34149,-7.39963],[110.34146,-7.39949],[110.34146,-7.39923],[110.34144,-7.39903],[110.34146,-7.39892],[110.3414,-7.39878],[110.34126,-7.39864],[110.34114,-7.39851],[110.3411,-7.39831],[110.34101,-7.39811],[110.34079,-7.39799],[110.34052,-7.39791],[110.34029,-7.39784],[110.34028,-7.39783],[110.34021,-7.39778],[110.34011,-7.39769],[110.34004,-7.39754],[110.33999,-7.39736],[110.33997,-7.3972],[110.33996,-7.39709],[110.33991,-7.39676],[110.33979,-7.39657],[110.33965,-7.39636],[110.3396,-7.39629],[110.3396,-7.39618],[110.33964,-7.3959],[110.33962,-7.39573],[110.33962,-7.39523],[110.33961,-7.39478],[110.33969,-7.39391],[110.33971,-7.39377],[110.33983,-7.39367],[110.33996,-7.39362],[110.34003,-7.39341],[110.34007,-7.3932],[110.34014,-7.39307],[110.34019,-7.39294],[110.34014,-7.39286],[110.34,-7.39283],[110.34005,-7.39266],[110.34022,-7.39246],[110.34036,-7.39233],[110.3406,-7.39212],[110.34116,-7.39186],[110.34141,-7.39217],[110.34177,-7.39263],[110.3425,-7.39218],[110.34321,-7.39191],[110.34322,-7.39191],[110.34375,-7.39176],[110.34377,-7.39176],[110.344,-7.39171],[110.34402,-7.3917],[110.34427,-7.39169],[110.34436,-7.39169],[110.34463,-7.39171],[110.34468,-7.39172],[110.34492,-7.39175],[110.34493,-7.39176],[110.34503,-7.39178],[110.3452,-7.39182],[110.34549,-7.3919],[110.34555,-7.39192],[110.3456,-7.39195],[110.34592,-7.39209],[110.34599,-7.39213],[110.34637,-7.39227],[110.34667,-7.39237],[110.34701,-7.39234],[110.34727,-7.39232],[110.34738,-7.39227],[110.34742,-7.39225],[110.3479,-7.39203],[110.34817,-7.39178],[110.34849,-7.39145],[110.34853,-7.39141],[110.34876,-7.39119],[110.3491,-7.39107],[110.34954,-7.39068],[110.34955,-7.39068],[110.34996,-7.3905],[110.35049,-7.38992],[110.35109,-7.38966],[110.35161,-7.38942],[110.35263,-7.38911],[110.3534,-7.38899],[110.35399,-7.38884],[110.3545,-7.38873],[110.35494,-7.38872],[110.35512,-7.38861],[110.35539,-7.38849],[110.35572,-7.38829],[110.35623,-7.38799],[110.35706,-7.38776],[110.35756,-7.38763],[110.35793,-7.38753],[110.35879,-7.38732],[110.35912,-7.38724],[110.35929,-7.3872],[110.35995,-7.38705],[110.36007,-7.38702],[110.3607,-7.38691],[110.36126,-7.38681],[110.36186,-7.38668],[110.36219,-7.3866],[110.36235,-7.38656],[110.36269,-7.38647],[110.36309,-7.38626],[110.36334,-7.38614],[110.36341,-7.38606],[110.36369,-7.38581],[110.36369,-7.3858],[110.36371,-7.38579],[110.36403,-7.38513],[110.36411,-7.38472],[110.36422,-7.38415],[110.36427,-7.38395],[110.36428,-7.38382],[110.36438,-7.38315],[110.36442,-7.38286],[110.36447,-7.38261],[110.36457,-7.38215],[110.36466,-7.3819],[110.36474,-7.3817],[110.36475,-7.38148],[110.36477,-7.38085],[110.36478,-7.38062],[110.36461,-7.3797],[110.36453,-7.37956],[110.36427,-7.37913],[110.36378,-7.37859],[110.36329,-7.37815],[110.36323,-7.3781],[110.3624,-7.37764],[110.36154,-7.37722],[110.36092,-7.37702],[110.36036,-7.37685],[110.35928,-7.3766],[110.35857,-7.3764],[110.35814,-7.37627],[110.35762,-7.37615],[110.3573,-7.37607],[110.35652,-7.3758],[110.35638,-7.37575],[110.35615,-7.3755],[110.35603,-7.37538],[110.35562,-7.375],[110.35559,-7.37416],[110.3556,-7.37414],[110.3556,-7.37413],[110.35572,-7.37376],[110.35583,-7.37359],[110.35586,-7.37355],[110.3559,-7.37347],[110.3562,-7.37294],[110.35626,-7.37293],[110.35705,-7.3728],[110.3575,-7.37269],[110.35771,-7.37263],[110.35781,-7.3726],[110.35797,-7.37255],[110.35827,-7.37241],[110.35829,-7.3724],[110.35841,-7.37224],[110.35844,-7.37203],[110.35849,-7.37174],[110.3587,-7.37109],[110.3591,-7.37105],[110.35918,-7.37105],[110.35939,-7.37103],[110.35946,-7.37102],[110.35949,-7.37102],[110.35982,-7.37095],[110.36022,-7.37086],[110.36003,-7.37056],[110.35998,-7.37036],[110.35998,-7.37035],[110.35997,-7.37016],[110.36,-7.37003],[110.36008,-7.36995],[110.36021,-7.3699],[110.3604,-7.36983],[110.36066,-7.36977],[110.36083,-7.36972],[110.36095,-7.36967],[110.36111,-7.36965],[110.36128,-7.36961],[110.36146,-7.36956],[110.36151,-7.3695],[110.36152,-7.36946],[110.36153,-7.36941],[110.3615,-7.36932],[110.3614,-7.36921],[110.36127,-7.36907],[110.36103,-7.36894],[110.36085,-7.36886],[110.36051,-7.36877],[110.36031,-7.36876],[110.36017,-7.36873],[110.36007,-7.36864],[110.36002,-7.36849],[110.35996,-7.36823],[110.35996,-7.36803],[110.36004,-7.36786],[110.36019,-7.36756],[110.36031,-7.36731],[110.36037,-7.36718],[110.36046,-7.367],[110.36049,-7.36695],[110.36078,-7.36639],[110.36089,-7.36619],[110.36095,-7.36609],[110.36096,-7.36608],[110.36131,-7.36581],[110.36199,-7.36573],[110.36231,-7.36579],[110.36262,-7.36584],[110.36318,-7.36599],[110.36368,-7.36609],[110.36393,-7.36603],[110.36395,-7.36601],[110.36397,-7.36598],[110.36402,-7.36593],[110.36403,-7.36579],[110.36409,-7.36528],[110.36415,-7.36511],[110.36415,-7.3651],[110.36425,-7.3649],[110.36444,-7.36465],[110.36466,-7.36443],[110.36469,-7.36434],[110.36475,-7.3642],[110.36492,-7.36383],[110.36493,-7.36358],[110.36493,-7.36346],[110.36495,-7.36326],[110.36495,-7.36315],[110.36499,-7.36303],[110.36504,-7.36294],[110.36511,-7.3629],[110.36537,-7.36284],[110.36551,-7.3628],[110.36557,-7.36278],[110.36574,-7.3627],[110.366,-7.36252],[110.36605,-7.36245],[110.36607,-7.36242],[110.36612,-7.3623],[110.36617,-7.36227],[110.36626,-7.36223],[110.36629,-7.36222],[110.36632,-7.3622],[110.36632,-7.36216],[110.36631,-7.36209],[110.36634,-7.36201],[110.36642,-7.36186],[110.36656,-7.36162],[110.36673,-7.36148],[110.36674,-7.36147],[110.36676,-7.36146],[110.36683,-7.36139],[110.36683,-7.36138],[110.36688,-7.36134],[110.36692,-7.36132],[110.367,-7.36129],[110.36705,-7.36127],[110.36714,-7.36124],[110.36715,-7.36123],[110.3672,-7.36121],[110.36744,-7.36115],[110.36746,-7.36114],[110.36747,-7.36114],[110.36771,-7.36105],[110.36785,-7.361],[110.36791,-7.36098],[110.36807,-7.36093],[110.36829,-7.36084],[110.3687,-7.36064],[110.36874,-7.36062],[110.36877,-7.36058],[110.36879,-7.36055],[110.36896,-7.3603],[110.36914,-7.35987],[110.3692,-7.35971],[110.36934,-7.35934],[110.36938,-7.35922],[110.3694,-7.35917],[110.36965,-7.3587],[110.36985,-7.35851],[110.3699,-7.35847],[110.36994,-7.35843],[110.37003,-7.35835],[110.37045,-7.35817],[110.37057,-7.35812],[110.37095,-7.35797],[110.37096,-7.35796],[110.37118,-7.35755],[110.37143,-7.35708],[110.37156,-7.35689],[110.37161,-7.35682],[110.37162,-7.35681],[110.37171,-7.35669],[110.37172,-7.35664],[110.37179,-7.35647],[110.37188,-7.35644],[110.37223,-7.35632],[110.37245,-7.35625],[110.37284,-7.35613],[110.37339,-7.35594],[110.37369,-7.35579],[110.37375,-7.35574],[110.37392,-7.35558],[110.374,-7.3552],[110.37405,-7.35495],[110.37407,-7.35483],[110.37404,-7.35445],[110.37403,-7.35429],[110.37405,-7.35414],[110.37411,-7.35403],[110.37413,-7.35398],[110.37417,-7.35396],[110.37424,-7.35393],[110.37443,-7.35383],[110.37462,-7.35374],[110.37484,-7.35367],[110.37492,-7.35364],[110.375,-7.35362],[110.37532,-7.35356],[110.3758,-7.35349],[110.37588,-7.35349],[110.37641,-7.35346],[110.37678,-7.35352],[110.37684,-7.35353],[110.37704,-7.35361],[110.37734,-7.3538],[110.37738,-7.35376],[110.37741,-7.35374],[110.37742,-7.35373],[110.37743,-7.35373],[110.37756,-7.35364],[110.37757,-7.35364],[110.37758,-7.35363],[110.37773,-7.35353],[110.37801,-7.35343],[110.37869,-7.35351],[110.37887,-7.35352],[110.37914,-7.35335],[110.37923,-7.3533],[110.3793,-7.35325],[110.37945,-7.35316],[110.3796,-7.35313],[110.37974,-7.35312],[110.37985,-7.3532],[110.37999,-7.35331],[110.38025,-7.35358],[110.38041,-7.35375],[110.38056,-7.35383],[110.38072,-7.35393],[110.381,-7.35396],[110.38113,-7.35398],[110.38122,-7.354],[110.38134,-7.35401],[110.38154,-7.35405],[110.38147,-7.35388],[110.38147,-7.35387],[110.38145,-7.35358],[110.38142,-7.35327],[110.38132,-7.35213],[110.38129,-7.35179],[110.38127,-7.35154],[110.38119,-7.35075],[110.38119,-7.35073],[110.38118,-7.35072],[110.38118,-7.3507],[110.38109,-7.35048],[110.38106,-7.3504],[110.38104,-7.35035],[110.38084,-7.34981],[110.38072,-7.3495],[110.38045,-7.34878],[110.38044,-7.34877],[110.38011,-7.34856],[110.3801,-7.34856],[110.37993,-7.34827],[110.37979,-7.34774],[110.37967,-7.34744],[110.37951,-7.34719],[110.37935,-7.34693],[110.37933,-7.3469],[110.37931,-7.34686],[110.3793,-7.34663],[110.3793,-7.34661],[110.37929,-7.3466],[110.37929,-7.34647],[110.37926,-7.34602],[110.37931,-7.34553],[110.37931,-7.34552],[110.37941,-7.34504],[110.37945,-7.34497],[110.37995,-7.34397],[110.38,-7.3437],[110.37997,-7.34338],[110.37989,-7.34307],[110.37986,-7.34297],[110.37993,-7.34235],[110.37993,-7.34161],[110.37992,-7.34091],[110.37986,-7.3398],[110.37987,-7.33977],[110.3804,-7.33877],[110.3804,-7.33876],[110.38036,-7.33772],[110.38036,-7.33768],[110.38035,-7.33764],[110.38027,-7.33649],[110.37985,-7.33548],[110.37983,-7.33544],[110.37981,-7.33541],[110.37938,-7.33485],[110.37914,-7.33455],[110.37897,-7.33445],[110.37879,-7.33434],[110.3787,-7.33431],[110.37856,-7.33426],[110.37834,-7.33424],[110.37828,-7.33424],[110.37761,-7.33425],[110.37708,-7.3341],[110.37646,-7.33394],[110.375,-7.33353],[110.37448,-7.3335],[110.3739,-7.33346],[110.3728,-7.33314],[110.37076,-7.33253],[110.37071,-7.33252],[110.36654,-7.33112],[110.36652,-7.33111],[110.3652,-7.33089],[110.36459,-7.33079],[110.36263,-7.33046],[110.36146,-7.33027],[110.35888,-7.32921],[110.35764,-7.32814],[110.3576,-7.32809],[110.35703,-7.32732],[110.35702,-7.32731],[110.35654,-7.32691],[110.35607,-7.32656],[110.35563,-7.32637],[110.35514,-7.32617],[110.35393,-7.32586],[110.35335,-7.32576],[110.35214,-7.32555],[110.35108,-7.32539],[110.34981,-7.32528],[110.34776,-7.32518],[110.34715,-7.3252],[110.3463,-7.32523],[110.34592,-7.3253],[110.34585,-7.32532],[110.34544,-7.32545],[110.34543,-7.32546],[110.34416,-7.32593],[110.34411,-7.32595],[110.34408,-7.32596],[110.3437,-7.326],[110.34321,-7.32593],[110.34281,-7.32579],[110.34256,-7.32568],[110.34234,-7.32559],[110.3418,-7.32527],[110.3415,-7.3251],[110.34095,-7.32475],[110.33982,-7.32417],[110.33964,-7.32411],[110.33878,-7.32378],[110.33815,-7.32352],[110.33756,-7.32317],[110.33724,-7.32299],[110.33582,-7.32464],[110.33215,-7.324],[110.33078,-7.32382],[110.33056,-7.32403],[110.33042,-7.32404],[110.33018,-7.3243],[110.32974,-7.32438],[110.32897,-7.32447],[110.32828,-7.32442],[110.3277,-7.32456],[110.3274,-7.32434],[110.32695,-7.32406],[110.32661,-7.32381],[110.32657,-7.32379],[110.32655,-7.32377],[110.32611,-7.32578],[110.32574,-7.32683],[110.3257,-7.32695],[110.32543,-7.3277],[110.32498,-7.32817],[110.3247,-7.32876],[110.32467,-7.32882],[110.32425,-7.32919],[110.32341,-7.32976],[110.3225,-7.33013],[110.3215,-7.3303],[110.32149,-7.33031],[110.32134,-7.33033],[110.32051,-7.33051],[110.32012,-7.33071],[110.31956,-7.33098],[110.31877,-7.33161],[110.31922,-7.33221],[110.31883,-7.3327],[110.31908,-7.33334],[110.31879,-7.33463],[110.31867,-7.33498],[110.31859,-7.33521],[110.31888,-7.33621],[110.31841,-7.33642],[110.31799,-7.33678],[110.31783,-7.3375],[110.31825,-7.33748],[110.31869,-7.33783],[110.31942,-7.33827],[110.31975,-7.33823],[110.32034,-7.33842],[110.32116,-7.33903],[110.3212,-7.33946],[110.32175,-7.33984],[110.32238,-7.34041],[110.32316,-7.34057],[110.32342,-7.34113],[110.32344,-7.34181],[110.32294,-7.3429],[110.32212,-7.34352],[110.32248,-7.34436],[110.32181,-7.34492],[110.32156,-7.34589],[110.32154,-7.34594],[110.32074,-7.34648],[110.32043,-7.34692],[110.32007,-7.34743],[110.32,-7.34753],[110.31988,-7.34757],[110.31893,-7.3479],[110.31856,-7.34827],[110.3178,-7.34905],[110.31756,-7.34992],[110.31745,-7.35012],[110.3172,-7.35058],[110.31704,-7.35085],[110.3168,-7.3513],[110.31679,-7.35134],[110.31666,-7.35222],[110.31664,-7.35242],[110.31567,-7.35216],[110.3153,-7.35248],[110.31556,-7.35294],[110.3157,-7.35317],[110.31493,-7.35353],[110.31408,-7.35419],[110.31347,-7.35417],[110.31332,-7.35417],[110.31262,-7.35435],[110.31146,-7.35518],[110.31138,-7.35516],[110.31047,-7.35495],[110.30992,-7.35561],[110.30933,-7.3554],[110.30888,-7.35494],[110.30881,-7.35488],[110.30814,-7.35478],[110.30724,-7.35497],[110.30643,-7.35565],[110.30632,-7.35574],[110.30529,-7.3559],[110.30518,-7.35592],[110.30388,-7.35619],[110.30332,-7.3571],[110.30204,-7.35825],[110.30145,-7.35842],[110.29998,-7.35886],[110.29904,-7.35913],[110.2985,-7.35929],[110.29881,-7.36],[110.29795,-7.36026],[110.29763,-7.35962],[110.29697,-7.35921],[110.29692,-7.35918],[110.29567,-7.35933],[110.29484,-7.36026],[110.29459,-7.36041],[110.2942,-7.36063],[110.29416,-7.36066],[110.29355,-7.36101],[110.29286,-7.36164],[110.29242,-7.36204],[110.29173,-7.3623],[110.29069,-7.36194],[110.29065,-7.36193],[110.29056,-7.3619],[110.29007,-7.362],[110.28877,-7.36266],[110.28758,-7.363],[110.28705,-7.36333],[110.28658,-7.36412],[110.28635,-7.36452],[110.28525,-7.36463],[110.2853,-7.36463],[110.28493,-7.36568],[110.28406,-7.36595],[110.28308,-7.36627],[110.28298,-7.36636],[110.28263,-7.36668],[110.28215,-7.3671],[110.28135,-7.36674],[110.28107,-7.36722],[110.28009,-7.36805],[110.27998,-7.3688],[110.27987,-7.36954],[110.27897,-7.37014],[110.27895,-7.37016],[110.27879,-7.37027],[110.27872,-7.37031],[110.27832,-7.37044],[110.27741,-7.37075],[110.27708,-7.37091],[110.27653,-7.37119],[110.27616,-7.37138],[110.27505,-7.3712],[110.27486,-7.37142],[110.2747,-7.37293],[110.27469,-7.37296],[110.27417,-7.37319],[110.27363,-7.37344],[110.27355,-7.37347],[110.27295,-7.37367],[110.27264,-7.37378],[110.27189,-7.37396],[110.27146,-7.37455],[110.27065,-7.37508],[110.27016,-7.37553],[110.27027,-7.37617],[110.2694,-7.37763],[110.26889,-7.37861],[110.26899,-7.37948],[110.26862,-7.38075],[110.26824,-7.38115]]]}}]}