{"type":"FeatureCollection","features":[{"type":"Feature","properties":{"KECAMATAN":"Kajoran"},"geometry":{"type":"Polygon","coordinates":[[[110.04346,-7.5275],[110.04349,-7.52754],[110.04351,-7.52756],[110.04353,-7.52759],[110.0438,-7.52793],[110.04388,-7.52804],[110.0439,-7.52804],[110.04393,-7.52806],[110.04405,-7.52812],[110.04414,-7.52816],[110.04456,-7.52836],[110.04462,-7.52841],[110.04499,-7.52871],[110.0451,-7.5288],[110.04511,-7.52885],[110.04512,-7.52896],[110.0451,-7.529],[110.04507,-7.52908],[110.04497,-7.52931],[110.04497,-7.52933],[110.04493,-7.52942],[110.0448,-7.52976],[110.04469,-7.53001],[110.04451,-7.53046],[110.04434,-7.53088],[110.04433,-7.53091],[110.04434,-7.53094],[110.04437,-7.53101],[110.04438,-7.53104],[110.04442,-7.53112],[110.04455,-7.53118],[110.0447,-7.53125],[110.04477,-7.53129],[110.04492,-7.53135],[110.04496,-7.53137],[110.04495,-7.5314],[110.04494,-7.53145],[110.04493,-7.53151],[110.0449,-7.53164],[110.04489,-7.53167],[110.04487,-7.53175],[110.04487,-7.53179],[110.04488,-7.53181],[110.04498,-7.53189],[110.045,-7.53191],[110.04503,-7.53191],[110.04538,-7.53189],[110.04556,-7.53188],[110.04558,-7.53189],[110.04571,-7.53196],[110.04572,-7.53201],[110.04573,-7.53232],[110.04574,-7.53235],[110.04575,-7.53251],[110.04575,-7.53252],[110.04574,-7.53252],[110.04492,-7.53293],[110.04488,-7.53296],[110.04481,-7.53312],[110.04481,-7.53329],[110.0448,-7.53331],[110.0448,-7.53334],[110.04489,-7.53342],[110.04504,-7.53354],[110.04537,-7.53383],[110.04551,-7.53396],[110.04557,-7.53401],[110.04562,-7.53405],[110.04566,-7.53414],[110.04568,-7.53421],[110.04577,-7.53446],[110.04579,-7.53453],[110.04578,-7.53453],[110.0457,-7.53457],[110.04548,-7.53466],[110.04545,-7.53467],[110.04522,-7.53468],[110.04521,-7.53468],[110.04464,-7.53469],[110.04446,-7.5347],[110.04434,-7.53473],[110.04429,-7.53475],[110.04428,-7.53477],[110.0442,-7.53497],[110.04409,-7.53522],[110.04409,-7.53552],[110.0441,-7.5358],[110.0441,-7.53581],[110.04423,-7.53595],[110.04432,-7.53604],[110.04438,-7.53609],[110.04438,-7.5361],[110.04455,-7.53619],[110.04469,-7.53626],[110.04472,-7.53648],[110.04473,-7.53653],[110.04474,-7.53659],[110.04474,-7.5366],[110.04467,-7.53669],[110.04451,-7.53691],[110.04421,-7.53721],[110.04416,-7.53727],[110.04403,-7.5376],[110.04422,-7.53771],[110.04438,-7.5378],[110.04482,-7.5378],[110.04496,-7.53783],[110.04508,-7.53786],[110.04533,-7.53792],[110.04534,-7.53792],[110.04557,-7.53821],[110.04558,-7.53822],[110.04558,-7.53823],[110.04571,-7.53842],[110.04577,-7.5385],[110.04604,-7.53867],[110.04608,-7.5387],[110.04635,-7.53891],[110.04638,-7.53896],[110.04648,-7.53912],[110.04652,-7.53918],[110.04661,-7.53959],[110.04662,-7.5396],[110.04664,-7.53972],[110.04666,-7.53981],[110.04671,-7.54011],[110.04671,-7.54013],[110.04699,-7.54055],[110.04705,-7.54065],[110.04706,-7.54066],[110.0473,-7.54101],[110.04765,-7.54118],[110.04768,-7.5412],[110.04796,-7.54139],[110.04826,-7.54159],[110.04826,-7.5416],[110.04852,-7.54199],[110.04853,-7.54202],[110.04855,-7.54205],[110.04858,-7.5421],[110.0486,-7.54212],[110.04867,-7.5422],[110.04877,-7.5423],[110.04887,-7.54241],[110.04893,-7.5425],[110.04894,-7.54252],[110.049,-7.54261],[110.0492,-7.5429],[110.0492,-7.54291],[110.04927,-7.543],[110.04929,-7.54303],[110.04955,-7.54329],[110.04963,-7.54336],[110.04965,-7.54338],[110.04966,-7.54342],[110.04974,-7.54373],[110.04977,-7.54385],[110.04978,-7.5439],[110.04969,-7.54424],[110.04968,-7.54424],[110.04964,-7.54436],[110.04962,-7.5444],[110.04955,-7.54456],[110.04959,-7.54481],[110.04961,-7.54492],[110.04962,-7.54494],[110.04964,-7.54496],[110.04991,-7.54535],[110.04995,-7.5454],[110.04999,-7.54543],[110.0501,-7.5455],[110.05017,-7.54554],[110.05045,-7.54572],[110.05054,-7.54578],[110.05066,-7.54585],[110.05073,-7.5459],[110.0509,-7.54615],[110.05094,-7.5462],[110.05102,-7.54634],[110.05103,-7.54635],[110.05117,-7.54657],[110.05119,-7.5466],[110.05123,-7.54665],[110.05125,-7.54668],[110.05142,-7.54694],[110.05143,-7.54696],[110.05169,-7.54729],[110.05174,-7.54735],[110.05178,-7.5474],[110.05207,-7.54767],[110.05207,-7.54768],[110.05208,-7.54768],[110.0521,-7.5477],[110.05233,-7.54799],[110.05245,-7.54814],[110.0525,-7.54841],[110.05251,-7.54843],[110.05252,-7.54848],[110.05254,-7.54859],[110.05254,-7.5486],[110.05248,-7.54863],[110.05238,-7.54869],[110.05213,-7.54882],[110.05196,-7.54892],[110.05178,-7.54901],[110.05173,-7.54904],[110.05171,-7.54905],[110.05153,-7.54919],[110.05145,-7.54925],[110.05144,-7.54926],[110.05144,-7.54959],[110.05147,-7.54974],[110.05149,-7.54982],[110.05153,-7.55003],[110.05154,-7.55008],[110.05158,-7.55026],[110.05159,-7.55053],[110.0516,-7.55071],[110.05159,-7.55073],[110.05152,-7.55088],[110.0515,-7.55092],[110.05146,-7.55101],[110.05145,-7.55101],[110.05141,-7.55105],[110.05108,-7.55133],[110.05108,-7.5514],[110.05106,-7.5516],[110.05105,-7.55166],[110.05132,-7.55177],[110.05138,-7.55179],[110.05149,-7.55182],[110.05166,-7.55187],[110.05197,-7.55195],[110.05209,-7.55198],[110.0521,-7.55199],[110.05223,-7.55202],[110.05253,-7.55211],[110.0526,-7.55213],[110.05278,-7.55221],[110.05316,-7.55237],[110.05335,-7.55252],[110.05336,-7.55252],[110.05353,-7.55265],[110.05352,-7.55281],[110.05349,-7.55319],[110.05348,-7.55327],[110.05345,-7.55363],[110.05341,-7.55408],[110.05366,-7.55433],[110.05389,-7.55451],[110.05394,-7.55455],[110.05407,-7.55465],[110.05408,-7.55466],[110.05418,-7.55474],[110.05422,-7.55477],[110.05439,-7.55489],[110.0545,-7.55497],[110.05464,-7.55507],[110.05466,-7.55513],[110.05467,-7.55515],[110.05472,-7.55529],[110.05477,-7.5554],[110.05481,-7.55552],[110.05489,-7.55571],[110.0549,-7.55575],[110.05499,-7.55597],[110.05499,-7.55598],[110.05509,-7.55611],[110.05522,-7.55628],[110.05536,-7.55648],[110.05537,-7.55648],[110.05567,-7.55653],[110.05577,-7.55655],[110.05579,-7.55655],[110.0562,-7.55633],[110.05637,-7.55632],[110.05672,-7.5563],[110.05689,-7.55634],[110.05717,-7.5564],[110.05741,-7.55668],[110.05745,-7.55671],[110.05745,-7.55672],[110.05749,-7.55686],[110.0576,-7.55727],[110.05763,-7.55737],[110.05764,-7.55744],[110.05765,-7.55746],[110.0577,-7.55766],[110.05774,-7.55783],[110.05775,-7.55786],[110.05776,-7.55788],[110.05794,-7.55828],[110.0582,-7.55769],[110.05834,-7.5575],[110.05843,-7.55739],[110.05877,-7.55747],[110.05904,-7.55741],[110.05933,-7.5572],[110.05956,-7.55702],[110.05975,-7.55695],[110.05997,-7.5569],[110.06006,-7.55691],[110.06025,-7.55695],[110.06059,-7.55673],[110.06082,-7.55642],[110.06095,-7.55643],[110.06104,-7.55648],[110.06142,-7.55664],[110.06165,-7.55669],[110.06201,-7.55678],[110.06227,-7.55683],[110.06229,-7.55691],[110.0623,-7.55716],[110.06235,-7.55733],[110.06252,-7.55742],[110.06274,-7.5574],[110.06289,-7.55728],[110.06328,-7.55695],[110.06354,-7.55694],[110.06372,-7.55705],[110.06401,-7.55733],[110.06422,-7.55748],[110.06461,-7.55757],[110.06501,-7.5577],[110.06562,-7.55811],[110.06595,-7.55832],[110.06617,-7.55845],[110.06623,-7.5585],[110.06626,-7.55855],[110.06632,-7.55856],[110.06638,-7.55853],[110.06645,-7.55846],[110.0665,-7.55845],[110.06653,-7.55847],[110.06658,-7.55851],[110.06667,-7.55862],[110.06684,-7.55853],[110.06688,-7.5585],[110.06691,-7.55854],[110.06701,-7.55861],[110.06705,-7.55852],[110.06707,-7.5585],[110.06715,-7.55864],[110.06717,-7.55866],[110.06723,-7.55864],[110.06725,-7.5586],[110.06725,-7.55853],[110.06731,-7.55853],[110.06734,-7.55855],[110.06743,-7.55858],[110.06756,-7.55859],[110.06768,-7.55857],[110.06782,-7.55852],[110.06794,-7.55845],[110.06805,-7.55843],[110.06812,-7.55846],[110.06836,-7.55854],[110.06857,-7.55825],[110.06868,-7.55831],[110.06873,-7.55838],[110.06877,-7.55843],[110.06885,-7.55845],[110.06892,-7.55847],[110.06914,-7.55851],[110.06929,-7.55855],[110.06948,-7.55866],[110.06955,-7.55854],[110.06958,-7.55843],[110.06961,-7.55842],[110.06966,-7.55849],[110.0697,-7.55852],[110.06981,-7.55855],[110.06993,-7.55859],[110.07009,-7.55866],[110.07013,-7.55866],[110.07027,-7.55853],[110.07028,-7.55853],[110.07042,-7.55858],[110.07043,-7.55856],[110.07049,-7.55848],[110.07065,-7.55834],[110.07077,-7.55833],[110.07089,-7.55833],[110.07115,-7.55839],[110.07131,-7.55842],[110.07161,-7.55823],[110.07188,-7.55823],[110.07221,-7.55811],[110.07254,-7.55793],[110.07279,-7.55784],[110.07294,-7.55779],[110.0733,-7.55777],[110.07348,-7.55783],[110.07362,-7.55788],[110.07412,-7.55817],[110.07435,-7.55826],[110.07472,-7.55842],[110.07482,-7.55847],[110.07496,-7.55843],[110.0752,-7.55839],[110.07534,-7.55835],[110.07564,-7.55843],[110.07577,-7.55852],[110.07582,-7.55875],[110.07583,-7.55884],[110.07599,-7.55898],[110.07624,-7.55881],[110.07631,-7.55887],[110.07652,-7.55887],[110.07672,-7.55886],[110.07679,-7.55865],[110.07679,-7.55857],[110.07683,-7.5585],[110.07693,-7.55842],[110.07699,-7.55839],[110.07704,-7.55839],[110.07712,-7.5584],[110.0772,-7.55849],[110.07733,-7.55867],[110.07741,-7.5588],[110.07747,-7.55882],[110.07753,-7.55882],[110.07764,-7.55879],[110.07772,-7.55871],[110.07775,-7.55869],[110.07786,-7.55868],[110.07797,-7.5587],[110.07806,-7.55873],[110.0782,-7.5588],[110.0783,-7.55881],[110.0784,-7.55879],[110.07846,-7.55875],[110.07846,-7.55859],[110.07844,-7.55847],[110.07844,-7.55834],[110.07846,-7.55824],[110.07855,-7.55809],[110.07865,-7.55794],[110.07868,-7.55784],[110.0787,-7.55773],[110.0787,-7.55757],[110.07873,-7.55741],[110.07875,-7.55734],[110.0788,-7.55724],[110.07894,-7.55721],[110.07906,-7.55723],[110.07917,-7.55725],[110.07923,-7.55733],[110.07927,-7.55743],[110.07927,-7.55753],[110.07925,-7.55762],[110.07921,-7.55775],[110.07915,-7.55794],[110.07915,-7.55802],[110.07919,-7.55804],[110.07922,-7.55806],[110.07938,-7.55806],[110.07952,-7.55796],[110.07962,-7.55789],[110.0798,-7.55774],[110.08034,-7.5574],[110.08036,-7.55739],[110.08071,-7.55732],[110.08113,-7.55726],[110.08144,-7.55721],[110.08148,-7.5572],[110.08174,-7.55714],[110.08178,-7.55713],[110.0818,-7.5571],[110.0818,-7.55709],[110.08184,-7.55701],[110.08184,-7.55693],[110.08178,-7.5568],[110.08168,-7.55674],[110.08156,-7.55668],[110.08141,-7.55658],[110.08133,-7.55647],[110.0813,-7.55628],[110.08135,-7.55601],[110.08135,-7.55585],[110.08131,-7.55565],[110.08125,-7.55558],[110.08121,-7.5555],[110.08118,-7.55537],[110.08122,-7.55502],[110.0813,-7.55485],[110.08142,-7.55469],[110.08162,-7.55451],[110.08169,-7.55438],[110.08171,-7.55435],[110.08175,-7.55427],[110.08179,-7.55415],[110.08174,-7.55404],[110.08164,-7.55394],[110.08148,-7.55386],[110.08131,-7.5538],[110.08106,-7.55376],[110.08072,-7.55372],[110.08047,-7.55367],[110.08027,-7.55355],[110.08012,-7.55341],[110.08003,-7.55328],[110.07997,-7.55313],[110.07998,-7.553],[110.08002,-7.55289],[110.08004,-7.55261],[110.08005,-7.55248],[110.08005,-7.55245],[110.08003,-7.55235],[110.07999,-7.55229],[110.07991,-7.55223],[110.07984,-7.55221],[110.07972,-7.55221],[110.07969,-7.5522],[110.07958,-7.55219],[110.07951,-7.55216],[110.07943,-7.55206],[110.07942,-7.55205],[110.07934,-7.55194],[110.07926,-7.55182],[110.0792,-7.55172],[110.07916,-7.55167],[110.07912,-7.55167],[110.07899,-7.55171],[110.07893,-7.55175],[110.07886,-7.5518],[110.0788,-7.55184],[110.07872,-7.55184],[110.07867,-7.55183],[110.07864,-7.55176],[110.07861,-7.55152],[110.0786,-7.55136],[110.0786,-7.55121],[110.07863,-7.55109],[110.07864,-7.55093],[110.07864,-7.55086],[110.07865,-7.55063],[110.07871,-7.55047],[110.07872,-7.55043],[110.07869,-7.55039],[110.07852,-7.55034],[110.07836,-7.55028],[110.07826,-7.55024],[110.07814,-7.55013],[110.07804,-7.55],[110.07785,-7.5498],[110.07769,-7.54961],[110.07732,-7.54928],[110.07713,-7.54902],[110.07704,-7.54881],[110.07697,-7.54865],[110.07696,-7.54861],[110.07692,-7.54851],[110.07687,-7.5483],[110.07683,-7.54814],[110.07678,-7.54805],[110.07675,-7.54798],[110.07675,-7.54793],[110.07676,-7.54788],[110.07679,-7.54783],[110.07683,-7.54776],[110.07687,-7.54765],[110.07687,-7.5475],[110.07684,-7.5474],[110.07677,-7.54731],[110.07667,-7.54721],[110.07655,-7.54713],[110.07639,-7.54702],[110.07629,-7.54692],[110.07624,-7.5468],[110.07622,-7.54664],[110.07625,-7.54639],[110.07627,-7.54623],[110.07644,-7.54567],[110.07648,-7.54559],[110.07657,-7.54555],[110.07668,-7.54551],[110.07676,-7.54547],[110.07682,-7.54542],[110.07685,-7.54537],[110.07687,-7.54531],[110.07685,-7.54525],[110.07684,-7.54518],[110.07673,-7.54499],[110.0767,-7.54488],[110.07667,-7.54474],[110.0767,-7.54444],[110.07685,-7.54389],[110.07689,-7.54368],[110.07686,-7.5434],[110.07685,-7.54327],[110.07689,-7.54316],[110.07697,-7.54311],[110.0772,-7.54305],[110.07727,-7.54301],[110.07732,-7.54294],[110.07734,-7.54283],[110.07734,-7.54259],[110.07733,-7.54258],[110.07728,-7.54228],[110.07711,-7.5418],[110.07692,-7.54141],[110.07666,-7.54105],[110.07636,-7.54072],[110.07603,-7.54044],[110.07588,-7.54025],[110.07588,-7.54006],[110.07587,-7.53987],[110.07582,-7.53965],[110.07562,-7.53932],[110.0754,-7.53905],[110.07529,-7.53887],[110.07525,-7.53862],[110.07525,-7.53834],[110.07521,-7.53818],[110.07509,-7.53813],[110.07518,-7.53795],[110.0753,-7.53763],[110.07535,-7.53757],[110.07538,-7.53753],[110.07546,-7.53747],[110.07552,-7.53743],[110.07572,-7.53725],[110.07585,-7.53709],[110.07601,-7.53688],[110.07615,-7.53664],[110.07618,-7.5366],[110.07621,-7.53648],[110.07623,-7.53637],[110.07624,-7.53627],[110.07625,-7.53611],[110.07625,-7.53607],[110.07627,-7.5358],[110.07627,-7.53576],[110.07628,-7.5357],[110.07633,-7.53564],[110.07643,-7.53556],[110.0765,-7.53547],[110.07654,-7.5354],[110.07656,-7.53533],[110.07676,-7.53521],[110.07693,-7.53516],[110.07711,-7.5351],[110.07729,-7.5349],[110.07756,-7.53475],[110.07779,-7.53475],[110.07812,-7.53492],[110.07835,-7.53497],[110.07858,-7.53507],[110.07878,-7.53531],[110.07889,-7.53543],[110.07904,-7.53557],[110.0792,-7.53575],[110.07978,-7.53574],[110.0801,-7.53585],[110.08068,-7.53677],[110.08092,-7.53709],[110.08134,-7.53753],[110.0817,-7.53789],[110.08186,-7.53796],[110.08215,-7.5378],[110.08225,-7.53763],[110.08236,-7.53744],[110.0824,-7.53732],[110.0826,-7.53704],[110.0828,-7.53679],[110.08308,-7.53661],[110.08315,-7.53661],[110.08325,-7.53665],[110.08319,-7.53677],[110.08319,-7.53697],[110.08321,-7.53702],[110.08325,-7.53711],[110.08325,-7.53712],[110.08327,-7.53715],[110.08328,-7.53715],[110.08334,-7.53723],[110.08335,-7.53725],[110.08337,-7.5373],[110.08338,-7.53732],[110.0834,-7.53742],[110.08341,-7.53746],[110.08343,-7.53756],[110.08346,-7.53757],[110.08346,-7.53756],[110.08348,-7.53755],[110.08349,-7.53754],[110.08351,-7.53751],[110.08363,-7.53728],[110.08364,-7.53726],[110.08364,-7.53721],[110.08365,-7.53706],[110.08361,-7.53698],[110.08359,-7.53693],[110.0836,-7.53694],[110.08369,-7.53692],[110.08375,-7.53688],[110.08376,-7.53686],[110.08388,-7.53668],[110.0839,-7.53664],[110.08402,-7.53643],[110.08402,-7.53642],[110.0841,-7.53628],[110.08422,-7.53604],[110.08428,-7.53599],[110.08434,-7.53598],[110.08446,-7.53594],[110.08451,-7.53593],[110.08455,-7.53593],[110.08472,-7.53591],[110.0848,-7.5359],[110.0849,-7.53589],[110.08499,-7.53586],[110.08505,-7.53583],[110.08504,-7.5358],[110.08502,-7.53577],[110.085,-7.53573],[110.08493,-7.53566],[110.08488,-7.5356],[110.08487,-7.53559],[110.08484,-7.53551],[110.08487,-7.53543],[110.08498,-7.53538],[110.08508,-7.53532],[110.08517,-7.53529],[110.08525,-7.53529],[110.08534,-7.53531],[110.0854,-7.53535],[110.08548,-7.53541],[110.08575,-7.53559],[110.08584,-7.53564],[110.0859,-7.53566],[110.08596,-7.53566],[110.08601,-7.53563],[110.08602,-7.53556],[110.08602,-7.53551],[110.08603,-7.53541],[110.08607,-7.53531],[110.08617,-7.5352],[110.08624,-7.53516],[110.08631,-7.53514],[110.08652,-7.53512],[110.08654,-7.53512],[110.08664,-7.53513],[110.08671,-7.53514],[110.08688,-7.53518],[110.087,-7.5352],[110.08728,-7.53526],[110.08732,-7.53527],[110.08746,-7.5353],[110.08758,-7.53527],[110.08762,-7.53524],[110.08766,-7.5352],[110.08768,-7.53519],[110.08782,-7.53508],[110.08788,-7.53502],[110.08809,-7.53479],[110.08814,-7.53472],[110.08822,-7.5347],[110.08833,-7.53468],[110.08847,-7.53471],[110.08872,-7.53483],[110.08877,-7.53485],[110.08911,-7.53498],[110.08946,-7.53513],[110.08951,-7.53517],[110.08957,-7.53521],[110.08962,-7.53529],[110.08962,-7.53545],[110.0896,-7.53554],[110.08959,-7.53558],[110.08959,-7.53571],[110.08964,-7.53579],[110.0897,-7.53581],[110.08974,-7.53582],[110.08975,-7.53582],[110.08983,-7.53583],[110.08987,-7.53581],[110.08988,-7.5358],[110.08989,-7.5358],[110.09005,-7.53561],[110.09025,-7.53547],[110.09031,-7.53545],[110.09037,-7.53542],[110.09047,-7.53545],[110.09057,-7.53552],[110.0906,-7.53565],[110.09062,-7.53583],[110.09062,-7.536],[110.09061,-7.53609],[110.0906,-7.53614],[110.09057,-7.53636],[110.09057,-7.53651],[110.09058,-7.53665],[110.09059,-7.53672],[110.09061,-7.53678],[110.09071,-7.53706],[110.09079,-7.53719],[110.09084,-7.53728],[110.09093,-7.53745],[110.09111,-7.53774],[110.09116,-7.53782],[110.09135,-7.53804],[110.09144,-7.53812],[110.09157,-7.53817],[110.09174,-7.53824],[110.09181,-7.53831],[110.0919,-7.53846],[110.09193,-7.53857],[110.09196,-7.53872],[110.09196,-7.5388],[110.09194,-7.53895],[110.09193,-7.53901],[110.09188,-7.5392],[110.09185,-7.53935],[110.09184,-7.53948],[110.09184,-7.53965],[110.09187,-7.53977],[110.09193,-7.53986],[110.09203,-7.53993],[110.09224,-7.53998],[110.09238,-7.54005],[110.0925,-7.54016],[110.09254,-7.54023],[110.09254,-7.54024],[110.09264,-7.54042],[110.09266,-7.54049],[110.0927,-7.54062],[110.09273,-7.54078],[110.09276,-7.54092],[110.09278,-7.54099],[110.09284,-7.54115],[110.0929,-7.54122],[110.09295,-7.54127],[110.09308,-7.54142],[110.09314,-7.54149],[110.09318,-7.54159],[110.09324,-7.54176],[110.09325,-7.54176],[110.09326,-7.54181],[110.09334,-7.54206],[110.09338,-7.54217],[110.09331,-7.54233],[110.09326,-7.54238],[110.09322,-7.54243],[110.0932,-7.54245],[110.093,-7.54258],[110.09289,-7.54263],[110.09285,-7.54265],[110.09252,-7.5428],[110.09242,-7.5429],[110.09242,-7.54291],[110.09241,-7.54295],[110.09241,-7.543],[110.09248,-7.54316],[110.09254,-7.5433],[110.09264,-7.54337],[110.09265,-7.54337],[110.09269,-7.54339],[110.09276,-7.54339],[110.09279,-7.5434],[110.09294,-7.54339],[110.09306,-7.54339],[110.09316,-7.54338],[110.09321,-7.54336],[110.09336,-7.54334],[110.09355,-7.54333],[110.09365,-7.54334],[110.09382,-7.54341],[110.09405,-7.5435],[110.09422,-7.54357],[110.09433,-7.54368],[110.09438,-7.54375],[110.09439,-7.54383],[110.09439,-7.54386],[110.09432,-7.54391],[110.09427,-7.54394],[110.09412,-7.54396],[110.09399,-7.54402],[110.09394,-7.54406],[110.09395,-7.5442],[110.09395,-7.54428],[110.09397,-7.54451],[110.09397,-7.54458],[110.09402,-7.5448],[110.09404,-7.54492],[110.09409,-7.54514],[110.0941,-7.54519],[110.09415,-7.54541],[110.09418,-7.54552],[110.09433,-7.5458],[110.09454,-7.5461],[110.09456,-7.54614],[110.09475,-7.54637],[110.09488,-7.5465],[110.09503,-7.54667],[110.09517,-7.54673],[110.09536,-7.54671],[110.09543,-7.54671],[110.09568,-7.54668],[110.09586,-7.54671],[110.09611,-7.54692],[110.09631,-7.54716],[110.09634,-7.54719],[110.09643,-7.54731],[110.09657,-7.54748],[110.09667,-7.54762],[110.09671,-7.54765],[110.09698,-7.54789],[110.0971,-7.54799],[110.09737,-7.54817],[110.09758,-7.54799],[110.09761,-7.54795],[110.09751,-7.54783],[110.09745,-7.54777],[110.09741,-7.54765],[110.09742,-7.5476],[110.09746,-7.54747],[110.09758,-7.54752],[110.09772,-7.5476],[110.09786,-7.54767],[110.09792,-7.54769],[110.09798,-7.54772],[110.09804,-7.54776],[110.09811,-7.54781],[110.09818,-7.54788],[110.09823,-7.54796],[110.09835,-7.54805],[110.09845,-7.54812],[110.09859,-7.54819],[110.09872,-7.54829],[110.0989,-7.54845],[110.099,-7.54855],[110.09909,-7.54867],[110.0992,-7.5488],[110.09924,-7.54886],[110.09924,-7.5489],[110.09925,-7.54901],[110.09928,-7.54911],[110.09931,-7.54919],[110.09943,-7.54941],[110.09948,-7.5495],[110.09955,-7.54959],[110.09965,-7.54963],[110.09974,-7.54966],[110.0999,-7.54982],[110.1001,-7.55008],[110.10016,-7.5502],[110.10026,-7.55018],[110.10033,-7.55004],[110.10036,-7.54996],[110.10041,-7.54991],[110.10053,-7.54985],[110.10057,-7.54982],[110.10063,-7.5498],[110.10069,-7.54977],[110.10065,-7.54964],[110.1006,-7.54956],[110.10055,-7.54949],[110.10054,-7.54941],[110.1005,-7.54929],[110.10047,-7.54917],[110.10044,-7.54908],[110.10041,-7.54897],[110.10038,-7.54881],[110.10038,-7.54867],[110.10035,-7.54855],[110.10034,-7.5484],[110.10035,-7.54833],[110.10038,-7.54829],[110.10043,-7.5483],[110.10045,-7.54829],[110.1005,-7.54827],[110.10051,-7.54834],[110.10055,-7.54837],[110.10059,-7.54841],[110.10064,-7.54843],[110.10071,-7.54841],[110.1011,-7.54822],[110.10112,-7.54821],[110.10119,-7.54816],[110.10114,-7.54812],[110.10104,-7.5481],[110.1009,-7.54806],[110.10081,-7.54801],[110.10076,-7.54797],[110.10071,-7.5479],[110.1007,-7.54782],[110.10071,-7.54777],[110.10074,-7.54774],[110.10078,-7.54771],[110.1008,-7.54767],[110.10083,-7.5476],[110.10083,-7.54752],[110.10082,-7.54744],[110.1008,-7.54736],[110.10078,-7.54724],[110.1008,-7.54719],[110.10084,-7.54713],[110.10086,-7.54707],[110.10087,-7.54705],[110.10087,-7.54699],[110.10085,-7.54694],[110.10084,-7.54689],[110.10082,-7.54682],[110.10079,-7.54676],[110.10067,-7.54666],[110.10059,-7.54661],[110.10051,-7.54657],[110.10046,-7.54656],[110.10036,-7.54653],[110.10029,-7.54653],[110.10025,-7.54652],[110.10023,-7.54652],[110.10015,-7.5465],[110.10009,-7.54647],[110.10003,-7.54643],[110.10003,-7.5464],[110.10002,-7.54635],[110.10004,-7.54629],[110.10005,-7.54624],[110.10011,-7.54618],[110.10018,-7.54612],[110.1003,-7.546],[110.10037,-7.54594],[110.10044,-7.54585],[110.10046,-7.54578],[110.10048,-7.54563],[110.10048,-7.54548],[110.10049,-7.54536],[110.10046,-7.54521],[110.10044,-7.54517],[110.10043,-7.54513],[110.10042,-7.54506],[110.10049,-7.54485],[110.10053,-7.54478],[110.10054,-7.54473],[110.10055,-7.54471],[110.10055,-7.54462],[110.10052,-7.54453],[110.10052,-7.54452],[110.1005,-7.54444],[110.10048,-7.54435],[110.10048,-7.54426],[110.10043,-7.54416],[110.10039,-7.54409],[110.10026,-7.54401],[110.1002,-7.54397],[110.10014,-7.54392],[110.10008,-7.54381],[110.10006,-7.54373],[110.10006,-7.54365],[110.10008,-7.54352],[110.10013,-7.54341],[110.10022,-7.54333],[110.10027,-7.5433],[110.10031,-7.54327],[110.10037,-7.54321],[110.10043,-7.54314],[110.10052,-7.54304],[110.10056,-7.54289],[110.10056,-7.5428],[110.10055,-7.54267],[110.10054,-7.54257],[110.10054,-7.54246],[110.10055,-7.54242],[110.10055,-7.54232],[110.10054,-7.54228],[110.10053,-7.54223],[110.10054,-7.54216],[110.10057,-7.54212],[110.1006,-7.54209],[110.10064,-7.54206],[110.1007,-7.54202],[110.10074,-7.54198],[110.10074,-7.54191],[110.10072,-7.54183],[110.1007,-7.54178],[110.1007,-7.54172],[110.10071,-7.54161],[110.10071,-7.5416],[110.10073,-7.54155],[110.10076,-7.54149],[110.1008,-7.54142],[110.10083,-7.54137],[110.10087,-7.54128],[110.10088,-7.54123],[110.10086,-7.54116],[110.10084,-7.5411],[110.10082,-7.54108],[110.10078,-7.54101],[110.10069,-7.54093],[110.10067,-7.54089],[110.10067,-7.54078],[110.10066,-7.54066],[110.10066,-7.54047],[110.10075,-7.5406],[110.10077,-7.54064],[110.10078,-7.5407],[110.1008,-7.54074],[110.10088,-7.54082],[110.101,-7.54091],[110.10108,-7.54102],[110.10113,-7.54097],[110.10116,-7.54093],[110.10121,-7.54094],[110.10129,-7.5409],[110.10138,-7.54096],[110.10147,-7.54094],[110.10147,-7.54095],[110.1015,-7.54097],[110.10152,-7.54106],[110.10154,-7.54114],[110.10154,-7.5412],[110.1016,-7.54114],[110.10163,-7.54104],[110.1016,-7.54096],[110.10165,-7.54093],[110.10168,-7.54096],[110.1017,-7.54093],[110.10173,-7.54105],[110.10172,-7.54113],[110.10178,-7.54114],[110.10189,-7.54102],[110.10206,-7.54103],[110.1021,-7.54102],[110.10218,-7.54091],[110.10228,-7.54069],[110.10249,-7.54057],[110.10262,-7.54055],[110.10285,-7.54052],[110.10298,-7.54045],[110.10304,-7.54042],[110.10321,-7.54034],[110.10334,-7.54045],[110.10341,-7.54051],[110.10355,-7.54065],[110.1037,-7.54079],[110.10394,-7.54097],[110.10409,-7.54104],[110.10414,-7.5411],[110.10423,-7.54131],[110.10429,-7.54135],[110.10452,-7.54152],[110.1047,-7.54169],[110.10471,-7.5417],[110.10472,-7.5417],[110.10493,-7.54189],[110.10511,-7.54202],[110.10512,-7.54203],[110.1053,-7.54216],[110.10542,-7.5422],[110.10547,-7.54222],[110.10549,-7.54223],[110.10564,-7.5423],[110.10573,-7.54233],[110.10609,-7.54247],[110.10612,-7.54248],[110.10616,-7.54251],[110.10632,-7.54261],[110.10648,-7.54272],[110.10653,-7.54279],[110.10665,-7.54294],[110.10665,-7.54295],[110.10673,-7.54311],[110.1068,-7.5432],[110.10685,-7.54327],[110.10693,-7.54344],[110.10699,-7.54356],[110.10703,-7.54362],[110.10708,-7.54371],[110.10711,-7.54379],[110.10713,-7.54384],[110.10713,-7.54386],[110.10716,-7.54388],[110.10723,-7.54393],[110.10729,-7.54398],[110.10739,-7.54406],[110.10749,-7.54413],[110.10757,-7.54421],[110.10761,-7.54424],[110.10765,-7.54425],[110.10765,-7.54431],[110.10764,-7.54437],[110.10763,-7.54441],[110.10762,-7.54446],[110.10768,-7.5445],[110.1077,-7.54452],[110.10786,-7.54461],[110.10803,-7.54484],[110.10817,-7.54502],[110.10827,-7.54518],[110.10834,-7.54528],[110.10838,-7.54532],[110.1085,-7.54547],[110.10855,-7.5455],[110.10875,-7.54563],[110.10876,-7.54563],[110.10902,-7.54582],[110.10918,-7.54566],[110.10922,-7.54561],[110.10953,-7.54565],[110.10972,-7.54561],[110.10993,-7.54557],[110.11008,-7.54559],[110.11015,-7.54562],[110.11021,-7.54567],[110.11025,-7.54574],[110.11031,-7.54587],[110.11039,-7.54605],[110.11048,-7.54622],[110.11053,-7.54628],[110.11057,-7.5464],[110.11047,-7.54652],[110.11045,-7.54656],[110.1106,-7.54656],[110.11067,-7.54658],[110.11076,-7.54655],[110.11082,-7.54666],[110.11091,-7.54653],[110.11105,-7.54647],[110.11129,-7.54645],[110.11166,-7.54629],[110.11159,-7.54617],[110.1115,-7.54599],[110.11149,-7.54595],[110.11147,-7.54588],[110.11147,-7.54586],[110.11146,-7.5458],[110.11145,-7.54577],[110.11145,-7.54563],[110.11144,-7.54558],[110.11144,-7.54549],[110.11143,-7.54536],[110.11143,-7.54531],[110.11141,-7.54516],[110.11141,-7.54514],[110.11139,-7.54498],[110.11137,-7.54486],[110.11137,-7.54485],[110.11134,-7.54468],[110.11134,-7.54464],[110.11133,-7.54455],[110.11132,-7.54447],[110.11131,-7.54432],[110.11131,-7.54417],[110.11132,-7.54414],[110.11132,-7.54397],[110.11131,-7.54393],[110.11131,-7.54389],[110.1113,-7.54384],[110.1113,-7.54375],[110.11131,-7.54369],[110.11134,-7.54354],[110.11135,-7.54347],[110.11136,-7.54341],[110.11136,-7.5432],[110.11135,-7.54299],[110.11135,-7.54221],[110.11136,-7.54208],[110.11136,-7.54202],[110.11138,-7.54189],[110.11139,-7.54184],[110.1114,-7.54166],[110.1114,-7.54164],[110.11136,-7.54146],[110.11133,-7.54133],[110.11131,-7.54128],[110.11125,-7.54104],[110.11123,-7.54098],[110.1112,-7.54091],[110.11119,-7.54087],[110.11118,-7.54086],[110.11118,-7.54081],[110.11117,-7.54077],[110.11117,-7.5407],[110.11118,-7.54066],[110.11117,-7.54064],[110.11117,-7.54061],[110.11118,-7.54055],[110.11117,-7.5405],[110.11115,-7.54044],[110.11113,-7.5404],[110.1111,-7.54035],[110.11105,-7.54026],[110.11101,-7.54019],[110.11099,-7.54014],[110.11096,-7.54003],[110.11095,-7.54001],[110.11093,-7.53994],[110.11093,-7.53992],[110.11092,-7.53981],[110.11091,-7.53979],[110.11091,-7.5397],[110.11088,-7.5395],[110.11087,-7.53935],[110.11087,-7.53928],[110.11086,-7.53925],[110.11086,-7.53921],[110.11084,-7.53916],[110.11083,-7.53914],[110.11082,-7.53913],[110.11112,-7.53905],[110.11107,-7.53866],[110.1111,-7.53861],[110.11124,-7.53835],[110.11126,-7.53829],[110.11096,-7.53804],[110.11083,-7.53793],[110.11082,-7.53791],[110.11071,-7.53781],[110.11066,-7.53765],[110.11058,-7.53729],[110.11052,-7.53706],[110.1105,-7.53684],[110.11053,-7.5367],[110.11054,-7.53666],[110.11056,-7.53664],[110.11065,-7.53654],[110.11072,-7.53646],[110.11073,-7.53634],[110.11071,-7.53627],[110.1107,-7.5362],[110.11085,-7.53607],[110.11087,-7.53603],[110.11086,-7.53599],[110.11084,-7.53594],[110.11081,-7.53587],[110.1108,-7.53581],[110.11082,-7.5357],[110.11083,-7.53564],[110.11084,-7.53553],[110.11082,-7.53547],[110.11079,-7.53536],[110.11081,-7.5353],[110.1108,-7.53526],[110.11078,-7.53523],[110.11075,-7.53521],[110.11072,-7.53516],[110.11072,-7.53511],[110.11073,-7.535],[110.11075,-7.53487],[110.11077,-7.53477],[110.11075,-7.53465],[110.11071,-7.53454],[110.11065,-7.53441],[110.11055,-7.53434],[110.11044,-7.53428],[110.1104,-7.53419],[110.11039,-7.53408],[110.1104,-7.53398],[110.11036,-7.53393],[110.11033,-7.53389],[110.11031,-7.53383],[110.11027,-7.53376],[110.11022,-7.53371],[110.11004,-7.53361],[110.10984,-7.53351],[110.10979,-7.53348],[110.10976,-7.53345],[110.10973,-7.53341],[110.10971,-7.53338],[110.1097,-7.53331],[110.1097,-7.53319],[110.10969,-7.53314],[110.10969,-7.53306],[110.10967,-7.53302],[110.10959,-7.53296],[110.10955,-7.53292],[110.10953,-7.53287],[110.10952,-7.53282],[110.10953,-7.53278],[110.10957,-7.53271],[110.10957,-7.5327],[110.10961,-7.53261],[110.10962,-7.53259],[110.10963,-7.53253],[110.10962,-7.53248],[110.10961,-7.53244],[110.10955,-7.53234],[110.1095,-7.53231],[110.10942,-7.53226],[110.10938,-7.53225],[110.10937,-7.53221],[110.10937,-7.53211],[110.10942,-7.53201],[110.10944,-7.5319],[110.10944,-7.53177],[110.10943,-7.53173],[110.1094,-7.53167],[110.10936,-7.5316],[110.10928,-7.5315],[110.1093,-7.53152],[110.10962,-7.53169],[110.10972,-7.53171],[110.10972,-7.53167],[110.10955,-7.53126],[110.10944,-7.53097],[110.1094,-7.53076],[110.10959,-7.53037],[110.1096,-7.53031],[110.10982,-7.53016],[110.11007,-7.53001],[110.11012,-7.53031],[110.11077,-7.52997],[110.11074,-7.5299],[110.11069,-7.52982],[110.11064,-7.52979],[110.11056,-7.52973],[110.11052,-7.52969],[110.11048,-7.52964],[110.11046,-7.52961],[110.11037,-7.52948],[110.11029,-7.5294],[110.11019,-7.52929],[110.11018,-7.52913],[110.11018,-7.52901],[110.11009,-7.52879],[110.11028,-7.52859],[110.11052,-7.52845],[110.11028,-7.52794],[110.11026,-7.52769],[110.11017,-7.52733],[110.11005,-7.52727],[110.10982,-7.52704],[110.10972,-7.52699],[110.10951,-7.52698],[110.10938,-7.52702],[110.1092,-7.52711],[110.10906,-7.52714],[110.10892,-7.52714],[110.10879,-7.52707],[110.10861,-7.52693],[110.10852,-7.52681],[110.10849,-7.52663],[110.10855,-7.52649],[110.10855,-7.52644],[110.10833,-7.52627],[110.10825,-7.52619],[110.10807,-7.526],[110.10787,-7.52573],[110.10779,-7.52558],[110.10776,-7.52548],[110.10773,-7.52537],[110.10772,-7.5252],[110.10773,-7.52504],[110.10777,-7.52501],[110.10788,-7.52494],[110.10796,-7.52488],[110.10818,-7.52477],[110.1083,-7.52474],[110.10837,-7.52474],[110.10847,-7.52478],[110.10853,-7.52487],[110.10862,-7.52493],[110.10865,-7.52494],[110.10874,-7.52495],[110.10878,-7.525],[110.10879,-7.52503],[110.10879,-7.52507],[110.1088,-7.52509],[110.10882,-7.52509],[110.10892,-7.52506],[110.109,-7.52501],[110.10907,-7.52493],[110.10913,-7.52488],[110.10922,-7.52482],[110.10936,-7.52475],[110.10941,-7.52469],[110.10943,-7.5247],[110.10987,-7.52476],[110.11014,-7.52476],[110.1102,-7.5247],[110.11028,-7.52471],[110.11039,-7.52473],[110.11046,-7.52476],[110.11056,-7.52483],[110.11072,-7.52494],[110.11089,-7.52502],[110.11086,-7.52511],[110.11082,-7.52518],[110.11079,-7.52526],[110.11079,-7.52534],[110.1108,-7.52542],[110.11089,-7.52549],[110.11103,-7.52561],[110.11114,-7.52571],[110.11122,-7.52583],[110.1113,-7.52601],[110.11135,-7.52615],[110.11139,-7.52631],[110.11144,-7.52639],[110.11146,-7.52652],[110.11145,-7.52655],[110.11142,-7.5267],[110.11138,-7.52697],[110.11139,-7.52709],[110.11142,-7.52717],[110.11146,-7.52724],[110.11165,-7.5275],[110.11168,-7.52782],[110.11167,-7.52822],[110.11175,-7.52856],[110.11178,-7.52869],[110.11189,-7.52891],[110.11205,-7.52909],[110.1121,-7.52914],[110.11232,-7.52942],[110.11239,-7.5295],[110.11247,-7.52961],[110.11251,-7.52967],[110.11255,-7.52975],[110.11263,-7.5299],[110.11271,-7.53013],[110.11279,-7.53029],[110.11287,-7.5305],[110.1129,-7.53063],[110.1129,-7.53082],[110.11292,-7.53093],[110.11296,-7.53103],[110.11301,-7.5311],[110.11321,-7.53124],[110.11326,-7.53127],[110.11335,-7.53135],[110.11341,-7.53145],[110.11346,-7.53165],[110.11347,-7.53179],[110.11347,-7.53181],[110.11348,-7.53185],[110.11352,-7.53198],[110.11359,-7.53212],[110.1136,-7.53213],[110.11368,-7.53219],[110.11383,-7.53237],[110.11395,-7.5325],[110.11419,-7.53285],[110.11436,-7.5333],[110.11427,-7.53364],[110.11429,-7.53384],[110.11445,-7.53402],[110.11462,-7.53415],[110.11477,-7.53428],[110.11489,-7.53444],[110.1149,-7.53445],[110.11493,-7.53456],[110.11498,-7.5347],[110.11497,-7.53484],[110.11502,-7.53486],[110.11506,-7.53484],[110.11513,-7.53475],[110.11528,-7.53462],[110.11534,-7.53456],[110.11538,-7.53445],[110.11542,-7.53428],[110.11545,-7.53415],[110.1155,-7.53398],[110.11559,-7.53386],[110.11574,-7.53368],[110.11611,-7.53331],[110.11622,-7.53329],[110.11627,-7.53332],[110.1163,-7.53336],[110.11632,-7.53342],[110.11637,-7.53344],[110.11641,-7.53344],[110.11647,-7.53343],[110.11656,-7.5334],[110.11666,-7.53338],[110.11709,-7.53238],[110.11694,-7.53208],[110.11685,-7.53189],[110.11684,-7.53186],[110.11673,-7.53165],[110.11666,-7.5315],[110.11666,-7.53128],[110.11673,-7.53092],[110.11672,-7.53036],[110.11677,-7.53016],[110.11675,-7.53009],[110.11674,-7.52993],[110.11672,-7.52985],[110.11668,-7.5297],[110.11665,-7.52951],[110.11663,-7.52938],[110.11663,-7.52922],[110.11665,-7.52912],[110.11674,-7.529],[110.11683,-7.52901],[110.11688,-7.52901],[110.11702,-7.529],[110.11704,-7.52896],[110.11709,-7.52888],[110.11711,-7.52883],[110.11709,-7.52879],[110.11695,-7.52879],[110.11687,-7.52875],[110.1168,-7.52873],[110.11672,-7.52871],[110.11663,-7.52871],[110.11645,-7.52875],[110.11636,-7.52875],[110.11632,-7.52872],[110.11624,-7.52864],[110.1162,-7.52855],[110.1162,-7.52849],[110.11622,-7.52844],[110.11622,-7.52842],[110.11623,-7.52839],[110.11623,-7.52835],[110.1162,-7.52833],[110.11617,-7.52832],[110.11611,-7.52829],[110.11604,-7.52828],[110.11601,-7.52827],[110.11595,-7.52809],[110.11595,-7.52797],[110.11594,-7.52789],[110.1159,-7.52783],[110.11589,-7.52779],[110.11589,-7.52767],[110.11588,-7.52764],[110.11583,-7.52761],[110.1158,-7.52755],[110.11579,-7.52746],[110.11578,-7.52738],[110.11578,-7.52732],[110.11579,-7.52724],[110.1158,-7.52718],[110.11579,-7.52714],[110.11575,-7.5271],[110.11568,-7.52705],[110.11566,-7.52703],[110.11566,-7.527],[110.11567,-7.52693],[110.11576,-7.52671],[110.11583,-7.52655],[110.11587,-7.52648],[110.11596,-7.52643],[110.11603,-7.5264],[110.11614,-7.52634],[110.11617,-7.5263],[110.11634,-7.52614],[110.11641,-7.52602],[110.11649,-7.52592],[110.11651,-7.52588],[110.11651,-7.52582],[110.11649,-7.52577],[110.11647,-7.52574],[110.1164,-7.52564],[110.11637,-7.52556],[110.11639,-7.52546],[110.11643,-7.52542],[110.1165,-7.5254],[110.11661,-7.52534],[110.11667,-7.52526],[110.11673,-7.52512],[110.11684,-7.52496],[110.11685,-7.52494],[110.11691,-7.52487],[110.11693,-7.52481],[110.11695,-7.52478],[110.11698,-7.5247],[110.11702,-7.52464],[110.11707,-7.52458],[110.11721,-7.52451],[110.11734,-7.52443],[110.11738,-7.52439],[110.11742,-7.52431],[110.11745,-7.52424],[110.11746,-7.52423],[110.11747,-7.52413],[110.11745,-7.52402],[110.11744,-7.52401],[110.11738,-7.52388],[110.11734,-7.5238],[110.11732,-7.52371],[110.11732,-7.52362],[110.11734,-7.52355],[110.11739,-7.52349],[110.11746,-7.52342],[110.11752,-7.52335],[110.11753,-7.52335],[110.11761,-7.52319],[110.11767,-7.52311],[110.11781,-7.52299],[110.11792,-7.5229],[110.11799,-7.52284],[110.11803,-7.52279],[110.11808,-7.52267],[110.11818,-7.52233],[110.11826,-7.52212],[110.11827,-7.5221],[110.11835,-7.52184],[110.1184,-7.52173],[110.11842,-7.52142],[110.11843,-7.52138],[110.11846,-7.52123],[110.11846,-7.52106],[110.11847,-7.52091],[110.11847,-7.5208],[110.1184,-7.52034],[110.1184,-7.52033],[110.11879,-7.52038],[110.119,-7.52043],[110.11919,-7.52048],[110.11952,-7.5206],[110.12002,-7.52064],[110.12004,-7.52064],[110.12032,-7.52067],[110.12065,-7.52075],[110.12092,-7.5208],[110.12128,-7.52089],[110.12166,-7.52104],[110.1226,-7.52169],[110.12261,-7.5217],[110.12318,-7.52187],[110.12356,-7.52184],[110.12365,-7.5219],[110.12383,-7.52204],[110.12389,-7.52209],[110.12404,-7.52216],[110.1243,-7.52222],[110.12439,-7.52225],[110.12442,-7.52225],[110.12485,-7.52228],[110.12503,-7.5223],[110.12515,-7.52231],[110.12519,-7.52232],[110.12523,-7.5222],[110.12525,-7.52218],[110.12531,-7.52209],[110.12536,-7.52202],[110.1254,-7.52197],[110.12545,-7.52193],[110.12549,-7.52189],[110.12562,-7.52186],[110.12567,-7.52185],[110.12577,-7.52186],[110.12582,-7.52187],[110.12584,-7.52188],[110.1261,-7.52199],[110.12621,-7.52207],[110.12639,-7.52218],[110.12655,-7.52222],[110.12671,-7.52229],[110.1268,-7.52233],[110.12698,-7.52242],[110.12722,-7.52258],[110.12733,-7.52266],[110.12759,-7.52276],[110.12761,-7.52277],[110.12814,-7.52298],[110.12836,-7.52308],[110.12858,-7.52319],[110.12873,-7.52326],[110.12889,-7.52335],[110.12904,-7.52339],[110.12913,-7.52341],[110.12921,-7.52343],[110.12936,-7.52347],[110.12953,-7.52349],[110.12965,-7.52355],[110.1297,-7.52362],[110.12971,-7.52365],[110.12973,-7.52372],[110.12975,-7.52377],[110.12977,-7.52379],[110.12985,-7.52383],[110.12996,-7.52385],[110.13006,-7.52389],[110.13011,-7.52392],[110.13014,-7.52397],[110.13031,-7.52389],[110.13034,-7.52387],[110.13041,-7.52382],[110.13051,-7.5238],[110.13055,-7.52388],[110.13055,-7.52391],[110.13056,-7.52396],[110.13054,-7.524],[110.13055,-7.52404],[110.13056,-7.52406],[110.1306,-7.52405],[110.13073,-7.52403],[110.13102,-7.52403],[110.13144,-7.52406],[110.13197,-7.52406],[110.1325,-7.52405],[110.13294,-7.52399],[110.13348,-7.52393],[110.1336,-7.52392],[110.1336,-7.52391],[110.13374,-7.52367],[110.13378,-7.52361],[110.13379,-7.52359],[110.13384,-7.52351],[110.13387,-7.52348],[110.13393,-7.52347],[110.134,-7.52346],[110.13401,-7.52346],[110.13406,-7.52344],[110.1341,-7.52343],[110.13414,-7.52339],[110.13418,-7.52328],[110.13418,-7.52327],[110.13422,-7.52316],[110.13427,-7.52304],[110.13429,-7.52299],[110.13432,-7.52292],[110.13437,-7.52277],[110.13439,-7.52266],[110.13439,-7.52259],[110.13438,-7.52256],[110.13437,-7.52235],[110.13436,-7.52223],[110.13435,-7.5221],[110.13435,-7.52207],[110.13434,-7.52203],[110.13431,-7.52183],[110.13431,-7.52174],[110.13432,-7.52163],[110.13432,-7.52162],[110.13433,-7.52159],[110.13443,-7.52128],[110.13443,-7.52127],[110.13447,-7.52117],[110.13447,-7.52116],[110.13456,-7.52095],[110.13456,-7.52093],[110.13464,-7.52079],[110.13467,-7.52075],[110.13471,-7.5207],[110.1348,-7.52057],[110.13486,-7.52049],[110.13489,-7.52046],[110.13497,-7.52039],[110.13507,-7.52034],[110.1351,-7.52033],[110.13514,-7.52033],[110.13522,-7.52031],[110.13524,-7.52031],[110.13531,-7.52025],[110.13537,-7.52022],[110.13542,-7.5202],[110.13557,-7.52017],[110.1357,-7.52014],[110.13583,-7.5201],[110.13591,-7.52008],[110.13594,-7.52008],[110.136,-7.52003],[110.13608,-7.51998],[110.13615,-7.51992],[110.13625,-7.51984],[110.13634,-7.51978],[110.13642,-7.51975],[110.13648,-7.51974],[110.13656,-7.51972],[110.13674,-7.51965],[110.13681,-7.51962],[110.13683,-7.51961],[110.13683,-7.5196],[110.13677,-7.51957],[110.13648,-7.51938],[110.13642,-7.51934],[110.13637,-7.51931],[110.13617,-7.51918],[110.13603,-7.51909],[110.13601,-7.51907],[110.13597,-7.51902],[110.13591,-7.51891],[110.13576,-7.51844],[110.13574,-7.51829],[110.13571,-7.51795],[110.1357,-7.51787],[110.13566,-7.51776],[110.13562,-7.51767],[110.13556,-7.51761],[110.13553,-7.51757],[110.13548,-7.51748],[110.13544,-7.51739],[110.13541,-7.51727],[110.13539,-7.51714],[110.13538,-7.51662],[110.1354,-7.51644],[110.13544,-7.51613],[110.13545,-7.51608],[110.13546,-7.51601],[110.13549,-7.51578],[110.1355,-7.51566],[110.13551,-7.51551],[110.13549,-7.5154],[110.13541,-7.51514],[110.13535,-7.51502],[110.13526,-7.51483],[110.13512,-7.51459],[110.13507,-7.51445],[110.13502,-7.51432],[110.13498,-7.51414],[110.13495,-7.51404],[110.13491,-7.51395],[110.13482,-7.51385],[110.13481,-7.51383],[110.13466,-7.51366],[110.13458,-7.51358],[110.13448,-7.51353],[110.13439,-7.51349],[110.13422,-7.51342],[110.13414,-7.51336],[110.13401,-7.51327],[110.13396,-7.51323],[110.13391,-7.51316],[110.13388,-7.5131],[110.13383,-7.51289],[110.13375,-7.51263],[110.13369,-7.51248],[110.13368,-7.51246],[110.13363,-7.51234],[110.13356,-7.51222],[110.13346,-7.5121],[110.13333,-7.512],[110.13322,-7.51191],[110.13317,-7.51186],[110.13313,-7.5118],[110.13308,-7.51169],[110.13306,-7.51167],[110.13298,-7.51142],[110.13291,-7.5112],[110.13287,-7.51108],[110.13282,-7.51099],[110.1327,-7.51081],[110.13266,-7.51076],[110.13229,-7.51039],[110.13226,-7.51034],[110.13225,-7.51029],[110.13223,-7.51025],[110.13219,-7.51002],[110.13216,-7.50981],[110.13219,-7.50953],[110.1322,-7.50946],[110.13221,-7.50916],[110.13218,-7.5089],[110.13209,-7.50854],[110.13203,-7.50833],[110.13194,-7.50804],[110.13191,-7.50798],[110.13188,-7.50794],[110.13182,-7.50782],[110.13176,-7.50768],[110.13166,-7.50733],[110.13163,-7.50718],[110.13161,-7.50711],[110.13158,-7.50698],[110.13156,-7.50692],[110.13147,-7.50681],[110.13134,-7.50665],[110.13127,-7.50654],[110.1312,-7.50642],[110.13117,-7.50635],[110.13116,-7.50635],[110.13117,-7.50624],[110.13118,-7.50598],[110.13126,-7.50579],[110.13128,-7.50572],[110.13131,-7.50557],[110.13133,-7.50545],[110.13133,-7.50543],[110.13134,-7.50542],[110.13145,-7.50523],[110.13146,-7.50521],[110.13162,-7.50497],[110.13169,-7.50486],[110.13182,-7.50464],[110.13189,-7.50452],[110.13199,-7.50431],[110.1321,-7.5041],[110.13225,-7.50393],[110.1323,-7.50364],[110.13235,-7.5035],[110.13246,-7.50325],[110.13252,-7.50314],[110.13269,-7.50303],[110.133,-7.50294],[110.13322,-7.50293],[110.13352,-7.50287],[110.13368,-7.5028],[110.13377,-7.5027],[110.13379,-7.5026],[110.13379,-7.50228],[110.13361,-7.50175],[110.13356,-7.50146],[110.1336,-7.50124],[110.13377,-7.50068],[110.13384,-7.50036],[110.1339,-7.50025],[110.13398,-7.50018],[110.13408,-7.50011],[110.13426,-7.5],[110.13438,-7.49992],[110.13453,-7.49979],[110.13454,-7.49978],[110.13441,-7.49908],[110.13399,-7.49841],[110.13327,-7.4974],[110.13279,-7.49688],[110.13247,-7.49654],[110.13231,-7.49636],[110.13225,-7.49628],[110.13169,-7.49555],[110.13126,-7.49469],[110.13097,-7.49412],[110.13027,-7.49291],[110.13004,-7.49263],[110.13,-7.49259],[110.12973,-7.49227],[110.12955,-7.49192],[110.12943,-7.49168],[110.12931,-7.49128],[110.12917,-7.49081],[110.12913,-7.49022],[110.12912,-7.49014],[110.12923,-7.48936],[110.12928,-7.48905],[110.12841,-7.48867],[110.12836,-7.48865],[110.12791,-7.4886],[110.12788,-7.4886],[110.12714,-7.48853],[110.12686,-7.48851],[110.12674,-7.4885],[110.12604,-7.48827],[110.12585,-7.48819],[110.12575,-7.48818],[110.12547,-7.48819],[110.1253,-7.48823],[110.12527,-7.48824],[110.1251,-7.48828],[110.12506,-7.4883],[110.12493,-7.48831],[110.12482,-7.4883],[110.12475,-7.48826],[110.12469,-7.48821],[110.12467,-7.48817],[110.12466,-7.4881],[110.12469,-7.48803],[110.12473,-7.48797],[110.12477,-7.48792],[110.12478,-7.48788],[110.12483,-7.48777],[110.12483,-7.48769],[110.12482,-7.48762],[110.12479,-7.48755],[110.12472,-7.48744],[110.12462,-7.48734],[110.12453,-7.48724],[110.12446,-7.4872],[110.12441,-7.48717],[110.12435,-7.48713],[110.12428,-7.48701],[110.12424,-7.48695],[110.12416,-7.48684],[110.12413,-7.48682],[110.12403,-7.48675],[110.12384,-7.48665],[110.12364,-7.48658],[110.12349,-7.48652],[110.12337,-7.48648],[110.12327,-7.48638],[110.12297,-7.48612],[110.12294,-7.4861],[110.12287,-7.48603],[110.12273,-7.4859],[110.12272,-7.48589],[110.12265,-7.48584],[110.12258,-7.4858],[110.12241,-7.48574],[110.12221,-7.48574],[110.12205,-7.48578],[110.12198,-7.48582],[110.12198,-7.48583],[110.12194,-7.48587],[110.1219,-7.48593],[110.12189,-7.48594],[110.12186,-7.486],[110.12177,-7.48609],[110.12182,-7.48545],[110.12182,-7.48499],[110.12186,-7.48475],[110.12194,-7.48426],[110.12192,-7.48369],[110.12124,-7.48332],[110.12083,-7.48309],[110.12008,-7.48285],[110.11967,-7.48241],[110.11958,-7.48155],[110.11959,-7.48137],[110.11959,-7.48101],[110.1196,-7.48097],[110.11974,-7.48022],[110.11975,-7.48019],[110.1199,-7.47968],[110.12005,-7.47927],[110.12005,-7.47925],[110.12053,-7.47835],[110.12055,-7.47833],[110.1206,-7.47811],[110.12061,-7.47807],[110.12067,-7.4778],[110.12075,-7.47742],[110.12079,-7.47719],[110.12076,-7.477],[110.12061,-7.47688],[110.12032,-7.4767],[110.1199,-7.47643],[110.11961,-7.4763],[110.11883,-7.47598],[110.11882,-7.47596],[110.11881,-7.47596],[110.11846,-7.47557],[110.11844,-7.47554],[110.11809,-7.47503],[110.1177,-7.47457],[110.11704,-7.47353],[110.11704,-7.47352],[110.11701,-7.47262],[110.11725,-7.47123],[110.11723,-7.47115],[110.11708,-7.4706],[110.11692,-7.47041],[110.11678,-7.47023],[110.11661,-7.46999],[110.11659,-7.46996],[110.11629,-7.46976],[110.11514,-7.46971],[110.1145,-7.46979],[110.11429,-7.46986],[110.11418,-7.4699],[110.11404,-7.47011],[110.11383,-7.47045],[110.11301,-7.47125],[110.11247,-7.47167],[110.11187,-7.47211],[110.11177,-7.47219],[110.11174,-7.47221],[110.11149,-7.47236],[110.1113,-7.47245],[110.11112,-7.47253],[110.1111,-7.47254],[110.11101,-7.47259],[110.11091,-7.47265],[110.11057,-7.47286],[110.11054,-7.47288],[110.11037,-7.47302],[110.1103,-7.47308],[110.10997,-7.47338],[110.10986,-7.47353],[110.10983,-7.47358],[110.10982,-7.4736],[110.10971,-7.47386],[110.10969,-7.47392],[110.10963,-7.47421],[110.10956,-7.47481],[110.10955,-7.47501],[110.10955,-7.47506],[110.10958,-7.47528],[110.10953,-7.4754],[110.10946,-7.47551],[110.10941,-7.47554],[110.10928,-7.47557],[110.10927,-7.47557],[110.10899,-7.47552],[110.10879,-7.47548],[110.1088,-7.47552],[110.1088,-7.47556],[110.10879,-7.47561],[110.10876,-7.47567],[110.10871,-7.4757],[110.10842,-7.47579],[110.10841,-7.4758],[110.10825,-7.47585],[110.10819,-7.47587],[110.108,-7.47593],[110.10795,-7.47595],[110.10791,-7.47598],[110.1079,-7.47598],[110.10779,-7.47605],[110.10776,-7.4761],[110.10774,-7.47616],[110.10773,-7.47624],[110.10774,-7.47628],[110.10776,-7.47631],[110.10783,-7.47634],[110.10791,-7.47636],[110.108,-7.47638],[110.10807,-7.4764],[110.10809,-7.47643],[110.10809,-7.47653],[110.10808,-7.47657],[110.10808,-7.47661],[110.10809,-7.47664],[110.10812,-7.4767],[110.10813,-7.47675],[110.10813,-7.47677],[110.10814,-7.4768],[110.10815,-7.47684],[110.10816,-7.47689],[110.10819,-7.47698],[110.10829,-7.47716],[110.1083,-7.47718],[110.10831,-7.47723],[110.10829,-7.4773],[110.10825,-7.47733],[110.10816,-7.47742],[110.10814,-7.47745],[110.10814,-7.47749],[110.10817,-7.47754],[110.10824,-7.47765],[110.10827,-7.47769],[110.10828,-7.47773],[110.10828,-7.47776],[110.10827,-7.47779],[110.10824,-7.47784],[110.10822,-7.47787],[110.10817,-7.4779],[110.10808,-7.47793],[110.108,-7.47795],[110.10781,-7.47795],[110.10778,-7.47796],[110.10775,-7.47799],[110.10773,-7.47804],[110.1077,-7.47813],[110.10767,-7.47823],[110.10763,-7.47833],[110.10758,-7.47848],[110.10756,-7.47852],[110.10747,-7.47861],[110.10734,-7.4787],[110.10721,-7.4788],[110.1072,-7.47883],[110.10717,-7.47888],[110.10717,-7.47892],[110.10718,-7.47895],[110.10719,-7.47897],[110.10723,-7.47902],[110.10724,-7.47903],[110.10729,-7.47912],[110.10734,-7.47922],[110.10737,-7.47934],[110.10737,-7.47954],[110.10734,-7.47961],[110.10726,-7.47967],[110.10711,-7.47973],[110.10699,-7.47979],[110.10696,-7.47982],[110.10688,-7.47987],[110.10679,-7.47996],[110.10671,-7.48012],[110.10665,-7.48022],[110.10659,-7.48033],[110.10654,-7.48044],[110.10654,-7.48054],[110.10655,-7.48062],[110.10658,-7.48077],[110.10658,-7.48095],[110.10661,-7.48109],[110.10663,-7.48128],[110.10662,-7.48146],[110.10661,-7.48156],[110.1066,-7.48175],[110.1066,-7.48196],[110.1065,-7.4822],[110.10645,-7.48234],[110.10644,-7.48236],[110.10638,-7.48252],[110.10634,-7.48263],[110.1063,-7.48277],[110.10629,-7.48288],[110.1063,-7.48301],[110.10632,-7.48307],[110.10634,-7.48314],[110.10641,-7.48332],[110.10648,-7.48342],[110.1065,-7.48348],[110.10652,-7.48352],[110.10653,-7.48361],[110.10655,-7.48369],[110.10655,-7.4838],[110.10632,-7.48382],[110.1062,-7.48378],[110.10609,-7.48372],[110.10599,-7.48364],[110.10583,-7.4835],[110.10566,-7.48331],[110.10556,-7.48319],[110.10551,-7.48307],[110.10551,-7.48301],[110.1055,-7.48282],[110.1055,-7.48274],[110.10548,-7.48265],[110.10541,-7.48256],[110.10534,-7.48242],[110.10528,-7.48224],[110.10528,-7.48208],[110.10527,-7.48196],[110.10525,-7.48188],[110.10525,-7.48183],[110.10522,-7.4817],[110.10522,-7.48157],[110.10521,-7.48148],[110.10519,-7.48139],[110.10513,-7.48132],[110.10506,-7.48125],[110.10496,-7.4812],[110.10487,-7.48113],[110.10484,-7.48109],[110.1048,-7.48103],[110.1048,-7.48096],[110.10483,-7.48088],[110.10487,-7.4808],[110.10491,-7.48074],[110.10496,-7.48064],[110.10511,-7.4805],[110.10512,-7.48048],[110.10522,-7.48031],[110.10534,-7.48016],[110.10537,-7.48009],[110.10537,-7.48005],[110.10535,-7.47999],[110.10531,-7.47991],[110.1053,-7.47983],[110.10532,-7.47967],[110.10531,-7.47954],[110.10529,-7.47941],[110.10529,-7.4793],[110.10527,-7.47922],[110.10524,-7.47915],[110.10521,-7.4791],[110.10516,-7.47908],[110.10503,-7.47908],[110.10493,-7.4791],[110.10483,-7.47909],[110.10477,-7.47907],[110.10469,-7.47901],[110.10464,-7.47895],[110.1046,-7.47886],[110.10455,-7.47871],[110.10454,-7.47869],[110.10453,-7.47861],[110.10453,-7.47812],[110.10456,-7.47804],[110.10459,-7.47801],[110.10465,-7.4779],[110.10467,-7.47783],[110.10467,-7.47775],[110.10465,-7.47769],[110.10461,-7.47761],[110.10456,-7.47756],[110.10453,-7.47749],[110.10453,-7.47745],[110.10452,-7.47739],[110.10449,-7.47732],[110.10445,-7.47727],[110.10437,-7.47722],[110.10428,-7.47713],[110.10422,-7.47705],[110.10412,-7.47693],[110.10401,-7.47682],[110.10387,-7.4767],[110.1038,-7.47662],[110.10375,-7.47654],[110.10373,-7.4765],[110.10369,-7.4764],[110.10367,-7.47634],[110.10366,-7.47626],[110.10368,-7.47622],[110.10369,-7.47617],[110.10369,-7.47611],[110.10365,-7.47602],[110.10359,-7.47597],[110.10335,-7.47587],[110.10331,-7.47585],[110.10323,-7.4758],[110.10318,-7.47575],[110.1031,-7.47568],[110.10305,-7.4756],[110.103,-7.47553],[110.10297,-7.47547],[110.10295,-7.47544],[110.10294,-7.47543],[110.10291,-7.47541],[110.10286,-7.47538],[110.10276,-7.4753],[110.10263,-7.47549],[110.10229,-7.47518],[110.10215,-7.47519],[110.10211,-7.4752],[110.10202,-7.47525],[110.10191,-7.4753],[110.10183,-7.47536],[110.1018,-7.4754],[110.10177,-7.4755],[110.10175,-7.47558],[110.10171,-7.47562],[110.1016,-7.47569],[110.10142,-7.47576],[110.10126,-7.47582],[110.10122,-7.47584],[110.10106,-7.47593],[110.10093,-7.47597],[110.10046,-7.47612],[110.1003,-7.4762],[110.10013,-7.47623],[110.10006,-7.4762],[110.09997,-7.47614],[110.09979,-7.47605],[110.0997,-7.47599],[110.0996,-7.4759],[110.09948,-7.47579],[110.09941,-7.4757],[110.09936,-7.47558],[110.09929,-7.47552],[110.09923,-7.47551],[110.09916,-7.4755],[110.09906,-7.47543],[110.09898,-7.47536],[110.0989,-7.47464],[110.09875,-7.47425],[110.09859,-7.47387],[110.09848,-7.47367],[110.09836,-7.47352],[110.0982,-7.47344],[110.09805,-7.47336],[110.09796,-7.47331],[110.09794,-7.4733],[110.09788,-7.47322],[110.09785,-7.47316],[110.09784,-7.47308],[110.09782,-7.47295],[110.09782,-7.47278],[110.09783,-7.47268],[110.09788,-7.47262],[110.09792,-7.47259],[110.09799,-7.47256],[110.09804,-7.47254],[110.09805,-7.47254],[110.09813,-7.47245],[110.09815,-7.47239],[110.09815,-7.47235],[110.09814,-7.4723],[110.09805,-7.47219],[110.09794,-7.47206],[110.09784,-7.47196],[110.09779,-7.47188],[110.09762,-7.47154],[110.09756,-7.47137],[110.09754,-7.4713],[110.09751,-7.47121],[110.09747,-7.47102],[110.09745,-7.47095],[110.09745,-7.47087],[110.09746,-7.47075],[110.09746,-7.47067],[110.09743,-7.47058],[110.09737,-7.47053],[110.09721,-7.47045],[110.09705,-7.47036],[110.09691,-7.47026],[110.09684,-7.47018],[110.09682,-7.47013],[110.09678,-7.47001],[110.09678,-7.4699],[110.09677,-7.46979],[110.09671,-7.46947],[110.09664,-7.46918],[110.09657,-7.46896],[110.0965,-7.46881],[110.09638,-7.46859],[110.09622,-7.46845],[110.09597,-7.46835],[110.09594,-7.46833],[110.09585,-7.46828],[110.0958,-7.46818],[110.0958,-7.4681],[110.09583,-7.468],[110.09585,-7.46795],[110.09588,-7.46785],[110.09589,-7.46777],[110.09587,-7.46765],[110.09585,-7.46751],[110.09579,-7.46734],[110.09572,-7.46719],[110.09568,-7.46713],[110.09568,-7.46712],[110.09565,-7.46711],[110.09559,-7.46707],[110.09553,-7.46701],[110.09541,-7.46688],[110.09524,-7.4667],[110.09511,-7.46657],[110.09504,-7.46649],[110.0949,-7.46644],[110.09473,-7.4664],[110.09455,-7.46634],[110.09448,-7.46629],[110.09446,-7.46626],[110.09445,-7.46623],[110.09441,-7.46614],[110.0944,-7.46605],[110.09439,-7.46597],[110.09437,-7.46584],[110.09431,-7.46563],[110.09425,-7.46547],[110.09418,-7.46537],[110.09411,-7.46523],[110.09402,-7.4651],[110.09391,-7.46499],[110.09371,-7.46489],[110.09349,-7.46484],[110.09344,-7.46481],[110.09334,-7.46473],[110.09317,-7.46452],[110.09309,-7.46438],[110.0931,-7.4642],[110.09319,-7.46375],[110.09317,-7.46365],[110.09315,-7.46359],[110.09307,-7.46344],[110.09303,-7.46335],[110.09282,-7.46292],[110.0928,-7.4629],[110.09273,-7.46277],[110.09262,-7.46256],[110.09242,-7.46192],[110.09207,-7.46107],[110.09192,-7.4608],[110.09169,-7.46045],[110.09151,-7.46027],[110.09119,-7.46009],[110.09095,-7.45999],[110.09061,-7.45985],[110.0905,-7.45972],[110.09035,-7.45953],[110.09024,-7.45936],[110.09018,-7.45927],[110.09003,-7.45887],[110.08998,-7.45872],[110.08991,-7.45852],[110.08987,-7.45845],[110.08978,-7.4583],[110.08967,-7.45806],[110.08958,-7.45783],[110.08945,-7.45749],[110.08944,-7.45746],[110.08927,-7.45712],[110.08889,-7.45673],[110.08883,-7.45664],[110.08865,-7.45639],[110.0886,-7.45632],[110.08834,-7.45606],[110.08802,-7.45586],[110.08767,-7.45567],[110.0876,-7.45563],[110.08735,-7.45545],[110.08731,-7.4554],[110.08722,-7.45528],[110.08713,-7.45506],[110.08706,-7.45473],[110.08703,-7.45451],[110.087,-7.45427],[110.08695,-7.4541],[110.08695,-7.45394],[110.08701,-7.45378],[110.08709,-7.45363],[110.08713,-7.45356],[110.0872,-7.45338],[110.08718,-7.45323],[110.08709,-7.45309],[110.08685,-7.45284],[110.08665,-7.45261],[110.08654,-7.4525],[110.08646,-7.45243],[110.0864,-7.45234],[110.08617,-7.45205],[110.08598,-7.4516],[110.08586,-7.45119],[110.08568,-7.45042],[110.08563,-7.45005],[110.08558,-7.4498],[110.08536,-7.4494],[110.0852,-7.44915],[110.08507,-7.44872],[110.08498,-7.44852],[110.08476,-7.44832],[110.08446,-7.44819],[110.08423,-7.4481],[110.08399,-7.44795],[110.08381,-7.44775],[110.08368,-7.44743],[110.08374,-7.44706],[110.08376,-7.44687],[110.08371,-7.4467],[110.08359,-7.44646],[110.08352,-7.44611],[110.08352,-7.44547],[110.0835,-7.44528],[110.08333,-7.44497],[110.0831,-7.44473],[110.0829,-7.44448],[110.08256,-7.44396],[110.08219,-7.44333],[110.08191,-7.44292],[110.08172,-7.44256],[110.08155,-7.44231],[110.08146,-7.44205],[110.08138,-7.44174],[110.08117,-7.44141],[110.08103,-7.44115],[110.08083,-7.44047],[110.08075,-7.44024],[110.08072,-7.43991],[110.0807,-7.43951],[110.08073,-7.43906],[110.08077,-7.43859],[110.08084,-7.43808],[110.08085,-7.43762],[110.08091,-7.43725],[110.08093,-7.43689],[110.08086,-7.43665],[110.08074,-7.43641],[110.08067,-7.43632],[110.08055,-7.43635],[110.0804,-7.43642],[110.08024,-7.43653],[110.08008,-7.4366],[110.07994,-7.43658],[110.07978,-7.43645],[110.07967,-7.43627],[110.07951,-7.43609],[110.07925,-7.43594],[110.0791,-7.43587],[110.07895,-7.4357],[110.07875,-7.43559],[110.07873,-7.43558],[110.07858,-7.43539],[110.07849,-7.43515],[110.07848,-7.43493],[110.07852,-7.43473],[110.07853,-7.4345],[110.07852,-7.43429],[110.07851,-7.43423],[110.07849,-7.4341],[110.07841,-7.43398],[110.07824,-7.43377],[110.07808,-7.43358],[110.07785,-7.43329],[110.07777,-7.43316],[110.07771,-7.43303],[110.07759,-7.43289],[110.07745,-7.43277],[110.0773,-7.43267],[110.07705,-7.43245],[110.07691,-7.43226],[110.07681,-7.43201],[110.0768,-7.43193],[110.07679,-7.43186],[110.0768,-7.43169],[110.0768,-7.43136],[110.07683,-7.43117],[110.07681,-7.431],[110.07677,-7.43064],[110.07674,-7.43042],[110.07673,-7.43015],[110.07675,-7.42995],[110.07677,-7.42966],[110.07677,-7.42948],[110.07673,-7.42928],[110.07666,-7.42912],[110.0766,-7.42903],[110.07655,-7.42898],[110.07647,-7.42894],[110.07633,-7.42889],[110.07631,-7.42887],[110.07625,-7.4288],[110.0762,-7.42867],[110.07617,-7.42856],[110.07616,-7.42849],[110.07613,-7.42834],[110.0761,-7.42817],[110.07604,-7.42806],[110.07596,-7.42795],[110.07595,-7.42794],[110.07589,-7.42784],[110.0759,-7.42779],[110.07592,-7.42773],[110.076,-7.4276],[110.07608,-7.42744],[110.07613,-7.42726],[110.07613,-7.42719],[110.07612,-7.42713],[110.0761,-7.4271],[110.07609,-7.42706],[110.07608,-7.42694],[110.07609,-7.42692],[110.0761,-7.42685],[110.07613,-7.42674],[110.07612,-7.42661],[110.0761,-7.42654],[110.07607,-7.42647],[110.076,-7.42637],[110.07595,-7.4263],[110.07594,-7.42623],[110.07597,-7.4261],[110.07599,-7.42588],[110.07599,-7.42548],[110.07601,-7.42501],[110.07599,-7.42435],[110.07597,-7.42303],[110.07598,-7.42292],[110.07591,-7.42269],[110.0759,-7.42257],[110.0759,-7.42202],[110.07591,-7.42202],[110.07591,-7.42192],[110.07592,-7.42182],[110.07596,-7.4215],[110.07596,-7.42148],[110.07597,-7.42146],[110.07597,-7.42144],[110.07604,-7.42119],[110.07607,-7.42091],[110.07607,-7.42087],[110.07609,-7.4207],[110.0761,-7.42065],[110.0761,-7.4203],[110.07611,-7.42023],[110.07613,-7.42001],[110.07609,-7.41982],[110.07606,-7.41963],[110.07603,-7.41952],[110.07593,-7.41938],[110.07593,-7.41936],[110.07587,-7.41925],[110.07586,-7.4192],[110.07588,-7.4191],[110.07589,-7.4191],[110.0759,-7.41903],[110.0759,-7.41897],[110.07592,-7.41887],[110.07592,-7.41882],[110.07591,-7.41874],[110.07586,-7.4187],[110.07585,-7.41869],[110.07582,-7.41865],[110.0758,-7.4186],[110.07582,-7.41851],[110.07585,-7.4184],[110.07587,-7.41833],[110.07589,-7.41815],[110.07583,-7.41779],[110.07581,-7.41757],[110.07579,-7.41744],[110.0758,-7.41724],[110.07579,-7.41711],[110.07579,-7.41686],[110.07577,-7.41669],[110.07578,-7.41646],[110.07577,-7.41623],[110.0757,-7.41604],[110.07566,-7.41591],[110.07562,-7.41586],[110.07557,-7.41581],[110.07553,-7.41574],[110.07552,-7.41569],[110.07554,-7.41566],[110.07557,-7.41567],[110.07564,-7.41567],[110.07568,-7.41568],[110.07571,-7.41567],[110.07575,-7.41564],[110.07576,-7.4156],[110.07576,-7.41553],[110.0757,-7.41526],[110.0757,-7.41525],[110.07573,-7.41506],[110.07574,-7.415],[110.07564,-7.41422],[110.07559,-7.41408],[110.07555,-7.41397],[110.07549,-7.41374],[110.07549,-7.41372],[110.07547,-7.41367],[110.07542,-7.41349],[110.07536,-7.41331],[110.07534,-7.41327],[110.07532,-7.41318],[110.07527,-7.41298],[110.07526,-7.41292],[110.0752,-7.41277],[110.07509,-7.41241],[110.07504,-7.41219],[110.075,-7.41206],[110.07498,-7.412],[110.07495,-7.41189],[110.07491,-7.41184],[110.0747,-7.41172],[110.07464,-7.41169],[110.07463,-7.41168],[110.0746,-7.41166],[110.07446,-7.41156],[110.07437,-7.41147],[110.07423,-7.41127],[110.07414,-7.41111],[110.07412,-7.41108],[110.074,-7.41083],[110.07395,-7.4107],[110.07395,-7.41069],[110.07394,-7.41067],[110.07384,-7.41033],[110.07381,-7.41024],[110.07377,-7.41004],[110.07377,-7.40975],[110.07378,-7.40962],[110.07378,-7.40938],[110.07379,-7.40925],[110.07378,-7.40922],[110.07378,-7.40916],[110.07376,-7.40905],[110.07374,-7.40893],[110.07367,-7.40872],[110.07358,-7.40849],[110.07345,-7.40825],[110.07344,-7.40822],[110.07338,-7.40805],[110.0733,-7.40785],[110.07329,-7.40782],[110.07322,-7.40766],[110.07319,-7.40758],[110.07318,-7.40755],[110.07317,-7.40749],[110.07317,-7.40747],[110.07315,-7.40732],[110.07315,-7.40703],[110.07316,-7.40699],[110.07316,-7.40667],[110.07317,-7.40644],[110.07317,-7.40641],[110.07318,-7.40635],[110.07318,-7.40629],[110.07322,-7.40622],[110.07325,-7.40617],[110.07328,-7.4061],[110.07329,-7.4061],[110.0733,-7.40609],[110.07344,-7.40592],[110.07346,-7.40589],[110.07349,-7.40579],[110.07351,-7.40571],[110.07351,-7.4057],[110.07352,-7.40562],[110.07352,-7.40551],[110.07353,-7.40542],[110.07352,-7.40536],[110.07351,-7.4052],[110.07351,-7.40487],[110.07352,-7.40485],[110.07356,-7.40458],[110.07358,-7.40452],[110.0736,-7.40444],[110.07363,-7.40434],[110.07365,-7.40426],[110.07365,-7.40424],[110.07369,-7.40401],[110.07369,-7.40374],[110.07368,-7.40353],[110.07366,-7.40332],[110.07364,-7.40318],[110.07363,-7.40312],[110.07363,-7.40309],[110.07362,-7.40305],[110.07361,-7.40292],[110.07358,-7.40271],[110.07358,-7.4027],[110.07357,-7.40268],[110.07354,-7.40247],[110.07354,-7.40244],[110.07353,-7.40237],[110.07353,-7.40203],[110.07354,-7.40202],[110.07351,-7.40179],[110.07347,-7.40162],[110.07361,-7.40128],[110.07363,-7.40107],[110.07368,-7.40067],[110.0738,-7.40032],[110.07398,-7.39986],[110.0743,-7.3991],[110.07462,-7.39835],[110.07468,-7.39822],[110.07469,-7.39817],[110.07482,-7.39747],[110.07484,-7.3972],[110.07486,-7.39699],[110.07489,-7.39665],[110.07489,-7.39631],[110.07488,-7.39618],[110.07488,-7.39571],[110.07489,-7.39567],[110.0749,-7.39561],[110.07492,-7.39553],[110.07493,-7.39539],[110.07494,-7.39534],[110.07494,-7.39524],[110.07495,-7.39506],[110.07494,-7.39488],[110.07493,-7.39483],[110.07492,-7.39465],[110.0749,-7.39455],[110.07489,-7.39445],[110.07488,-7.39436],[110.07487,-7.39431],[110.07487,-7.39429],[110.07483,-7.39409],[110.07479,-7.39388],[110.07478,-7.39388],[110.07478,-7.39386],[110.07475,-7.39369],[110.07475,-7.39364],[110.07473,-7.39346],[110.07473,-7.39338],[110.07472,-7.39336],[110.07471,-7.39325],[110.0747,-7.39315],[110.0747,-7.39309],[110.07469,-7.39305],[110.07469,-7.39302],[110.07468,-7.39293],[110.07467,-7.39286],[110.07465,-7.39279],[110.07462,-7.39264],[110.07461,-7.39263],[110.07461,-7.39262],[110.07459,-7.39249],[110.07459,-7.39212],[110.0746,-7.39206],[110.0746,-7.39195],[110.07461,-7.39189],[110.07461,-7.39178],[110.07462,-7.39166],[110.07462,-7.39151],[110.07463,-7.39138],[110.07463,-7.39117],[110.07464,-7.39106],[110.07464,-7.39074],[110.07465,-7.39066],[110.07465,-7.39046],[110.07466,-7.39037],[110.07466,-7.39022],[110.07467,-7.39008],[110.07467,-7.38954],[110.07468,-7.38883],[110.07468,-7.38774],[110.07467,-7.3874],[110.07466,-7.38689],[110.07465,-7.3867],[110.07462,-7.38635],[110.07457,-7.3858],[110.07438,-7.3851],[110.0743,-7.38513],[110.0743,-7.38514],[110.07425,-7.38546],[110.07421,-7.3857],[110.0742,-7.38575],[110.07418,-7.38587],[110.07409,-7.38648],[110.07382,-7.3875],[110.07382,-7.38751],[110.07362,-7.38816],[110.07361,-7.38819],[110.07337,-7.38893],[110.07333,-7.38907],[110.07328,-7.38916],[110.07322,-7.3893],[110.07303,-7.38969],[110.07276,-7.3903],[110.07273,-7.39037],[110.07263,-7.3905],[110.07205,-7.39126],[110.07174,-7.39173],[110.07155,-7.392],[110.07145,-7.39216],[110.07101,-7.39268],[110.07089,-7.39281],[110.07054,-7.39322],[110.07045,-7.39335],[110.07036,-7.3935],[110.07021,-7.39373],[110.06993,-7.39441],[110.06943,-7.39536],[110.0694,-7.3954],[110.06907,-7.39589],[110.06902,-7.39595],[110.06896,-7.39602],[110.06869,-7.39628],[110.06852,-7.39644],[110.06824,-7.39679],[110.06798,-7.39712],[110.06768,-7.39763],[110.06762,-7.39781],[110.06742,-7.39843],[110.06706,-7.3994],[110.06695,-7.39969],[110.06675,-7.40024],[110.06653,-7.40063],[110.06632,-7.40097],[110.06613,-7.40127],[110.066,-7.40147],[110.0659,-7.40162],[110.06523,-7.4024],[110.0651,-7.40264],[110.06509,-7.40264],[110.065,-7.40274],[110.06491,-7.40285],[110.06471,-7.40326],[110.06466,-7.40338],[110.06461,-7.40352],[110.06454,-7.40372],[110.06451,-7.4038],[110.06444,-7.40397],[110.06429,-7.4043],[110.06426,-7.40435],[110.06424,-7.40438],[110.0641,-7.40472],[110.06408,-7.40488],[110.06408,-7.40508],[110.06399,-7.40537],[110.06398,-7.4054],[110.06387,-7.40567],[110.06383,-7.40578],[110.06378,-7.40591],[110.06374,-7.406],[110.06371,-7.40609],[110.06368,-7.40616],[110.06353,-7.40659],[110.06327,-7.40697],[110.0631,-7.40731],[110.063,-7.40752],[110.06299,-7.40753],[110.06298,-7.40756],[110.06273,-7.40815],[110.06272,-7.40817],[110.06272,-7.40818],[110.06259,-7.40867],[110.0625,-7.40918],[110.06242,-7.40982],[110.06242,-7.40984],[110.0624,-7.41037],[110.0624,-7.41052],[110.06238,-7.4114],[110.06238,-7.41212],[110.06237,-7.41215],[110.06233,-7.41261],[110.06234,-7.41264],[110.06238,-7.41288],[110.06238,-7.41289],[110.06242,-7.41297],[110.0625,-7.41314],[110.06263,-7.41338],[110.0627,-7.41351],[110.0627,-7.41365],[110.06264,-7.41386],[110.06194,-7.41547],[110.06185,-7.41563],[110.06184,-7.41565],[110.06157,-7.41602],[110.06148,-7.41623],[110.06147,-7.41624],[110.06144,-7.4165],[110.06138,-7.41693],[110.06137,-7.41698],[110.06137,-7.41699],[110.06132,-7.41709],[110.06129,-7.41716],[110.0612,-7.41726],[110.06103,-7.41745],[110.0609,-7.41768],[110.06082,-7.41791],[110.06076,-7.41811],[110.0606,-7.41836],[110.06055,-7.41842],[110.06038,-7.41874],[110.06035,-7.41882],[110.06023,-7.41915],[110.06014,-7.41953],[110.06013,-7.41958],[110.06008,-7.41993],[110.06006,-7.42003],[110.06001,-7.42031],[110.05992,-7.4206],[110.05988,-7.42073],[110.05984,-7.42089],[110.05967,-7.4214],[110.05966,-7.42142],[110.05955,-7.42182],[110.05958,-7.42202],[110.05969,-7.42223],[110.05978,-7.42239],[110.0598,-7.42243],[110.05987,-7.42255],[110.05987,-7.42271],[110.05985,-7.42276],[110.0598,-7.42291],[110.05964,-7.42331],[110.05961,-7.42348],[110.05961,-7.4235],[110.05964,-7.42366],[110.05975,-7.42386],[110.05984,-7.42403],[110.06,-7.4243],[110.05991,-7.42445],[110.05988,-7.42451],[110.05969,-7.42483],[110.05969,-7.42499],[110.05976,-7.42525],[110.05987,-7.42567],[110.05982,-7.42575],[110.05981,-7.42578],[110.05979,-7.42578],[110.05968,-7.42585],[110.05944,-7.42589],[110.05922,-7.42595],[110.05916,-7.42599],[110.05908,-7.42605],[110.05903,-7.42613],[110.05897,-7.42623],[110.05893,-7.42639],[110.05895,-7.42646],[110.05898,-7.42654],[110.05909,-7.4267],[110.05914,-7.42678],[110.05917,-7.42682],[110.05922,-7.42691],[110.05929,-7.42705],[110.0593,-7.42712],[110.05931,-7.42724],[110.05928,-7.42734],[110.05926,-7.42742],[110.05917,-7.42756],[110.0591,-7.42766],[110.05886,-7.42785],[110.0587,-7.42801],[110.05867,-7.42811],[110.05866,-7.42816],[110.05867,-7.42817],[110.05873,-7.42825],[110.05885,-7.42834],[110.05893,-7.42839],[110.05907,-7.42851],[110.0591,-7.42853],[110.05911,-7.42863],[110.05905,-7.42878],[110.05891,-7.42915],[110.05889,-7.42919],[110.05895,-7.42935],[110.05896,-7.42937],[110.0592,-7.4299],[110.05939,-7.43035],[110.05942,-7.43044],[110.05945,-7.43052],[110.05945,-7.43072],[110.05946,-7.43079],[110.05945,-7.43169],[110.05945,-7.43173],[110.05948,-7.43175],[110.05962,-7.43181],[110.05968,-7.43184],[110.06006,-7.43212],[110.06006,-7.43215],[110.06008,-7.43225],[110.06002,-7.43237],[110.05989,-7.43246],[110.05974,-7.43247],[110.0597,-7.43247],[110.05961,-7.43249],[110.0596,-7.4326],[110.05967,-7.43278],[110.05974,-7.43303],[110.05968,-7.4331],[110.05957,-7.43312],[110.05917,-7.43314],[110.05909,-7.43326],[110.05909,-7.43339],[110.05915,-7.43351],[110.05917,-7.43353],[110.05933,-7.43367],[110.05936,-7.43369],[110.05951,-7.43382],[110.05958,-7.43387],[110.05958,-7.43388],[110.05963,-7.43391],[110.05963,-7.43396],[110.05962,-7.43402],[110.05962,-7.43403],[110.05954,-7.43471],[110.0596,-7.43494],[110.05969,-7.43504],[110.05972,-7.43508],[110.06009,-7.4355],[110.06008,-7.43563],[110.06007,-7.43568],[110.06004,-7.43592],[110.06,-7.43625],[110.05994,-7.43651],[110.05993,-7.43656],[110.0598,-7.43698],[110.05979,-7.43722],[110.05986,-7.43739],[110.05995,-7.43758],[110.05995,-7.43759],[110.05999,-7.43769],[110.06,-7.4378],[110.06,-7.43791],[110.06002,-7.4382],[110.06003,-7.43854],[110.06001,-7.43875],[110.05995,-7.4388],[110.05992,-7.43883],[110.05978,-7.43885],[110.05954,-7.43889],[110.0594,-7.4392],[110.05939,-7.4392],[110.05939,-7.43959],[110.0594,-7.43959],[110.05973,-7.43992],[110.05973,-7.44002],[110.05967,-7.44007],[110.05965,-7.44008],[110.05924,-7.4402],[110.05923,-7.4402],[110.0592,-7.44028],[110.05918,-7.44032],[110.05918,-7.44038],[110.05919,-7.44053],[110.0592,-7.44073],[110.05922,-7.44095],[110.05903,-7.44159],[110.05902,-7.44161],[110.05898,-7.44174],[110.05892,-7.44205],[110.05888,-7.44249],[110.05884,-7.44287],[110.0589,-7.44334],[110.05909,-7.444],[110.05915,-7.44424],[110.05933,-7.44442],[110.0597,-7.44472],[110.05977,-7.44484],[110.0598,-7.44488],[110.05982,-7.44493],[110.05996,-7.44523],[110.06008,-7.44531],[110.06019,-7.4454],[110.0602,-7.4454],[110.0602,-7.44557],[110.06012,-7.44562],[110.0601,-7.44563],[110.05972,-7.44577],[110.05965,-7.44591],[110.05968,-7.44602],[110.05982,-7.44618],[110.05986,-7.44623],[110.06001,-7.44641],[110.06002,-7.44651],[110.05999,-7.44661],[110.05996,-7.4467],[110.05992,-7.44676],[110.05986,-7.44681],[110.0597,-7.44685],[110.05965,-7.44686],[110.05961,-7.44689],[110.05956,-7.44708],[110.05956,-7.44712],[110.05957,-7.44721],[110.05956,-7.44762],[110.05949,-7.44766],[110.05939,-7.44761],[110.05923,-7.44754],[110.05909,-7.44747],[110.05899,-7.44751],[110.05891,-7.44779],[110.05891,-7.4478],[110.05892,-7.44785],[110.05895,-7.44796],[110.05905,-7.44829],[110.05898,-7.44845],[110.05895,-7.4485],[110.0587,-7.44891],[110.05872,-7.44911],[110.05872,-7.44917],[110.05877,-7.44953],[110.05878,-7.4496],[110.0588,-7.44979],[110.05881,-7.44981],[110.05893,-7.45013],[110.05884,-7.45026],[110.05882,-7.45028],[110.05879,-7.45039],[110.05881,-7.45047],[110.05883,-7.45056],[110.05887,-7.45061],[110.05889,-7.45064],[110.05929,-7.45083],[110.0593,-7.45094],[110.05929,-7.45096],[110.05925,-7.45106],[110.05895,-7.4515],[110.05896,-7.45155],[110.05899,-7.45171],[110.05912,-7.45201],[110.05908,-7.45216],[110.05905,-7.45234],[110.05909,-7.45245],[110.05916,-7.4525],[110.05922,-7.45254],[110.05939,-7.45266],[110.05954,-7.45276],[110.0596,-7.45289],[110.05963,-7.45294],[110.05963,-7.45303],[110.05962,-7.4531],[110.05963,-7.45339],[110.05972,-7.45348],[110.05989,-7.45356],[110.05997,-7.45355],[110.06,-7.45354],[110.06008,-7.45353],[110.06015,-7.45351],[110.06017,-7.45372],[110.06019,-7.45379],[110.06035,-7.45449],[110.06035,-7.45451],[110.06065,-7.45481],[110.06118,-7.45507],[110.06147,-7.45525],[110.06184,-7.45549],[110.06257,-7.45621],[110.06258,-7.45622],[110.06327,-7.45668],[110.06455,-7.45763],[110.06472,-7.45825],[110.0649,-7.4589],[110.06496,-7.45951],[110.06485,-7.45997],[110.06447,-7.46057],[110.06431,-7.46083],[110.06404,-7.46128],[110.06377,-7.46194],[110.06337,-7.46295],[110.06323,-7.46328],[110.06319,-7.46339],[110.06316,-7.46345],[110.06286,-7.4639],[110.0626,-7.4641],[110.06191,-7.46467],[110.06121,-7.4653],[110.06038,-7.46603],[110.06007,-7.46639],[110.05981,-7.46698],[110.05981,-7.46704],[110.05978,-7.46758],[110.05995,-7.46822],[110.05993,-7.46888],[110.05991,-7.46948],[110.05964,-7.47017],[110.05944,-7.47039],[110.05926,-7.47059],[110.05774,-7.47138],[110.05739,-7.47167],[110.05703,-7.47196],[110.05679,-7.47244],[110.05678,-7.47244],[110.05658,-7.47286],[110.05638,-7.47327],[110.05624,-7.4736],[110.05618,-7.47375],[110.056,-7.47411],[110.05564,-7.47473],[110.05561,-7.47479],[110.05527,-7.4755],[110.05525,-7.47558],[110.05513,-7.47608],[110.05501,-7.4767],[110.05481,-7.47698],[110.05465,-7.47728],[110.05461,-7.47736],[110.05424,-7.47809],[110.05408,-7.47839],[110.05408,-7.47842],[110.05405,-7.47905],[110.05391,-7.47984],[110.05378,-7.48003],[110.05362,-7.48025],[110.05303,-7.48093],[110.05233,-7.48158],[110.05211,-7.48179],[110.0519,-7.48245],[110.05188,-7.48252],[110.05188,-7.48313],[110.05193,-7.48324],[110.05204,-7.48344],[110.05233,-7.48378],[110.05262,-7.48413],[110.05271,-7.4848],[110.05274,-7.48499],[110.05291,-7.48596],[110.05296,-7.48632],[110.05305,-7.48693],[110.05327,-7.48837],[110.05349,-7.48943],[110.05355,-7.48977],[110.05368,-7.49053],[110.0539,-7.49276],[110.0538,-7.4935],[110.0535,-7.4942],[110.0533,-7.4946],[110.05312,-7.49491],[110.05295,-7.49506],[110.05254,-7.49584],[110.05237,-7.49615],[110.05235,-7.49619],[110.05211,-7.49707],[110.05201,-7.49725],[110.05176,-7.49741],[110.05163,-7.49748],[110.05119,-7.49782],[110.05116,-7.49788],[110.05052,-7.49937],[110.05046,-7.49992],[110.05018,-7.50058],[110.05003,-7.50078],[110.04968,-7.50108],[110.04951,-7.50115],[110.04925,-7.50125],[110.04924,-7.50126],[110.04922,-7.50129],[110.04917,-7.50136],[110.04907,-7.50149],[110.04903,-7.50155],[110.049,-7.50159],[110.04899,-7.50161],[110.04895,-7.50166],[110.04894,-7.50168],[110.04892,-7.50174],[110.04884,-7.50199],[110.0488,-7.50209],[110.04868,-7.50243],[110.04864,-7.50256],[110.04863,-7.50259],[110.04859,-7.5027],[110.0486,-7.50273],[110.04863,-7.50284],[110.04869,-7.50301],[110.04874,-7.50316],[110.0488,-7.50319],[110.04929,-7.50346],[110.04938,-7.50351],[110.04939,-7.50352],[110.04949,-7.50364],[110.04969,-7.50389],[110.04984,-7.50406],[110.04986,-7.50409],[110.04987,-7.50411],[110.04995,-7.50421],[110.04996,-7.50422],[110.04997,-7.50424],[110.04999,-7.50455],[110.05001,-7.50477],[110.05003,-7.50505],[110.05008,-7.50508],[110.05019,-7.50516],[110.05046,-7.50534],[110.05057,-7.50541],[110.05049,-7.50581],[110.05044,-7.50602],[110.05042,-7.50613],[110.05038,-7.50633],[110.05035,-7.50647],[110.05034,-7.50649],[110.05012,-7.50747],[110.05011,-7.50747],[110.04913,-7.50782],[110.04909,-7.50784],[110.04909,-7.50785],[110.04908,-7.50785],[110.04874,-7.50815],[110.04859,-7.50827],[110.04827,-7.50854],[110.04824,-7.50858],[110.04817,-7.50864],[110.04809,-7.50869],[110.048,-7.50876],[110.04766,-7.50901],[110.04765,-7.50902],[110.04748,-7.50915],[110.04739,-7.50922],[110.04729,-7.50929],[110.0471,-7.50943],[110.04707,-7.50949],[110.047,-7.50964],[110.04699,-7.50966],[110.04699,-7.50967],[110.047,-7.50979],[110.04703,-7.50997],[110.04703,-7.51002],[110.04706,-7.51003],[110.04708,-7.51004],[110.04728,-7.51013],[110.04745,-7.51021],[110.04745,-7.51024],[110.04744,-7.51055],[110.04744,-7.51059],[110.04741,-7.51074],[110.0474,-7.51077],[110.04734,-7.511],[110.04729,-7.51122],[110.04739,-7.51129],[110.04747,-7.51127],[110.04767,-7.51123],[110.04785,-7.51119],[110.04803,-7.51123],[110.0481,-7.51124],[110.04826,-7.51136],[110.04832,-7.51144],[110.04833,-7.51146],[110.04834,-7.51147],[110.04835,-7.51149],[110.0484,-7.51155],[110.04887,-7.5116],[110.04893,-7.51196],[110.04893,-7.51199],[110.04909,-7.51219],[110.04909,-7.51222],[110.0491,-7.51225],[110.04921,-7.51268],[110.04925,-7.51281],[110.0493,-7.51301],[110.04928,-7.51309],[110.04926,-7.51314],[110.04915,-7.51353],[110.04908,-7.51375],[110.04907,-7.51377],[110.04888,-7.51379],[110.04849,-7.51414],[110.04834,-7.51427],[110.04826,-7.51432],[110.04789,-7.51455],[110.04764,-7.51471],[110.04762,-7.51475],[110.04754,-7.51496],[110.04749,-7.51509],[110.04753,-7.51514],[110.04772,-7.51541],[110.04772,-7.51542],[110.04775,-7.51551],[110.04788,-7.51592],[110.04792,-7.51607],[110.04789,-7.51625],[110.04782,-7.51651],[110.04773,-7.51661],[110.04767,-7.51667],[110.04752,-7.51675],[110.04705,-7.51702],[110.04706,-7.51723],[110.04706,-7.51726],[110.04707,-7.51727],[110.04708,-7.51731],[110.0471,-7.5174],[110.04713,-7.51748],[110.04724,-7.51786],[110.04724,-7.51787],[110.04723,-7.5179],[110.04721,-7.51792],[110.04714,-7.51804],[110.04713,-7.51805],[110.04712,-7.51808],[110.04709,-7.51808],[110.04692,-7.51812],[110.0464,-7.51804],[110.04636,-7.51803],[110.04632,-7.51803],[110.04631,-7.51808],[110.04629,-7.51817],[110.04628,-7.51819],[110.04626,-7.5183],[110.04623,-7.51839],[110.04628,-7.51873],[110.04632,-7.519],[110.04633,-7.5191],[110.04611,-7.51951],[110.04606,-7.51959],[110.04602,-7.51961],[110.04566,-7.51982],[110.04558,-7.51987],[110.04552,-7.51987],[110.04512,-7.51985],[110.04479,-7.51983],[110.04473,-7.51982],[110.04468,-7.51988],[110.04443,-7.52013],[110.04445,-7.52047],[110.04446,-7.52066],[110.04447,-7.52077],[110.04447,-7.52082],[110.04454,-7.5209],[110.04464,-7.52103],[110.04469,-7.52109],[110.04485,-7.52129],[110.04505,-7.52156],[110.04505,-7.52159],[110.04504,-7.52166],[110.045,-7.52188],[110.04494,-7.5223],[110.04491,-7.5225],[110.0449,-7.52254],[110.0449,-7.52257],[110.04487,-7.52272],[110.04481,-7.52315],[110.04468,-7.52319],[110.0445,-7.52324],[110.0444,-7.52326],[110.04424,-7.52331],[110.0441,-7.52339],[110.04407,-7.5234],[110.04405,-7.52342],[110.04399,-7.52345],[110.044,-7.52398],[110.044,-7.52412],[110.04415,-7.5243],[110.0443,-7.52447],[110.04443,-7.52449],[110.04446,-7.5245],[110.0445,-7.52452],[110.04459,-7.52456],[110.04466,-7.52458],[110.04467,-7.5246],[110.04477,-7.5247],[110.04477,-7.52471],[110.04474,-7.52488],[110.04472,-7.52501],[110.04471,-7.52502],[110.04471,-7.52503],[110.04446,-7.52534],[110.04445,-7.52535],[110.04438,-7.52556],[110.04424,-7.52597],[110.04421,-7.52605],[110.04421,-7.52606],[110.04419,-7.52644],[110.04418,-7.52665],[110.04417,-7.52687],[110.04414,-7.5269],[110.04405,-7.52697],[110.04399,-7.52703],[110.04394,-7.52707],[110.04393,-7.52708],[110.04348,-7.52747],[110.04347,-7.52748],[110.04346,-7.5275]]]}}]}