{"type":"FeatureCollection","features":[{"type":"Feature","properties":{"KECAMATAN":"Kaliangkrik"},"geometry":{"type":"Polygon","coordinates":[[[110.07315,-7.40732],[110.07317,-7.40747],[110.07317,-7.40749],[110.07318,-7.40755],[110.07319,-7.40758],[110.07322,-7.40766],[110.07329,-7.40782],[110.0733,-7.40785],[110.07338,-7.40805],[110.07344,-7.40822],[110.07345,-7.40825],[110.07358,-7.40849],[110.07367,-7.40872],[110.07374,-7.40893],[110.07376,-7.40905],[110.07378,-7.40916],[110.07378,-7.40922],[110.07379,-7.40925],[110.07378,-7.40938],[110.07378,-7.40962],[110.07377,-7.40975],[110.07377,-7.41004],[110.07381,-7.41024],[110.07384,-7.41033],[110.07394,-7.41067],[110.07395,-7.41069],[110.07395,-7.4107],[110.074,-7.41083],[110.07412,-7.41108],[110.07414,-7.41111],[110.07423,-7.41127],[110.07437,-7.41147],[110.07446,-7.41156],[110.0746,-7.41166],[110.07463,-7.41168],[110.07464,-7.41169],[110.0747,-7.41172],[110.07491,-7.41184],[110.07495,-7.41189],[110.07498,-7.412],[110.075,-7.41206],[110.07504,-7.41219],[110.07509,-7.41241],[110.0752,-7.41277],[110.07526,-7.41292],[110.07527,-7.41298],[110.07532,-7.41318],[110.07534,-7.41327],[110.07536,-7.41331],[110.07542,-7.41349],[110.07547,-7.41367],[110.07549,-7.41372],[110.07549,-7.41374],[110.07555,-7.41397],[110.07559,-7.41408],[110.07564,-7.41422],[110.07574,-7.415],[110.07573,-7.41506],[110.0757,-7.41525],[110.0757,-7.41526],[110.07576,-7.41553],[110.07576,-7.4156],[110.07575,-7.41564],[110.07571,-7.41567],[110.07568,-7.41568],[110.07564,-7.41567],[110.07557,-7.41567],[110.07554,-7.41566],[110.07552,-7.41569],[110.07553,-7.41574],[110.07557,-7.41581],[110.07562,-7.41586],[110.07566,-7.41591],[110.0757,-7.41604],[110.07577,-7.41623],[110.07578,-7.41646],[110.07577,-7.41669],[110.07579,-7.41686],[110.07579,-7.41711],[110.0758,-7.41724],[110.07579,-7.41744],[110.07581,-7.41757],[110.07583,-7.41779],[110.07589,-7.41815],[110.07587,-7.41833],[110.07585,-7.4184],[110.07582,-7.41851],[110.0758,-7.4186],[110.07582,-7.41865],[110.07585,-7.41869],[110.07586,-7.4187],[110.07591,-7.41874],[110.07592,-7.41882],[110.07592,-7.41887],[110.0759,-7.41897],[110.0759,-7.41903],[110.07589,-7.4191],[110.07588,-7.4191],[110.07586,-7.4192],[110.07587,-7.41925],[110.07593,-7.41936],[110.07593,-7.41938],[110.07603,-7.41952],[110.07606,-7.41963],[110.07609,-7.41982],[110.07613,-7.42001],[110.07611,-7.42023],[110.0761,-7.4203],[110.0761,-7.42065],[110.07609,-7.4207],[110.07607,-7.42087],[110.07607,-7.42091],[110.07604,-7.42119],[110.07597,-7.42144],[110.07597,-7.42146],[110.07596,-7.42148],[110.07596,-7.4215],[110.07592,-7.42182],[110.07591,-7.42192],[110.07591,-7.42202],[110.0759,-7.42202],[110.0759,-7.42257],[110.07591,-7.42269],[110.07598,-7.42292],[110.07597,-7.42303],[110.07599,-7.42435],[110.07601,-7.42501],[110.07599,-7.42548],[110.07599,-7.42588],[110.07597,-7.4261],[110.07594,-7.42623],[110.07595,-7.4263],[110.076,-7.42637],[110.07607,-7.42647],[110.0761,-7.42654],[110.07612,-7.42661],[110.07613,-7.42674],[110.0761,-7.42685],[110.07609,-7.42692],[110.07608,-7.42694],[110.07609,-7.42706],[110.0761,-7.4271],[110.07612,-7.42713],[110.07613,-7.42719],[110.07613,-7.42726],[110.07608,-7.42744],[110.076,-7.4276],[110.07592,-7.42773],[110.0759,-7.42779],[110.07589,-7.42784],[110.07595,-7.42794],[110.07596,-7.42795],[110.07604,-7.42806],[110.0761,-7.42817],[110.07613,-7.42834],[110.07616,-7.42849],[110.07617,-7.42856],[110.0762,-7.42867],[110.07625,-7.4288],[110.07631,-7.42887],[110.07633,-7.42889],[110.07647,-7.42894],[110.07655,-7.42898],[110.0766,-7.42903],[110.07666,-7.42912],[110.07673,-7.42928],[110.07677,-7.42948],[110.07677,-7.42966],[110.07675,-7.42995],[110.07673,-7.43015],[110.07674,-7.43042],[110.07677,-7.43064],[110.07681,-7.431],[110.07683,-7.43117],[110.0768,-7.43136],[110.0768,-7.43169],[110.07679,-7.43186],[110.0768,-7.43193],[110.07681,-7.43201],[110.07691,-7.43226],[110.07705,-7.43245],[110.0773,-7.43267],[110.07745,-7.43277],[110.07759,-7.43289],[110.07771,-7.43303],[110.07777,-7.43316],[110.07785,-7.43329],[110.07808,-7.43358],[110.07824,-7.43377],[110.07841,-7.43398],[110.07849,-7.4341],[110.07851,-7.43423],[110.07852,-7.43429],[110.07853,-7.4345],[110.07852,-7.43473],[110.07848,-7.43493],[110.07849,-7.43515],[110.07858,-7.43539],[110.07873,-7.43558],[110.07875,-7.43559],[110.07895,-7.4357],[110.0791,-7.43587],[110.07925,-7.43594],[110.07951,-7.43609],[110.07967,-7.43627],[110.07978,-7.43645],[110.07994,-7.43658],[110.08008,-7.4366],[110.08024,-7.43653],[110.0804,-7.43642],[110.08055,-7.43635],[110.08067,-7.43632],[110.08074,-7.43641],[110.08086,-7.43665],[110.08093,-7.43689],[110.08091,-7.43725],[110.08085,-7.43762],[110.08084,-7.43808],[110.08077,-7.43859],[110.08073,-7.43906],[110.0807,-7.43951],[110.08072,-7.43991],[110.08075,-7.44024],[110.08083,-7.44047],[110.08103,-7.44115],[110.08117,-7.44141],[110.08138,-7.44174],[110.08146,-7.44205],[110.08155,-7.44231],[110.08172,-7.44256],[110.08191,-7.44292],[110.08219,-7.44333],[110.08256,-7.44396],[110.0829,-7.44448],[110.0831,-7.44473],[110.08333,-7.44497],[110.0835,-7.44528],[110.08352,-7.44547],[110.08352,-7.44611],[110.08359,-7.44646],[110.08371,-7.4467],[110.08376,-7.44687],[110.08374,-7.44706],[110.08368,-7.44743],[110.08381,-7.44775],[110.08399,-7.44795],[110.08423,-7.4481],[110.08446,-7.44819],[110.08476,-7.44832],[110.08498,-7.44852],[110.08507,-7.44872],[110.0852,-7.44915],[110.08536,-7.4494],[110.08558,-7.4498],[110.08563,-7.45005],[110.08568,-7.45042],[110.08586,-7.45119],[110.08598,-7.4516],[110.08617,-7.45205],[110.0864,-7.45234],[110.08646,-7.45243],[110.08654,-7.4525],[110.08665,-7.45261],[110.08685,-7.45284],[110.08709,-7.45309],[110.08718,-7.45323],[110.0872,-7.45338],[110.08713,-7.45356],[110.08709,-7.45363],[110.08701,-7.45378],[110.08695,-7.45394],[110.08695,-7.4541],[110.087,-7.45427],[110.08703,-7.45451],[110.08706,-7.45473],[110.08713,-7.45506],[110.08722,-7.45528],[110.08731,-7.4554],[110.08735,-7.45545],[110.0876,-7.45563],[110.08767,-7.45567],[110.08802,-7.45586],[110.08834,-7.45606],[110.0886,-7.45632],[110.08865,-7.45639],[110.08883,-7.45664],[110.08889,-7.45673],[110.08927,-7.45712],[110.08944,-7.45746],[110.08945,-7.45749],[110.08958,-7.45783],[110.08967,-7.45806],[110.08978,-7.4583],[110.08987,-7.45845],[110.08991,-7.45852],[110.08998,-7.45872],[110.09003,-7.45887],[110.09018,-7.45927],[110.09024,-7.45936],[110.09035,-7.45953],[110.0905,-7.45972],[110.09061,-7.45985],[110.09095,-7.45999],[110.09119,-7.46009],[110.09151,-7.46027],[110.09169,-7.46045],[110.09192,-7.4608],[110.09207,-7.46107],[110.09242,-7.46192],[110.09262,-7.46256],[110.09273,-7.46277],[110.0928,-7.4629],[110.09282,-7.46292],[110.09303,-7.46335],[110.09307,-7.46344],[110.09315,-7.46359],[110.09317,-7.46365],[110.09319,-7.46375],[110.0931,-7.4642],[110.09309,-7.46438],[110.09317,-7.46452],[110.09334,-7.46473],[110.09344,-7.46481],[110.09349,-7.46484],[110.09371,-7.46489],[110.09391,-7.46499],[110.09402,-7.4651],[110.09411,-7.46523],[110.09418,-7.46537],[110.09425,-7.46547],[110.09431,-7.46563],[110.09437,-7.46584],[110.09439,-7.46597],[110.0944,-7.46605],[110.09441,-7.46614],[110.09445,-7.46623],[110.09446,-7.46626],[110.09448,-7.46629],[110.09455,-7.46634],[110.09473,-7.4664],[110.0949,-7.46644],[110.09504,-7.46649],[110.09511,-7.46657],[110.09524,-7.4667],[110.09541,-7.46688],[110.09553,-7.46701],[110.09559,-7.46707],[110.09565,-7.46711],[110.09568,-7.46712],[110.09568,-7.46713],[110.09572,-7.46719],[110.09579,-7.46734],[110.09585,-7.46751],[110.09587,-7.46765],[110.09589,-7.46777],[110.09588,-7.46785],[110.09585,-7.46795],[110.09583,-7.468],[110.0958,-7.4681],[110.0958,-7.46818],[110.09585,-7.46828],[110.09594,-7.46833],[110.09597,-7.46835],[110.09622,-7.46845],[110.09638,-7.46859],[110.0965,-7.46881],[110.09657,-7.46896],[110.09664,-7.46918],[110.09671,-7.46947],[110.09677,-7.46979],[110.09678,-7.4699],[110.09678,-7.47001],[110.09682,-7.47013],[110.09684,-7.47018],[110.09691,-7.47026],[110.09705,-7.47036],[110.09721,-7.47045],[110.09737,-7.47053],[110.09743,-7.47058],[110.09746,-7.47067],[110.09746,-7.47075],[110.09745,-7.47087],[110.09745,-7.47095],[110.09747,-7.47102],[110.09751,-7.47121],[110.09754,-7.4713],[110.09756,-7.47137],[110.09762,-7.47154],[110.09779,-7.47188],[110.09784,-7.47196],[110.09794,-7.47206],[110.09805,-7.47219],[110.09814,-7.4723],[110.09815,-7.47235],[110.09815,-7.47239],[110.09813,-7.47245],[110.09805,-7.47254],[110.09804,-7.47254],[110.09799,-7.47256],[110.09792,-7.47259],[110.09788,-7.47262],[110.09783,-7.47268],[110.09782,-7.47278],[110.09782,-7.47295],[110.09784,-7.47308],[110.09785,-7.47316],[110.09788,-7.47322],[110.09794,-7.4733],[110.09796,-7.47331],[110.09805,-7.47336],[110.0982,-7.47344],[110.09836,-7.47352],[110.09848,-7.47367],[110.09859,-7.47387],[110.09875,-7.47425],[110.0989,-7.47464],[110.09898,-7.47536],[110.09906,-7.47543],[110.09916,-7.4755],[110.09923,-7.47551],[110.09929,-7.47552],[110.09936,-7.47558],[110.09941,-7.4757],[110.09948,-7.47579],[110.0996,-7.4759],[110.0997,-7.47599],[110.09979,-7.47605],[110.09997,-7.47614],[110.10006,-7.4762],[110.10013,-7.47623],[110.1003,-7.4762],[110.10046,-7.47612],[110.10093,-7.47597],[110.10106,-7.47593],[110.10122,-7.47584],[110.10126,-7.47582],[110.10142,-7.47576],[110.1016,-7.47569],[110.10171,-7.47562],[110.10175,-7.47558],[110.10177,-7.4755],[110.1018,-7.4754],[110.10183,-7.47536],[110.10191,-7.4753],[110.10202,-7.47525],[110.10211,-7.4752],[110.10215,-7.47519],[110.10229,-7.47518],[110.10263,-7.47549],[110.10276,-7.4753],[110.10286,-7.47538],[110.10291,-7.47541],[110.10294,-7.47543],[110.10295,-7.47544],[110.10297,-7.47547],[110.103,-7.47553],[110.10305,-7.4756],[110.1031,-7.47568],[110.10318,-7.47575],[110.10323,-7.4758],[110.10331,-7.47585],[110.10335,-7.47587],[110.10359,-7.47597],[110.10365,-7.47602],[110.10369,-7.47611],[110.10369,-7.47617],[110.10368,-7.47622],[110.10366,-7.47626],[110.10367,-7.47634],[110.10369,-7.4764],[110.10373,-7.4765],[110.10375,-7.47654],[110.1038,-7.47662],[110.10387,-7.4767],[110.10401,-7.47682],[110.10412,-7.47693],[110.10422,-7.47705],[110.10428,-7.47713],[110.10437,-7.47722],[110.10445,-7.47727],[110.10449,-7.47732],[110.10452,-7.47739],[110.10453,-7.47745],[110.10453,-7.47749],[110.10456,-7.47756],[110.10461,-7.47761],[110.10465,-7.47769],[110.10467,-7.47775],[110.10467,-7.47783],[110.10465,-7.4779],[110.10459,-7.47801],[110.10456,-7.47804],[110.10453,-7.47812],[110.10453,-7.47861],[110.10454,-7.47869],[110.10455,-7.47871],[110.1046,-7.47886],[110.10464,-7.47895],[110.10469,-7.47901],[110.10477,-7.47907],[110.10483,-7.47909],[110.10493,-7.4791],[110.10503,-7.47908],[110.10516,-7.47908],[110.10521,-7.4791],[110.10524,-7.47915],[110.10527,-7.47922],[110.10529,-7.4793],[110.10529,-7.47941],[110.10531,-7.47954],[110.10532,-7.47967],[110.1053,-7.47983],[110.10531,-7.47991],[110.10535,-7.47999],[110.10537,-7.48005],[110.10537,-7.48009],[110.10534,-7.48016],[110.10522,-7.48031],[110.10512,-7.48048],[110.10511,-7.4805],[110.10496,-7.48064],[110.10491,-7.48074],[110.10487,-7.4808],[110.10483,-7.48088],[110.1048,-7.48096],[110.1048,-7.48103],[110.10484,-7.48109],[110.10487,-7.48113],[110.10496,-7.4812],[110.10506,-7.48125],[110.10513,-7.48132],[110.10519,-7.48139],[110.10521,-7.48148],[110.10522,-7.48157],[110.10522,-7.4817],[110.10525,-7.48183],[110.10525,-7.48188],[110.10527,-7.48196],[110.10528,-7.48208],[110.10528,-7.48224],[110.10534,-7.48242],[110.10541,-7.48256],[110.10548,-7.48265],[110.1055,-7.48274],[110.1055,-7.48282],[110.10551,-7.48301],[110.10551,-7.48307],[110.10556,-7.48319],[110.10566,-7.48331],[110.10583,-7.4835],[110.10599,-7.48364],[110.10609,-7.48372],[110.1062,-7.48378],[110.10632,-7.48382],[110.10655,-7.4838],[110.10655,-7.48369],[110.10653,-7.48361],[110.10652,-7.48352],[110.1065,-7.48348],[110.10648,-7.48342],[110.10641,-7.48332],[110.10634,-7.48314],[110.10632,-7.48307],[110.1063,-7.48301],[110.10629,-7.48288],[110.1063,-7.48277],[110.10634,-7.48263],[110.10638,-7.48252],[110.10644,-7.48236],[110.10645,-7.48234],[110.1065,-7.4822],[110.1066,-7.48196],[110.1066,-7.48175],[110.10661,-7.48156],[110.10662,-7.48146],[110.10663,-7.48128],[110.10661,-7.48109],[110.10658,-7.48095],[110.10658,-7.48077],[110.10655,-7.48062],[110.10654,-7.48054],[110.10654,-7.48044],[110.10659,-7.48033],[110.10665,-7.48022],[110.10671,-7.48012],[110.10679,-7.47996],[110.10688,-7.47987],[110.10696,-7.47982],[110.10699,-7.47979],[110.10711,-7.47973],[110.10726,-7.47967],[110.10734,-7.47961],[110.10737,-7.47954],[110.10737,-7.47934],[110.10734,-7.47922],[110.10729,-7.47912],[110.10724,-7.47903],[110.10723,-7.47902],[110.10719,-7.47897],[110.10718,-7.47895],[110.10717,-7.47892],[110.10717,-7.47888],[110.1072,-7.47883],[110.10721,-7.4788],[110.10734,-7.4787],[110.10747,-7.47861],[110.10756,-7.47852],[110.10758,-7.47848],[110.10763,-7.47833],[110.10767,-7.47823],[110.1077,-7.47813],[110.10773,-7.47804],[110.10775,-7.47799],[110.10778,-7.47796],[110.10781,-7.47795],[110.108,-7.47795],[110.10808,-7.47793],[110.10817,-7.4779],[110.10822,-7.47787],[110.10824,-7.47784],[110.10827,-7.47779],[110.10828,-7.47776],[110.10828,-7.47773],[110.10827,-7.47769],[110.10824,-7.47765],[110.10817,-7.47754],[110.10814,-7.47749],[110.10814,-7.47745],[110.10816,-7.47742],[110.10825,-7.47733],[110.10829,-7.4773],[110.10831,-7.47723],[110.1083,-7.47718],[110.10829,-7.47716],[110.10819,-7.47698],[110.10816,-7.47689],[110.10815,-7.47684],[110.10814,-7.4768],[110.10813,-7.47677],[110.10813,-7.47675],[110.10812,-7.4767],[110.10809,-7.47664],[110.10808,-7.47661],[110.10808,-7.47657],[110.10809,-7.47653],[110.10809,-7.47643],[110.10807,-7.4764],[110.108,-7.47638],[110.10791,-7.47636],[110.10783,-7.47634],[110.10776,-7.47631],[110.10774,-7.47628],[110.10773,-7.47624],[110.10774,-7.47616],[110.10776,-7.4761],[110.10779,-7.47605],[110.1079,-7.47598],[110.10791,-7.47598],[110.10795,-7.47595],[110.108,-7.47593],[110.10819,-7.47587],[110.10825,-7.47585],[110.10841,-7.4758],[110.10842,-7.47579],[110.10871,-7.4757],[110.10876,-7.47567],[110.10879,-7.47561],[110.1088,-7.47556],[110.1088,-7.47552],[110.10879,-7.47548],[110.10899,-7.47552],[110.10927,-7.47557],[110.10928,-7.47557],[110.10941,-7.47554],[110.10946,-7.47551],[110.10953,-7.4754],[110.10958,-7.47528],[110.10955,-7.47506],[110.10955,-7.47501],[110.10956,-7.47481],[110.10963,-7.47421],[110.10969,-7.47392],[110.10971,-7.47386],[110.10982,-7.4736],[110.10983,-7.47358],[110.10986,-7.47353],[110.10997,-7.47338],[110.1103,-7.47308],[110.11037,-7.47302],[110.11054,-7.47288],[110.11057,-7.47286],[110.11091,-7.47265],[110.11101,-7.47259],[110.1111,-7.47254],[110.11112,-7.47253],[110.1113,-7.47245],[110.11149,-7.47236],[110.11174,-7.47221],[110.11177,-7.47219],[110.11187,-7.47211],[110.11247,-7.47167],[110.11301,-7.47125],[110.11383,-7.47045],[110.11404,-7.47011],[110.11418,-7.4699],[110.11429,-7.46986],[110.1145,-7.46979],[110.11514,-7.46971],[110.11629,-7.46976],[110.11659,-7.46996],[110.11661,-7.46999],[110.11678,-7.47023],[110.11692,-7.47041],[110.11708,-7.4706],[110.11723,-7.47115],[110.11725,-7.47123],[110.11701,-7.47262],[110.11704,-7.47352],[110.11704,-7.47353],[110.1177,-7.47457],[110.11809,-7.47503],[110.11844,-7.47554],[110.11846,-7.47557],[110.11881,-7.47596],[110.11882,-7.47596],[110.11883,-7.47598],[110.11961,-7.4763],[110.1199,-7.47643],[110.12032,-7.4767],[110.12061,-7.47688],[110.12076,-7.477],[110.12079,-7.47719],[110.12075,-7.47742],[110.12067,-7.4778],[110.12061,-7.47807],[110.1206,-7.47811],[110.12055,-7.47833],[110.12053,-7.47835],[110.12005,-7.47925],[110.12005,-7.47927],[110.1199,-7.47968],[110.11975,-7.48019],[110.11974,-7.48022],[110.1196,-7.48097],[110.11959,-7.48101],[110.11959,-7.48137],[110.11958,-7.48155],[110.11967,-7.48241],[110.12008,-7.48285],[110.12083,-7.48309],[110.12124,-7.48332],[110.12192,-7.48369],[110.12194,-7.48426],[110.12186,-7.48475],[110.12182,-7.48499],[110.12182,-7.48545],[110.12177,-7.48609],[110.12186,-7.486],[110.12189,-7.48594],[110.1219,-7.48593],[110.12194,-7.48587],[110.12198,-7.48583],[110.12198,-7.48582],[110.12205,-7.48578],[110.12221,-7.48574],[110.12241,-7.48574],[110.12258,-7.4858],[110.12265,-7.48584],[110.12272,-7.48589],[110.12273,-7.4859],[110.12287,-7.48603],[110.12294,-7.4861],[110.12297,-7.48612],[110.12327,-7.48638],[110.12337,-7.48648],[110.12349,-7.48652],[110.12364,-7.48658],[110.12384,-7.48665],[110.12403,-7.48675],[110.12413,-7.48682],[110.12416,-7.48684],[110.12424,-7.48695],[110.12428,-7.48701],[110.12435,-7.48713],[110.12441,-7.48717],[110.12446,-7.4872],[110.12453,-7.48724],[110.12462,-7.48734],[110.12472,-7.48744],[110.12479,-7.48755],[110.12482,-7.48762],[110.12483,-7.48769],[110.12483,-7.48777],[110.12478,-7.48788],[110.12477,-7.48792],[110.12473,-7.48797],[110.12469,-7.48803],[110.12466,-7.4881],[110.12467,-7.48817],[110.12469,-7.48821],[110.12475,-7.48826],[110.12482,-7.4883],[110.12493,-7.48831],[110.12506,-7.4883],[110.1251,-7.48828],[110.12527,-7.48824],[110.1253,-7.48823],[110.12547,-7.48819],[110.12575,-7.48818],[110.12585,-7.48819],[110.12604,-7.48827],[110.12674,-7.4885],[110.12686,-7.48851],[110.12714,-7.48853],[110.12788,-7.4886],[110.12791,-7.4886],[110.12836,-7.48865],[110.12841,-7.48867],[110.12928,-7.48905],[110.12936,-7.48906],[110.131,-7.4893],[110.1321,-7.48964],[110.13277,-7.48968],[110.13331,-7.48972],[110.13413,-7.48988],[110.13421,-7.48989],[110.13509,-7.49007],[110.13536,-7.49012],[110.13679,-7.49035],[110.13786,-7.49026],[110.13893,-7.4901],[110.14014,-7.49002],[110.14071,-7.49022],[110.14164,-7.49064],[110.14245,-7.49103],[110.1428,-7.49118],[110.14302,-7.49128],[110.14323,-7.49134],[110.14371,-7.49141],[110.14384,-7.49143],[110.14407,-7.49141],[110.1443,-7.4914],[110.14497,-7.49131],[110.14537,-7.49118],[110.14546,-7.49114],[110.14648,-7.49066],[110.14684,-7.49046],[110.14692,-7.49042],[110.14713,-7.49033],[110.14714,-7.49033],[110.14728,-7.49029],[110.14736,-7.49025],[110.14737,-7.49024],[110.14766,-7.49015],[110.14805,-7.49001],[110.14809,-7.49],[110.14813,-7.48998],[110.14837,-7.48988],[110.14852,-7.4898],[110.14866,-7.48972],[110.14875,-7.48966],[110.1489,-7.48957],[110.14901,-7.48954],[110.14913,-7.4896],[110.1492,-7.48965],[110.14926,-7.48968],[110.14947,-7.48981],[110.14948,-7.48982],[110.14969,-7.48989],[110.1497,-7.48989],[110.15,-7.48992],[110.15008,-7.48993],[110.15028,-7.48995],[110.15083,-7.48999],[110.151,-7.49001],[110.15117,-7.49004],[110.15207,-7.49038],[110.15254,-7.49056],[110.15261,-7.49058],[110.15306,-7.49062],[110.15317,-7.49061],[110.15331,-7.4906],[110.1536,-7.49048],[110.15401,-7.49037],[110.15459,-7.4902],[110.15505,-7.49005],[110.1552,-7.49],[110.15526,-7.48999],[110.15575,-7.48995],[110.15607,-7.48998],[110.15632,-7.49008],[110.15647,-7.49021],[110.15678,-7.49047],[110.15711,-7.49083],[110.15724,-7.49097],[110.15748,-7.4911],[110.15751,-7.49112],[110.15756,-7.49115],[110.15804,-7.49141],[110.15829,-7.49151],[110.15846,-7.49158],[110.15857,-7.49161],[110.15869,-7.49164],[110.15889,-7.49165],[110.15895,-7.49163],[110.15912,-7.49159],[110.15952,-7.49103],[110.1599,-7.49066],[110.16049,-7.48998],[110.1605,-7.48997],[110.16058,-7.49009],[110.16064,-7.49015],[110.1607,-7.49019],[110.1609,-7.49027],[110.16095,-7.49031],[110.16096,-7.49035],[110.16098,-7.4904],[110.16107,-7.49047],[110.16112,-7.49048],[110.16114,-7.49048],[110.16132,-7.49053],[110.16148,-7.49057],[110.16155,-7.49057],[110.16186,-7.4905],[110.16204,-7.49048],[110.16223,-7.49049],[110.16237,-7.49051],[110.16258,-7.49042],[110.16284,-7.49014],[110.16292,-7.48997],[110.16313,-7.48972],[110.16345,-7.48944],[110.16375,-7.4892],[110.16409,-7.48894],[110.16425,-7.48891],[110.16431,-7.48877],[110.16449,-7.48834],[110.16464,-7.48789],[110.16469,-7.48777],[110.1647,-7.48777],[110.16475,-7.48764],[110.16481,-7.48755],[110.16489,-7.48747],[110.16503,-7.48744],[110.16515,-7.48744],[110.16535,-7.48747],[110.16562,-7.48752],[110.16577,-7.48756],[110.16601,-7.48759],[110.16627,-7.48759],[110.16654,-7.48756],[110.1667,-7.48749],[110.16675,-7.48744],[110.16685,-7.48731],[110.16692,-7.48725],[110.16706,-7.48725],[110.16732,-7.48729],[110.16753,-7.4874],[110.16772,-7.48754],[110.16785,-7.48759],[110.16832,-7.48768],[110.16909,-7.48783],[110.16916,-7.48785],[110.16928,-7.48769],[110.16954,-7.48739],[110.17011,-7.48686],[110.17014,-7.48682],[110.17015,-7.48681],[110.17023,-7.48649],[110.17027,-7.48635],[110.17032,-7.48616],[110.17037,-7.48601],[110.17049,-7.48578],[110.17064,-7.48562],[110.1708,-7.48546],[110.17097,-7.48535],[110.1712,-7.48526],[110.17138,-7.48521],[110.17149,-7.48518],[110.17159,-7.48517],[110.17162,-7.48517],[110.17167,-7.48518],[110.17167,-7.48519],[110.1717,-7.48519],[110.17179,-7.48522],[110.17189,-7.48525],[110.172,-7.48526],[110.17221,-7.48526],[110.17236,-7.48524],[110.1726,-7.4852],[110.17271,-7.48517],[110.1728,-7.48515],[110.17295,-7.48515],[110.17298,-7.48516],[110.17304,-7.48517],[110.1731,-7.48519],[110.17321,-7.48523],[110.1734,-7.48529],[110.17353,-7.48534],[110.17354,-7.48534],[110.17361,-7.48535],[110.17367,-7.48535],[110.1737,-7.48533],[110.17372,-7.48531],[110.17374,-7.48525],[110.17378,-7.48511],[110.1738,-7.48502],[110.1738,-7.485],[110.17383,-7.48496],[110.17385,-7.48494],[110.17392,-7.48486],[110.17401,-7.48479],[110.17404,-7.48462],[110.17404,-7.48458],[110.17405,-7.48454],[110.17408,-7.48443],[110.17411,-7.48404],[110.17415,-7.48351],[110.1742,-7.48307],[110.17378,-7.48269],[110.17364,-7.48256],[110.1733,-7.48234],[110.17324,-7.48229],[110.17316,-7.48222],[110.17315,-7.48221],[110.1731,-7.48219],[110.17308,-7.48218],[110.17305,-7.48216],[110.17294,-7.48205],[110.1728,-7.48196],[110.1727,-7.48191],[110.17255,-7.48185],[110.17236,-7.4818],[110.17221,-7.48177],[110.17199,-7.48177],[110.17192,-7.48175],[110.17184,-7.4817],[110.17178,-7.48164],[110.1717,-7.48151],[110.17164,-7.4814],[110.17153,-7.48119],[110.17151,-7.48111],[110.17148,-7.48103],[110.17146,-7.48097],[110.17146,-7.48091],[110.17148,-7.48085],[110.17151,-7.4808],[110.17159,-7.4807],[110.17173,-7.48056],[110.17178,-7.48047],[110.17179,-7.48047],[110.17181,-7.48032],[110.17181,-7.48019],[110.17179,-7.48002],[110.17175,-7.47987],[110.17169,-7.47969],[110.17164,-7.4796],[110.17158,-7.47949],[110.17148,-7.47937],[110.17138,-7.47926],[110.17126,-7.47914],[110.17121,-7.4791],[110.17117,-7.47909],[110.17111,-7.47907],[110.17108,-7.47907],[110.17104,-7.47908],[110.17099,-7.47911],[110.17097,-7.47911],[110.17094,-7.47913],[110.1709,-7.47914],[110.1708,-7.47912],[110.17072,-7.47907],[110.17066,-7.47902],[110.17057,-7.47895],[110.17054,-7.47893],[110.17047,-7.4789],[110.17033,-7.47883],[110.17028,-7.47879],[110.17014,-7.47861],[110.17002,-7.47844],[110.16995,-7.47832],[110.16993,-7.47829],[110.16987,-7.47824],[110.16976,-7.47817],[110.16968,-7.47815],[110.1696,-7.47815],[110.16953,-7.47816],[110.16944,-7.47817],[110.16942,-7.47817],[110.16938,-7.47818],[110.16932,-7.47818],[110.16927,-7.47816],[110.1692,-7.47809],[110.16912,-7.47796],[110.16908,-7.47789],[110.16901,-7.47775],[110.16893,-7.47758],[110.16883,-7.47744],[110.16877,-7.47738],[110.16871,-7.47733],[110.16862,-7.47729],[110.16852,-7.47724],[110.16841,-7.47717],[110.16826,-7.47706],[110.16821,-7.47702],[110.16812,-7.47695],[110.16793,-7.4768],[110.16779,-7.47669],[110.16775,-7.47662],[110.16774,-7.47659],[110.16773,-7.47657],[110.16771,-7.47648],[110.16771,-7.47642],[110.16768,-7.47633],[110.16763,-7.47626],[110.16751,-7.47618],[110.16739,-7.47606],[110.16735,-7.47598],[110.16732,-7.47593],[110.16732,-7.47592],[110.16731,-7.47583],[110.1673,-7.47567],[110.16729,-7.47558],[110.16727,-7.47548],[110.16724,-7.47541],[110.16722,-7.47539],[110.16718,-7.47532],[110.1671,-7.47526],[110.16702,-7.47522],[110.16693,-7.47519],[110.16692,-7.47518],[110.16685,-7.47516],[110.16668,-7.47514],[110.16667,-7.47513],[110.16647,-7.47513],[110.16639,-7.47512],[110.16633,-7.47511],[110.16626,-7.47508],[110.16615,-7.47502],[110.16606,-7.47496],[110.16599,-7.47486],[110.16587,-7.47467],[110.16579,-7.47456],[110.16578,-7.47455],[110.1657,-7.47444],[110.16565,-7.47439],[110.16556,-7.47436],[110.16547,-7.47434],[110.1654,-7.47433],[110.16534,-7.47432],[110.16522,-7.47425],[110.16516,-7.47421],[110.16509,-7.47413],[110.16504,-7.47403],[110.16502,-7.47393],[110.16501,-7.47387],[110.16501,-7.47384],[110.16498,-7.47368],[110.16494,-7.47356],[110.16491,-7.47348],[110.1649,-7.47348],[110.16486,-7.47342],[110.16478,-7.47337],[110.16471,-7.47336],[110.1646,-7.47334],[110.16451,-7.47331],[110.16448,-7.47331],[110.16441,-7.47328],[110.16436,-7.47324],[110.16432,-7.47318],[110.16429,-7.47309],[110.16429,-7.47307],[110.16426,-7.47298],[110.16425,-7.47293],[110.16423,-7.47287],[110.16416,-7.47276],[110.16416,-7.47275],[110.16415,-7.47274],[110.16415,-7.47273],[110.16412,-7.47267],[110.16412,-7.47264],[110.16411,-7.47264],[110.16411,-7.47259],[110.1641,-7.47256],[110.16409,-7.47249],[110.16409,-7.47234],[110.16406,-7.47228],[110.16402,-7.47226],[110.16397,-7.47225],[110.16377,-7.47223],[110.16343,-7.47223],[110.16331,-7.47222],[110.16322,-7.47219],[110.16312,-7.4721],[110.16311,-7.47209],[110.16297,-7.47191],[110.16295,-7.47188],[110.16289,-7.47178],[110.1628,-7.47164],[110.16272,-7.47152],[110.16269,-7.4715],[110.16264,-7.47147],[110.16258,-7.47146],[110.16256,-7.47146],[110.16247,-7.47147],[110.16238,-7.4715],[110.1623,-7.47156],[110.16224,-7.47158],[110.16218,-7.47162],[110.16213,-7.47164],[110.16203,-7.47165],[110.16193,-7.47165],[110.16176,-7.47163],[110.16156,-7.47159],[110.16154,-7.47159],[110.16153,-7.47158],[110.1615,-7.47156],[110.16145,-7.47153],[110.16137,-7.47143],[110.16119,-7.47125],[110.16111,-7.47114],[110.16109,-7.47114],[110.16096,-7.47122],[110.16092,-7.47125],[110.16091,-7.47127],[110.16095,-7.47141],[110.16093,-7.47148],[110.1609,-7.47154],[110.1608,-7.47169],[110.16087,-7.47178],[110.16091,-7.47184],[110.16096,-7.47189],[110.16112,-7.47199],[110.16111,-7.47201],[110.16111,-7.47203],[110.16112,-7.47206],[110.16113,-7.4721],[110.16112,-7.47213],[110.1611,-7.47216],[110.16108,-7.47218],[110.16102,-7.47223],[110.16098,-7.47225],[110.16093,-7.47227],[110.16087,-7.4723],[110.16084,-7.47232],[110.16078,-7.47233],[110.16068,-7.47234],[110.16063,-7.47238],[110.16058,-7.47237],[110.16053,-7.47243],[110.16047,-7.47254],[110.16044,-7.47264],[110.16043,-7.4727],[110.16039,-7.47275],[110.1603,-7.47284],[110.16025,-7.47286],[110.16021,-7.47286],[110.16019,-7.4729],[110.16019,-7.47297],[110.16011,-7.47303],[110.16004,-7.47308],[110.16004,-7.47311],[110.16005,-7.47318],[110.16007,-7.47322],[110.16008,-7.47325],[110.16008,-7.47328],[110.16007,-7.4733],[110.16004,-7.47331],[110.16,-7.47328],[110.15996,-7.47322],[110.15992,-7.47313],[110.15991,-7.47302],[110.15994,-7.47292],[110.15992,-7.47283],[110.15991,-7.47277],[110.15988,-7.47268],[110.15984,-7.47264],[110.15976,-7.47262],[110.15967,-7.47257],[110.15966,-7.47252],[110.15966,-7.47249],[110.15963,-7.47246],[110.15959,-7.47244],[110.15954,-7.47242],[110.15948,-7.47238],[110.15943,-7.47229],[110.15943,-7.47222],[110.15945,-7.47211],[110.15944,-7.47205],[110.15941,-7.47198],[110.15935,-7.47194],[110.15926,-7.47187],[110.1592,-7.47182],[110.15915,-7.47179],[110.15908,-7.47177],[110.15906,-7.47173],[110.15905,-7.47168],[110.15904,-7.47159],[110.15902,-7.47155],[110.15896,-7.47151],[110.15891,-7.47146],[110.15885,-7.47143],[110.15878,-7.47142],[110.15871,-7.47143],[110.15866,-7.47144],[110.1586,-7.47141],[110.15855,-7.47137],[110.1585,-7.47134],[110.1585,-7.47108],[110.15847,-7.47102],[110.15844,-7.47097],[110.15835,-7.47092],[110.15826,-7.47083],[110.15821,-7.47079],[110.15814,-7.47075],[110.15809,-7.47071],[110.15802,-7.47068],[110.15797,-7.47066],[110.1579,-7.47062],[110.15787,-7.47058],[110.15783,-7.47054],[110.15777,-7.47046],[110.15776,-7.4704],[110.15777,-7.47036],[110.15781,-7.47023],[110.15773,-7.47014],[110.15765,-7.47003],[110.15753,-7.46986],[110.1575,-7.46982],[110.15742,-7.46972],[110.15729,-7.46959],[110.15721,-7.4695],[110.15712,-7.46941],[110.15704,-7.46931],[110.15697,-7.46922],[110.15694,-7.46913],[110.15694,-7.46912],[110.15691,-7.46903],[110.15687,-7.46879],[110.15685,-7.46863],[110.15682,-7.46852],[110.1568,-7.46846],[110.15675,-7.46842],[110.15667,-7.4684],[110.1566,-7.46841],[110.15653,-7.46844],[110.15645,-7.46853],[110.1564,-7.46862],[110.15634,-7.46867],[110.15631,-7.46869],[110.15629,-7.46869],[110.15621,-7.4687],[110.15608,-7.46868],[110.15596,-7.46863],[110.15579,-7.46854],[110.1557,-7.46848],[110.15568,-7.46846],[110.15559,-7.4684],[110.15548,-7.46836],[110.15536,-7.46833],[110.15515,-7.46833],[110.15504,-7.46834],[110.15484,-7.46834],[110.15477,-7.46832],[110.15473,-7.4683],[110.1547,-7.46827],[110.15467,-7.46823],[110.15464,-7.4682],[110.15459,-7.46818],[110.15454,-7.46817],[110.15449,-7.46817],[110.15443,-7.46818],[110.15433,-7.46822],[110.15424,-7.46825],[110.15409,-7.46832],[110.15401,-7.46834],[110.1538,-7.46843],[110.15377,-7.46831],[110.15379,-7.46815],[110.1538,-7.46805],[110.15365,-7.46761],[110.15354,-7.46765],[110.15333,-7.4677],[110.15317,-7.46775],[110.15301,-7.46779],[110.15283,-7.46784],[110.15277,-7.46775],[110.15271,-7.46767],[110.15269,-7.4676],[110.15267,-7.46754],[110.15265,-7.46749],[110.15264,-7.46746],[110.15262,-7.46743],[110.15259,-7.46739],[110.15254,-7.46733],[110.15244,-7.46723],[110.15237,-7.46715],[110.15235,-7.46712],[110.1523,-7.46706],[110.15225,-7.46699],[110.15221,-7.46694],[110.15213,-7.46687],[110.15202,-7.46679],[110.15195,-7.46675],[110.15195,-7.46673],[110.15193,-7.4667],[110.15189,-7.46665],[110.15187,-7.46661],[110.15187,-7.46655],[110.1519,-7.46644],[110.15187,-7.46641],[110.15185,-7.46638],[110.15183,-7.46636],[110.15182,-7.46634],[110.1518,-7.46632],[110.15176,-7.4663],[110.15171,-7.46627],[110.15165,-7.46618],[110.15164,-7.46616],[110.15163,-7.46613],[110.15163,-7.4661],[110.15162,-7.46607],[110.15159,-7.46604],[110.15154,-7.466],[110.15152,-7.46595],[110.1515,-7.46591],[110.15147,-7.46581],[110.15146,-7.46575],[110.15146,-7.4657],[110.15148,-7.46558],[110.15148,-7.46554],[110.15146,-7.46551],[110.15145,-7.4655],[110.15143,-7.46547],[110.15136,-7.4654],[110.15134,-7.46537],[110.1513,-7.46534],[110.15128,-7.46532],[110.15126,-7.46529],[110.15125,-7.46528],[110.15123,-7.46521],[110.15123,-7.46518],[110.15122,-7.46515],[110.15122,-7.46512],[110.15121,-7.46508],[110.15119,-7.46504],[110.15117,-7.46501],[110.15114,-7.46495],[110.15115,-7.4649],[110.15118,-7.46485],[110.15124,-7.46479],[110.15126,-7.46476],[110.15124,-7.46472],[110.15123,-7.46469],[110.15131,-7.46461],[110.15132,-7.46458],[110.15131,-7.46456],[110.15129,-7.46453],[110.15129,-7.46451],[110.15131,-7.4645],[110.15137,-7.46442],[110.15139,-7.4644],[110.15142,-7.46434],[110.15147,-7.4643],[110.15155,-7.46426],[110.15165,-7.46424],[110.15186,-7.46421],[110.15201,-7.46425],[110.1521,-7.46427],[110.15213,-7.46427],[110.15217,-7.46426],[110.1522,-7.46401],[110.15225,-7.4638],[110.15231,-7.46356],[110.15235,-7.46345],[110.1524,-7.46335],[110.15247,-7.46326],[110.15262,-7.46309],[110.15264,-7.46297],[110.15262,-7.4629],[110.15261,-7.46288],[110.15259,-7.46286],[110.15253,-7.46282],[110.15245,-7.46279],[110.15233,-7.46274],[110.15209,-7.46267],[110.15199,-7.46266],[110.15186,-7.46259],[110.15171,-7.46244],[110.15155,-7.46226],[110.1514,-7.46201],[110.15125,-7.46177],[110.15104,-7.46149],[110.15099,-7.46141],[110.15096,-7.46135],[110.15091,-7.46126],[110.15087,-7.46119],[110.15081,-7.4611],[110.15063,-7.46095],[110.15061,-7.46091],[110.15061,-7.46087],[110.15062,-7.46079],[110.15063,-7.46074],[110.15062,-7.46071],[110.15059,-7.46069],[110.15051,-7.4607],[110.15035,-7.46074],[110.1503,-7.46077],[110.15029,-7.46078],[110.15027,-7.46081],[110.15021,-7.46081],[110.15018,-7.46077],[110.15017,-7.46076],[110.15014,-7.46072],[110.15009,-7.46069],[110.15002,-7.46067],[110.14997,-7.46066],[110.14992,-7.46067],[110.14984,-7.46071],[110.14981,-7.46073],[110.14979,-7.46074],[110.14976,-7.46074],[110.14972,-7.46072],[110.14971,-7.4607],[110.1496,-7.46059],[110.14947,-7.46053],[110.14939,-7.4605],[110.14932,-7.46048],[110.14928,-7.46049],[110.14923,-7.46052],[110.14921,-7.46056],[110.1492,-7.46059],[110.1492,-7.46062],[110.14919,-7.46065],[110.14915,-7.46066],[110.14911,-7.46066],[110.14908,-7.46063],[110.14904,-7.46058],[110.14902,-7.46055],[110.149,-7.46053],[110.14895,-7.46049],[110.14891,-7.46047],[110.14885,-7.46043],[110.14882,-7.46039],[110.1488,-7.46037],[110.14875,-7.46033],[110.14872,-7.4603],[110.14868,-7.46029],[110.14863,-7.46029],[110.14859,-7.4603],[110.14852,-7.46031],[110.14847,-7.46031],[110.14842,-7.4603],[110.14838,-7.46027],[110.14833,-7.46023],[110.14829,-7.46019],[110.14827,-7.46016],[110.14824,-7.4601],[110.14823,-7.46004],[110.14821,-7.45999],[110.14822,-7.45993],[110.14825,-7.45984],[110.14827,-7.45977],[110.14825,-7.45972],[110.14822,-7.45965],[110.14816,-7.45954],[110.14814,-7.45947],[110.14806,-7.45934],[110.14803,-7.45931],[110.148,-7.45929],[110.14788,-7.45926],[110.14779,-7.45924],[110.14776,-7.45923],[110.14774,-7.4592],[110.14772,-7.45916],[110.14772,-7.45913],[110.1477,-7.45907],[110.14767,-7.45903],[110.14761,-7.45901],[110.14745,-7.45897],[110.14736,-7.45892],[110.14726,-7.45887],[110.14713,-7.45878],[110.14707,-7.45874],[110.14698,-7.4587],[110.1469,-7.4587],[110.14683,-7.45871],[110.1468,-7.45872],[110.14676,-7.45876],[110.14672,-7.45879],[110.14671,-7.4588],[110.14661,-7.45885],[110.14654,-7.45888],[110.14646,-7.45889],[110.14637,-7.45888],[110.1463,-7.45886],[110.14619,-7.45878],[110.14615,-7.45877],[110.14614,-7.45876],[110.14606,-7.45872],[110.146,-7.45868],[110.14595,-7.45864],[110.14589,-7.45859],[110.1458,-7.45858],[110.1457,-7.45856],[110.14563,-7.45856],[110.14549,-7.45855],[110.14531,-7.45845],[110.14508,-7.45837],[110.14506,-7.45836],[110.14501,-7.45833],[110.14492,-7.45827],[110.14478,-7.45812],[110.14471,-7.45807],[110.1447,-7.45806],[110.14466,-7.45803],[110.14461,-7.45799],[110.14458,-7.45797],[110.14456,-7.45795],[110.14456,-7.45792],[110.14457,-7.45789],[110.14461,-7.45783],[110.14462,-7.45777],[110.14461,-7.45772],[110.14459,-7.4577],[110.14447,-7.45753],[110.14443,-7.45746],[110.14437,-7.45739],[110.14432,-7.45729],[110.14425,-7.45717],[110.14423,-7.45688],[110.14421,-7.45664],[110.1439,-7.45541],[110.1438,-7.45523],[110.14286,-7.45347],[110.14279,-7.4531],[110.14274,-7.45289],[110.14275,-7.45271],[110.1428,-7.45218],[110.14281,-7.45205],[110.14284,-7.45194],[110.14285,-7.45188],[110.14294,-7.4517],[110.14295,-7.45167],[110.14315,-7.45113],[110.14321,-7.451],[110.14327,-7.45088],[110.14344,-7.45056],[110.14354,-7.45039],[110.14355,-7.45029],[110.14354,-7.45027],[110.14353,-7.45013],[110.14347,-7.44994],[110.14344,-7.44986],[110.14339,-7.44961],[110.14335,-7.44955],[110.14325,-7.44946],[110.14302,-7.4494],[110.1428,-7.44919],[110.14269,-7.4491],[110.14257,-7.44897],[110.14245,-7.44883],[110.14236,-7.44863],[110.14213,-7.44844],[110.14173,-7.44806],[110.14128,-7.44767],[110.14096,-7.44745],[110.1406,-7.44732],[110.14054,-7.44727],[110.14043,-7.44711],[110.14038,-7.44696],[110.14035,-7.44686],[110.14034,-7.44681],[110.14031,-7.44662],[110.14026,-7.44649],[110.14019,-7.44648],[110.14006,-7.44645],[110.13979,-7.44636],[110.13982,-7.44628],[110.13992,-7.44612],[110.13998,-7.44601],[110.14,-7.44597],[110.14007,-7.44582],[110.14011,-7.44576],[110.13979,-7.4456],[110.13973,-7.44556],[110.13986,-7.4454],[110.13988,-7.44537],[110.14002,-7.44513],[110.13989,-7.445],[110.13982,-7.44494],[110.1398,-7.44492],[110.13963,-7.44474],[110.13946,-7.44469],[110.13925,-7.44465],[110.13917,-7.44464],[110.13907,-7.4446],[110.13895,-7.44454],[110.13886,-7.44449],[110.13883,-7.44445],[110.1388,-7.44435],[110.13881,-7.44426],[110.13893,-7.44403],[110.139,-7.44393],[110.13909,-7.44385],[110.13916,-7.4438],[110.1392,-7.44376],[110.13921,-7.44371],[110.13919,-7.44365],[110.13919,-7.44362],[110.13918,-7.44353],[110.13918,-7.44348],[110.13919,-7.44344],[110.13922,-7.44339],[110.13925,-7.44338],[110.13935,-7.44334],[110.13939,-7.44332],[110.13942,-7.44331],[110.13957,-7.44331],[110.13959,-7.4433],[110.13967,-7.44314],[110.13976,-7.44286],[110.13984,-7.44267],[110.1399,-7.44259],[110.13992,-7.44256],[110.14004,-7.44245],[110.14014,-7.44235],[110.1402,-7.44228],[110.14025,-7.44218],[110.14026,-7.44207],[110.14023,-7.44196],[110.14024,-7.44173],[110.14026,-7.44152],[110.1403,-7.44137],[110.1403,-7.44135],[110.14037,-7.44105],[110.14042,-7.44093],[110.14043,-7.44091],[110.14045,-7.44085],[110.1405,-7.44079],[110.14054,-7.44074],[110.14052,-7.44073],[110.14049,-7.44072],[110.14036,-7.44056],[110.14026,-7.44044],[110.14021,-7.44037],[110.14016,-7.44031],[110.14008,-7.44019],[110.14003,-7.4401],[110.13993,-7.43995],[110.13986,-7.43985],[110.13984,-7.43982],[110.13969,-7.43968],[110.13958,-7.43957],[110.13949,-7.43952],[110.13936,-7.43952],[110.139,-7.43956],[110.13887,-7.43955],[110.13873,-7.43955],[110.13863,-7.43956],[110.13852,-7.4396],[110.13816,-7.43977],[110.13815,-7.43977],[110.13813,-7.43978],[110.13798,-7.4398],[110.13796,-7.4398],[110.13777,-7.43985],[110.13757,-7.43986],[110.13753,-7.43987],[110.13736,-7.43986],[110.13728,-7.43982],[110.13722,-7.43978],[110.13714,-7.43969],[110.13708,-7.43958],[110.13701,-7.43937],[110.137,-7.43935],[110.13698,-7.43924],[110.13694,-7.43905],[110.13695,-7.4389],[110.13692,-7.43878],[110.13687,-7.43865],[110.13679,-7.4385],[110.13659,-7.43827],[110.13652,-7.43818],[110.1365,-7.43815],[110.13647,-7.4381],[110.13646,-7.43807],[110.13644,-7.43791],[110.13645,-7.43778],[110.13648,-7.43766],[110.13655,-7.43753],[110.1366,-7.43743],[110.13668,-7.43737],[110.13692,-7.43725],[110.13716,-7.43712],[110.1372,-7.4371],[110.13727,-7.43705],[110.13731,-7.43699],[110.13733,-7.43691],[110.13732,-7.4368],[110.13724,-7.43666],[110.13724,-7.43664],[110.13722,-7.4366],[110.1372,-7.43652],[110.1372,-7.43643],[110.13726,-7.43631],[110.13728,-7.4363],[110.13739,-7.43619],[110.13748,-7.43604],[110.13752,-7.43585],[110.13749,-7.43571],[110.13748,-7.43566],[110.13748,-7.43565],[110.13735,-7.4356],[110.13712,-7.43563],[110.13706,-7.43564],[110.1369,-7.43563],[110.13688,-7.43561],[110.1368,-7.43555],[110.13676,-7.43543],[110.13672,-7.43526],[110.13662,-7.4351],[110.13656,-7.43502],[110.13645,-7.43495],[110.13638,-7.43492],[110.13633,-7.43491],[110.13625,-7.4349],[110.13624,-7.4349],[110.13609,-7.43496],[110.13586,-7.43509],[110.13575,-7.43511],[110.13571,-7.4351],[110.13565,-7.43505],[110.13564,-7.43498],[110.13565,-7.43489],[110.13568,-7.43463],[110.13566,-7.43451],[110.13558,-7.43444],[110.13548,-7.43441],[110.13546,-7.4344],[110.13542,-7.43439],[110.13532,-7.43437],[110.1351,-7.43436],[110.13491,-7.43435],[110.1349,-7.43434],[110.13485,-7.43432],[110.13484,-7.43432],[110.1348,-7.43425],[110.1348,-7.43411],[110.13475,-7.43399],[110.13462,-7.43369],[110.13443,-7.43348],[110.13429,-7.43335],[110.13422,-7.43332],[110.13419,-7.43332],[110.1341,-7.43331],[110.13389,-7.43331],[110.13378,-7.43326],[110.13373,-7.43315],[110.13365,-7.43297],[110.13354,-7.43289],[110.13343,-7.43285],[110.13333,-7.43284],[110.13306,-7.43288],[110.13289,-7.43289],[110.13268,-7.43286],[110.13252,-7.4328],[110.13249,-7.43274],[110.13246,-7.43269],[110.13235,-7.43247],[110.13226,-7.43238],[110.13209,-7.43226],[110.13196,-7.43218],[110.13188,-7.43217],[110.13185,-7.43217],[110.13171,-7.43218],[110.13159,-7.43219],[110.13144,-7.43218],[110.13131,-7.43208],[110.13116,-7.43196],[110.13109,-7.43194],[110.13095,-7.43195],[110.13072,-7.43206],[110.13056,-7.43213],[110.13043,-7.43219],[110.13034,-7.43223],[110.1303,-7.43222],[110.1302,-7.4322],[110.13011,-7.43216],[110.1301,-7.43215],[110.13,-7.43209],[110.12995,-7.43205],[110.12985,-7.4319],[110.12981,-7.43186],[110.12975,-7.43181],[110.12965,-7.43175],[110.12958,-7.43173],[110.12955,-7.43172],[110.12934,-7.43174],[110.12917,-7.43175],[110.12908,-7.43173],[110.12901,-7.4317],[110.12898,-7.43164],[110.12893,-7.4315],[110.12889,-7.43135],[110.12885,-7.43128],[110.12876,-7.43116],[110.12869,-7.43104],[110.12864,-7.43088],[110.12863,-7.43084],[110.12856,-7.43061],[110.12853,-7.43049],[110.12846,-7.43034],[110.12845,-7.43034],[110.12837,-7.43027],[110.12828,-7.43024],[110.12804,-7.43024],[110.12792,-7.43023],[110.1275,-7.43019],[110.12721,-7.43014],[110.12717,-7.43012],[110.12715,-7.43012],[110.12714,-7.43011],[110.12706,-7.43007],[110.12696,-7.42996],[110.12693,-7.42993],[110.12682,-7.42981],[110.1268,-7.4297],[110.12678,-7.4296],[110.12678,-7.42955],[110.12675,-7.42939],[110.12674,-7.42931],[110.12665,-7.4292],[110.12657,-7.42916],[110.12641,-7.4291],[110.12629,-7.42907],[110.12621,-7.42897],[110.12616,-7.42886],[110.12616,-7.42881],[110.12618,-7.42872],[110.12616,-7.42872],[110.12608,-7.42869],[110.12593,-7.4286],[110.12586,-7.42854],[110.12576,-7.42848],[110.1256,-7.4284],[110.12553,-7.42835],[110.12549,-7.42831],[110.12546,-7.42825],[110.12544,-7.42816],[110.12543,-7.42813],[110.12541,-7.42808],[110.12534,-7.42804],[110.12527,-7.42805],[110.12524,-7.42798],[110.12512,-7.42784],[110.12499,-7.42768],[110.12476,-7.42743],[110.1245,-7.42716],[110.12433,-7.42696],[110.12423,-7.42683],[110.12416,-7.42667],[110.12407,-7.42646],[110.12402,-7.42627],[110.12393,-7.42612],[110.12381,-7.42599],[110.12364,-7.42585],[110.12336,-7.42576],[110.12319,-7.42566],[110.12309,-7.42557],[110.12293,-7.42531],[110.12288,-7.42512],[110.12253,-7.4247],[110.12222,-7.42438],[110.1225,-7.42412],[110.12237,-7.42397],[110.12245,-7.42388],[110.12272,-7.42366],[110.12338,-7.42303],[110.12339,-7.42302],[110.12353,-7.42289],[110.12361,-7.42284],[110.1239,-7.42278],[110.12418,-7.42307],[110.12455,-7.42289],[110.12462,-7.42283],[110.12473,-7.42261],[110.12473,-7.42228],[110.12476,-7.42222],[110.12503,-7.42208],[110.1251,-7.42198],[110.1251,-7.42197],[110.12505,-7.42188],[110.12501,-7.4218],[110.12494,-7.42169],[110.12486,-7.42151],[110.12482,-7.42148],[110.12481,-7.42147],[110.12478,-7.42145],[110.12472,-7.42145],[110.12462,-7.42147],[110.12449,-7.42153],[110.12441,-7.42154],[110.12436,-7.42155],[110.12429,-7.42155],[110.12424,-7.42153],[110.12419,-7.4215],[110.12411,-7.42146],[110.12408,-7.42143],[110.12404,-7.42142],[110.12395,-7.42142],[110.12388,-7.42143],[110.12383,-7.42146],[110.12376,-7.42151],[110.12368,-7.42156],[110.12362,-7.42161],[110.12361,-7.42161],[110.12355,-7.42166],[110.1235,-7.42168],[110.12346,-7.4217],[110.12344,-7.4217],[110.1234,-7.42171],[110.12339,-7.4217],[110.12335,-7.4217],[110.12325,-7.42166],[110.12321,-7.42163],[110.12316,-7.42157],[110.12312,-7.42148],[110.12307,-7.42137],[110.12293,-7.42102],[110.12286,-7.42086],[110.12277,-7.42054],[110.12277,-7.42028],[110.12278,-7.42006],[110.12278,-7.41992],[110.12271,-7.41963],[110.12266,-7.41955],[110.1225,-7.41938],[110.12237,-7.4193],[110.12221,-7.41923],[110.12199,-7.41914],[110.12147,-7.4189],[110.12124,-7.41876],[110.121,-7.41857],[110.1209,-7.4185],[110.12069,-7.41836],[110.12026,-7.41805],[110.12008,-7.41795],[110.11987,-7.41788],[110.11959,-7.41778],[110.11928,-7.4177],[110.11913,-7.41765],[110.11896,-7.41758],[110.11873,-7.41738],[110.11863,-7.41733],[110.11852,-7.41728],[110.11842,-7.41726],[110.11825,-7.41726],[110.11816,-7.41725],[110.11815,-7.41724],[110.11809,-7.41722],[110.11807,-7.41721],[110.11795,-7.41714],[110.11756,-7.41693],[110.11737,-7.41682],[110.11726,-7.41675],[110.11724,-7.41672],[110.11718,-7.41666],[110.11714,-7.41658],[110.11712,-7.4165],[110.11712,-7.41649],[110.1171,-7.41644],[110.11707,-7.41637],[110.11706,-7.41631],[110.11702,-7.41615],[110.117,-7.41608],[110.11691,-7.41594],[110.11679,-7.41582],[110.11666,-7.41572],[110.11638,-7.41551],[110.11629,-7.41544],[110.11612,-7.41536],[110.11598,-7.41533],[110.11597,-7.41533],[110.11582,-7.4153],[110.11576,-7.41529],[110.11563,-7.41528],[110.11535,-7.41528],[110.11525,-7.41526],[110.11521,-7.41525],[110.11516,-7.41522],[110.11509,-7.41518],[110.11499,-7.41511],[110.11491,-7.41505],[110.11485,-7.415],[110.11471,-7.41489],[110.11466,-7.41484],[110.11457,-7.41477],[110.11445,-7.41469],[110.11431,-7.41461],[110.11397,-7.4144],[110.11384,-7.41432],[110.11372,-7.41417],[110.11363,-7.41406],[110.11356,-7.41398],[110.11349,-7.41389],[110.11343,-7.41386],[110.11336,-7.4138],[110.11331,-7.41377],[110.11321,-7.41372],[110.11306,-7.41366],[110.11289,-7.41367],[110.11281,-7.41368],[110.11276,-7.41369],[110.11268,-7.41367],[110.11262,-7.41366],[110.11259,-7.41364],[110.11254,-7.41362],[110.11236,-7.41351],[110.11202,-7.41329],[110.11198,-7.41326],[110.11153,-7.41295],[110.11121,-7.41279],[110.11102,-7.41271],[110.11088,-7.41267],[110.11076,-7.41265],[110.11071,-7.41264],[110.11057,-7.41262],[110.11046,-7.41258],[110.11037,-7.41254],[110.11026,-7.41248],[110.11014,-7.41239],[110.11004,-7.4123],[110.10989,-7.41212],[110.10956,-7.41175],[110.10928,-7.41149],[110.10915,-7.41137],[110.10908,-7.41131],[110.10889,-7.41119],[110.10889,-7.41118],[110.10826,-7.41082],[110.10797,-7.41065],[110.10795,-7.41064],[110.10766,-7.4105],[110.10749,-7.41042],[110.10733,-7.41032],[110.10716,-7.41021],[110.10696,-7.40997],[110.10685,-7.40981],[110.10663,-7.40957],[110.1064,-7.4093],[110.10626,-7.40919],[110.10608,-7.40906],[110.106,-7.40901],[110.10599,-7.40901],[110.1059,-7.40895],[110.1057,-7.40882],[110.10565,-7.40879],[110.10503,-7.40841],[110.10491,-7.40834],[110.10479,-7.4083],[110.1047,-7.40826],[110.10462,-7.40825],[110.10452,-7.40825],[110.10444,-7.40826],[110.10436,-7.40826],[110.10432,-7.40824],[110.10426,-7.4082],[110.10418,-7.40818],[110.10398,-7.40818],[110.10391,-7.40819],[110.10382,-7.40819],[110.10371,-7.40816],[110.10367,-7.40813],[110.10365,-7.40805],[110.10364,-7.40797],[110.10366,-7.40775],[110.10367,-7.40766],[110.10367,-7.40758],[110.10363,-7.40748],[110.10359,-7.40733],[110.10356,-7.40719],[110.10353,-7.40701],[110.10338,-7.40649],[110.1033,-7.40635],[110.1032,-7.40626],[110.1031,-7.4062],[110.10291,-7.40617],[110.10268,-7.40615],[110.10252,-7.40615],[110.10234,-7.40621],[110.10224,-7.40623],[110.10197,-7.40629],[110.10191,-7.40631],[110.10166,-7.40635],[110.10131,-7.40658],[110.10113,-7.4067],[110.10106,-7.40674],[110.10104,-7.40675],[110.1008,-7.40688],[110.10079,-7.40689],[110.10036,-7.40703],[110.10029,-7.40706],[110.10019,-7.40713],[110.10011,-7.40722],[110.10002,-7.40732],[110.09995,-7.40738],[110.0999,-7.4074],[110.09974,-7.40738],[110.09967,-7.40737],[110.0996,-7.40732],[110.09959,-7.40732],[110.09946,-7.40714],[110.09934,-7.40706],[110.09926,-7.40701],[110.09915,-7.40698],[110.0989,-7.40698],[110.09883,-7.407],[110.0987,-7.40705],[110.09856,-7.40712],[110.09853,-7.40713],[110.09837,-7.40719],[110.09821,-7.4072],[110.09816,-7.4072],[110.09803,-7.40718],[110.09794,-7.40716],[110.0978,-7.40712],[110.09779,-7.4071],[110.09779,-7.40707],[110.09777,-7.40693],[110.09776,-7.40687],[110.09773,-7.40682],[110.0977,-7.40675],[110.09769,-7.40675],[110.09764,-7.40668],[110.0974,-7.40633],[110.09726,-7.40619],[110.0971,-7.40607],[110.09701,-7.40597],[110.09694,-7.40589],[110.09676,-7.40572],[110.09668,-7.40568],[110.09653,-7.40561],[110.09642,-7.40559],[110.09634,-7.40556],[110.09615,-7.40548],[110.09612,-7.40546],[110.09605,-7.40541],[110.096,-7.40537],[110.09597,-7.40534],[110.09593,-7.40529],[110.09591,-7.40526],[110.09585,-7.40518],[110.09568,-7.40501],[110.09554,-7.40488],[110.09545,-7.40482],[110.0954,-7.40474],[110.09533,-7.40464],[110.09524,-7.40452],[110.0946,-7.40358],[110.09459,-7.40357],[110.09444,-7.40336],[110.09429,-7.40316],[110.09416,-7.40301],[110.09406,-7.4029],[110.09388,-7.40274],[110.09386,-7.40272],[110.09369,-7.4026],[110.09351,-7.40243],[110.09345,-7.40237],[110.09327,-7.40223],[110.09325,-7.40222],[110.09319,-7.40218],[110.0932,-7.40218],[110.09326,-7.40206],[110.09325,-7.40201],[110.09324,-7.40194],[110.0932,-7.40187],[110.09318,-7.40183],[110.09315,-7.40178],[110.09311,-7.4017],[110.09308,-7.40163],[110.09307,-7.40161],[110.09305,-7.40152],[110.09304,-7.4015],[110.09301,-7.40139],[110.093,-7.40136],[110.09298,-7.40128],[110.09295,-7.40118],[110.09295,-7.40116],[110.09292,-7.40104],[110.09288,-7.40089],[110.09286,-7.40082],[110.09282,-7.40074],[110.09279,-7.40066],[110.09271,-7.40051],[110.0925,-7.40009],[110.09244,-7.39996],[110.09242,-7.39989],[110.09237,-7.39974],[110.09228,-7.39959],[110.09227,-7.39956],[110.09226,-7.39955],[110.09213,-7.39938],[110.09205,-7.39931],[110.09186,-7.39917],[110.09183,-7.39915],[110.09169,-7.39905],[110.09162,-7.39901],[110.09145,-7.39894],[110.09141,-7.39893],[110.09136,-7.39892],[110.09129,-7.39887],[110.09111,-7.39875],[110.09098,-7.39862],[110.09091,-7.39854],[110.0909,-7.39852],[110.09069,-7.39831],[110.09055,-7.39819],[110.09041,-7.39805],[110.09033,-7.39795],[110.09027,-7.39787],[110.09016,-7.39773],[110.09004,-7.39758],[110.08994,-7.39747],[110.08984,-7.39739],[110.08982,-7.39737],[110.08968,-7.39727],[110.08958,-7.39717],[110.08952,-7.3971],[110.08947,-7.39704],[110.0894,-7.39695],[110.08934,-7.39689],[110.08925,-7.39677],[110.08922,-7.39674],[110.08915,-7.39666],[110.08903,-7.39654],[110.08891,-7.39643],[110.0889,-7.39641],[110.08888,-7.3964],[110.08883,-7.39634],[110.08877,-7.39628],[110.08873,-7.39623],[110.0887,-7.39618],[110.08868,-7.39615],[110.08781,-7.39486],[110.08779,-7.39484],[110.08758,-7.39459],[110.08702,-7.39397],[110.0868,-7.39361],[110.08666,-7.3934],[110.08633,-7.39289],[110.08608,-7.39251],[110.08593,-7.39226],[110.08578,-7.39217],[110.08575,-7.39216],[110.0857,-7.39212],[110.08564,-7.39206],[110.0855,-7.3919],[110.08537,-7.39177],[110.08529,-7.3917],[110.08526,-7.39168],[110.08517,-7.39158],[110.08511,-7.3915],[110.08501,-7.39134],[110.085,-7.39132],[110.08491,-7.3912],[110.0849,-7.39118],[110.08469,-7.39089],[110.08468,-7.39087],[110.08464,-7.39082],[110.08461,-7.39078],[110.0845,-7.39063],[110.08449,-7.39062],[110.08437,-7.39052],[110.08422,-7.39042],[110.08411,-7.3903],[110.08409,-7.39027],[110.08407,-7.39025],[110.08406,-7.39023],[110.084,-7.39015],[110.08395,-7.39009],[110.08383,-7.38992],[110.0838,-7.38986],[110.08375,-7.38977],[110.08368,-7.38966],[110.08367,-7.38965],[110.08362,-7.38954],[110.08355,-7.3894],[110.08353,-7.38935],[110.08352,-7.38934],[110.08344,-7.38922],[110.08342,-7.3892],[110.08334,-7.3891],[110.08333,-7.38908],[110.08331,-7.38907],[110.08321,-7.38894],[110.0831,-7.38883],[110.08298,-7.3887],[110.08287,-7.3886],[110.08282,-7.38855],[110.08278,-7.38852],[110.0825,-7.38824],[110.08241,-7.38816],[110.08238,-7.38813],[110.08227,-7.38805],[110.08219,-7.38799],[110.08209,-7.3879],[110.082,-7.38782],[110.08191,-7.38775],[110.08183,-7.3877],[110.08176,-7.38765],[110.0817,-7.38761],[110.08165,-7.38757],[110.08155,-7.38751],[110.08151,-7.38749],[110.08142,-7.38746],[110.0813,-7.38743],[110.08098,-7.38724],[110.08078,-7.38713],[110.08065,-7.38706],[110.08023,-7.38681],[110.07938,-7.38646],[110.0793,-7.38643],[110.07845,-7.38619],[110.07832,-7.38614],[110.07794,-7.38599],[110.07748,-7.38561],[110.07715,-7.38529],[110.07701,-7.38514],[110.07681,-7.38484],[110.07622,-7.38393],[110.07612,-7.38378],[110.07603,-7.38363],[110.07592,-7.38373],[110.07562,-7.38403],[110.07556,-7.3841],[110.07555,-7.38411],[110.07554,-7.38411],[110.07523,-7.38444],[110.07522,-7.38444],[110.07503,-7.38461],[110.07495,-7.38468],[110.07477,-7.38484],[110.07474,-7.38487],[110.07459,-7.385],[110.07455,-7.38503],[110.0745,-7.38505],[110.07438,-7.3851],[110.07457,-7.3858],[110.07462,-7.38635],[110.07465,-7.3867],[110.07466,-7.38689],[110.07467,-7.3874],[110.07468,-7.38774],[110.07468,-7.38883],[110.07467,-7.38954],[110.07467,-7.39008],[110.07466,-7.39022],[110.07466,-7.39037],[110.07465,-7.39046],[110.07465,-7.39066],[110.07464,-7.39074],[110.07464,-7.39106],[110.07463,-7.39117],[110.07463,-7.39138],[110.07462,-7.39151],[110.07462,-7.39166],[110.07461,-7.39178],[110.07461,-7.39189],[110.0746,-7.39195],[110.0746,-7.39206],[110.07459,-7.39212],[110.07459,-7.39249],[110.07461,-7.39262],[110.07461,-7.39263],[110.07462,-7.39264],[110.07465,-7.39279],[110.07467,-7.39286],[110.07468,-7.39293],[110.07469,-7.39302],[110.07469,-7.39305],[110.0747,-7.39309],[110.0747,-7.39315],[110.07471,-7.39325],[110.07472,-7.39336],[110.07473,-7.39338],[110.07473,-7.39346],[110.07475,-7.39364],[110.07475,-7.39369],[110.07478,-7.39386],[110.07478,-7.39388],[110.07479,-7.39388],[110.07483,-7.39409],[110.07487,-7.39429],[110.07487,-7.39431],[110.07488,-7.39436],[110.07489,-7.39445],[110.0749,-7.39455],[110.07492,-7.39465],[110.07493,-7.39483],[110.07494,-7.39488],[110.07495,-7.39506],[110.07494,-7.39524],[110.07494,-7.39534],[110.07493,-7.39539],[110.07492,-7.39553],[110.0749,-7.39561],[110.07489,-7.39567],[110.07488,-7.39571],[110.07488,-7.39618],[110.07489,-7.39631],[110.07489,-7.39665],[110.07486,-7.39699],[110.07484,-7.3972],[110.07482,-7.39747],[110.07469,-7.39817],[110.07468,-7.39822],[110.07462,-7.39835],[110.0743,-7.3991],[110.07398,-7.39986],[110.0738,-7.40032],[110.07368,-7.40067],[110.07363,-7.40107],[110.07361,-7.40128],[110.07347,-7.40162],[110.07351,-7.40179],[110.07354,-7.40202],[110.07353,-7.40203],[110.07353,-7.40237],[110.07354,-7.40244],[110.07354,-7.40247],[110.07357,-7.40268],[110.07358,-7.4027],[110.07358,-7.40271],[110.07361,-7.40292],[110.07362,-7.40305],[110.07363,-7.40309],[110.07363,-7.40312],[110.07364,-7.40318],[110.07366,-7.40332],[110.07368,-7.40353],[110.07369,-7.40374],[110.07369,-7.40401],[110.07365,-7.40424],[110.07365,-7.40426],[110.07363,-7.40434],[110.0736,-7.40444],[110.07358,-7.40452],[110.07356,-7.40458],[110.07352,-7.40485],[110.07351,-7.40487],[110.07351,-7.4052],[110.07352,-7.40536],[110.07353,-7.40542],[110.07352,-7.40551],[110.07352,-7.40562],[110.07351,-7.4057],[110.07351,-7.40571],[110.07349,-7.40579],[110.07346,-7.40589],[110.07344,-7.40592],[110.0733,-7.40609],[110.07329,-7.4061],[110.07328,-7.4061],[110.07325,-7.40617],[110.07322,-7.40622],[110.07318,-7.40629],[110.07318,-7.40635],[110.07317,-7.40641],[110.07317,-7.40644],[110.07316,-7.40667],[110.07316,-7.40699],[110.07315,-7.40703],[110.07315,-7.40732]]]}}]}