{"type":"FeatureCollection","features":[{"type":"Feature","properties":{"KECAMATAN":"Mertoyudan"},"geometry":{"type":"Polygon","coordinates":[[[110.17764,-7.53448],[110.17769,-7.53465],[110.17773,-7.5347],[110.17778,-7.53477],[110.17786,-7.53485],[110.17795,-7.53497],[110.17796,-7.53499],[110.17798,-7.53502],[110.17799,-7.53506],[110.17804,-7.53519],[110.17807,-7.5353],[110.17811,-7.53549],[110.17828,-7.536],[110.17848,-7.53632],[110.17861,-7.53649],[110.17877,-7.53664],[110.17905,-7.53689],[110.1793,-7.53706],[110.17958,-7.53729],[110.17965,-7.53735],[110.17991,-7.53753],[110.18015,-7.53767],[110.18026,-7.53775],[110.18034,-7.53782],[110.18046,-7.53803],[110.18047,-7.53817],[110.18047,-7.53829],[110.18045,-7.53839],[110.18039,-7.53867],[110.18032,-7.53896],[110.18024,-7.53917],[110.18018,-7.53932],[110.18017,-7.53934],[110.1801,-7.53943],[110.1799,-7.53958],[110.17965,-7.53975],[110.17936,-7.53994],[110.1792,-7.54014],[110.1792,-7.54015],[110.17919,-7.54026],[110.17922,-7.54035],[110.17932,-7.54048],[110.1794,-7.54059],[110.17954,-7.54082],[110.1796,-7.54109],[110.17988,-7.54158],[110.18011,-7.54178],[110.18037,-7.54194],[110.18075,-7.54214],[110.18076,-7.54218],[110.18082,-7.54245],[110.18095,-7.54266],[110.18106,-7.54283],[110.18108,-7.54301],[110.18107,-7.54315],[110.18106,-7.54343],[110.18091,-7.54385],[110.1808,-7.544],[110.18068,-7.54416],[110.18048,-7.54433],[110.18036,-7.54443],[110.1799,-7.54491],[110.17974,-7.5451],[110.17974,-7.54519],[110.17975,-7.54528],[110.17977,-7.54536],[110.17983,-7.54547],[110.18009,-7.5458],[110.18058,-7.54619],[110.18075,-7.54626],[110.18108,-7.5464],[110.18147,-7.54656],[110.1817,-7.54676],[110.18177,-7.54707],[110.18179,-7.54735],[110.18181,-7.5476],[110.18182,-7.54765],[110.18183,-7.54794],[110.18177,-7.54869],[110.18168,-7.54927],[110.18167,-7.54935],[110.18156,-7.55],[110.18154,-7.55029],[110.18155,-7.55062],[110.18153,-7.55112],[110.18157,-7.55162],[110.18157,-7.5521],[110.18163,-7.55252],[110.18171,-7.55284],[110.18179,-7.55306],[110.18204,-7.55346],[110.18236,-7.55396],[110.18291,-7.55462],[110.18337,-7.55528],[110.18357,-7.5557],[110.18383,-7.55628],[110.18418,-7.55679],[110.18438,-7.55709],[110.18446,-7.55723],[110.18452,-7.55734],[110.18461,-7.55766],[110.18465,-7.55776],[110.18466,-7.55779],[110.18476,-7.55804],[110.18486,-7.55834],[110.18487,-7.55846],[110.18487,-7.55871],[110.18486,-7.55875],[110.18477,-7.55886],[110.18464,-7.559],[110.18454,-7.55907],[110.18437,-7.55919],[110.1842,-7.5593],[110.18403,-7.55944],[110.18392,-7.55963],[110.18386,-7.55974],[110.18376,-7.55989],[110.18367,-7.56005],[110.18355,-7.56023],[110.18352,-7.56031],[110.18351,-7.56047],[110.18355,-7.56065],[110.18358,-7.56077],[110.18369,-7.56109],[110.18373,-7.56125],[110.18384,-7.56148],[110.1839,-7.56161],[110.18398,-7.56177],[110.18418,-7.56201],[110.18426,-7.56208],[110.18437,-7.5621],[110.18454,-7.56214],[110.18465,-7.56216],[110.18477,-7.56218],[110.18485,-7.56218],[110.18492,-7.56222],[110.18499,-7.56229],[110.18507,-7.56235],[110.18521,-7.56249],[110.1853,-7.56257],[110.18538,-7.56264],[110.18549,-7.56271],[110.18558,-7.56272],[110.18566,-7.56272],[110.18573,-7.56269],[110.18591,-7.56252],[110.18604,-7.5624],[110.18611,-7.5623],[110.18621,-7.56219],[110.18633,-7.56212],[110.18654,-7.562],[110.18668,-7.56195],[110.18675,-7.56194],[110.18683,-7.56197],[110.18692,-7.56207],[110.18703,-7.5622],[110.18723,-7.56235],[110.18761,-7.56263],[110.18785,-7.56296],[110.18786,-7.56297],[110.18792,-7.56306],[110.18809,-7.56326],[110.18827,-7.56369],[110.18835,-7.56408],[110.18844,-7.56466],[110.18847,-7.56484],[110.18847,-7.56506],[110.18842,-7.56529],[110.18835,-7.56549],[110.18831,-7.56554],[110.18825,-7.56564],[110.18819,-7.56575],[110.18814,-7.56586],[110.18811,-7.56598],[110.18809,-7.5661],[110.18808,-7.56621],[110.1881,-7.56636],[110.18813,-7.56653],[110.18815,-7.5666],[110.18823,-7.56678],[110.18829,-7.56685],[110.18839,-7.5669],[110.18848,-7.56693],[110.18859,-7.56694],[110.18881,-7.56704],[110.18889,-7.56713],[110.18891,-7.56722],[110.18894,-7.56732],[110.18895,-7.56741],[110.18894,-7.56748],[110.18887,-7.56771],[110.18884,-7.56802],[110.1888,-7.56816],[110.18874,-7.56849],[110.18874,-7.56853],[110.18869,-7.56866],[110.18867,-7.56886],[110.18867,-7.56908],[110.18873,-7.5692],[110.18885,-7.5693],[110.18891,-7.56936],[110.18918,-7.56953],[110.18941,-7.56957],[110.18966,-7.56961],[110.19018,-7.56955],[110.19042,-7.56952],[110.19086,-7.56952],[110.19132,-7.56954],[110.19166,-7.56952],[110.19213,-7.56952],[110.19228,-7.56953],[110.19242,-7.56955],[110.19254,-7.56957],[110.19273,-7.56963],[110.19277,-7.56963],[110.19282,-7.56964],[110.19291,-7.56965],[110.19294,-7.56967],[110.19298,-7.56969],[110.193,-7.56972],[110.19299,-7.56975],[110.19297,-7.56977],[110.19293,-7.5698],[110.19289,-7.56985],[110.19286,-7.56991],[110.19278,-7.5701],[110.19278,-7.57011],[110.19272,-7.57025],[110.19264,-7.5705],[110.19262,-7.57061],[110.1926,-7.57069],[110.19254,-7.571],[110.19249,-7.57122],[110.19246,-7.57133],[110.19244,-7.57142],[110.1924,-7.5715],[110.19235,-7.57159],[110.1923,-7.5717],[110.19226,-7.57181],[110.19223,-7.57193],[110.19224,-7.57204],[110.19226,-7.57219],[110.19229,-7.57234],[110.19234,-7.57252],[110.1924,-7.57271],[110.19245,-7.57282],[110.19259,-7.57317],[110.19282,-7.57344],[110.19309,-7.5736],[110.19337,-7.57376],[110.19359,-7.57385],[110.19384,-7.57386],[110.19402,-7.57381],[110.19405,-7.5736],[110.19408,-7.57328],[110.19408,-7.57291],[110.19406,-7.57249],[110.19408,-7.57196],[110.19408,-7.57183],[110.19418,-7.57163],[110.19424,-7.5716],[110.19454,-7.5716],[110.19478,-7.57163],[110.19499,-7.57169],[110.19527,-7.57195],[110.19545,-7.5723],[110.19565,-7.57283],[110.1957,-7.57305],[110.19573,-7.57333],[110.19569,-7.57374],[110.19565,-7.57394],[110.19563,-7.57405],[110.19555,-7.57438],[110.19552,-7.57461],[110.19556,-7.57492],[110.19561,-7.57528],[110.19581,-7.57606],[110.19595,-7.57638],[110.19615,-7.57669],[110.19634,-7.57692],[110.19646,-7.57706],[110.19694,-7.57752],[110.1973,-7.57793],[110.19775,-7.57833],[110.19832,-7.57875],[110.19848,-7.57889],[110.19871,-7.579],[110.19906,-7.57916],[110.19921,-7.57926],[110.19935,-7.57948],[110.19952,-7.57982],[110.19968,-7.58003],[110.19976,-7.58014],[110.19987,-7.58026],[110.19994,-7.58029],[110.20006,-7.58034],[110.20009,-7.58036],[110.2002,-7.58047],[110.20026,-7.58052],[110.20051,-7.58078],[110.20066,-7.58093],[110.2008,-7.58117],[110.2009,-7.58141],[110.20104,-7.58183],[110.2011,-7.582],[110.20119,-7.58213],[110.20135,-7.58239],[110.20145,-7.58253],[110.20157,-7.58271],[110.20163,-7.58278],[110.20178,-7.58295],[110.2019,-7.58308],[110.20235,-7.58351],[110.20279,-7.58372],[110.20303,-7.58379],[110.20324,-7.58379],[110.20344,-7.58375],[110.20366,-7.58356],[110.20376,-7.58333],[110.20384,-7.58311],[110.2039,-7.58295],[110.204,-7.58273],[110.20405,-7.58267],[110.20407,-7.58264],[110.2042,-7.58247],[110.20424,-7.58242],[110.20426,-7.58239],[110.20443,-7.58232],[110.20463,-7.58234],[110.20483,-7.58247],[110.205,-7.58269],[110.2053,-7.5833],[110.20535,-7.58342],[110.20539,-7.58355],[110.20543,-7.58375],[110.20546,-7.58416],[110.20551,-7.58445],[110.2056,-7.58483],[110.20567,-7.58518],[110.20577,-7.5856],[110.20579,-7.58564],[110.20584,-7.58591],[110.20584,-7.58603],[110.20576,-7.58628],[110.20557,-7.58664],[110.20549,-7.58677],[110.20534,-7.58707],[110.20528,-7.58723],[110.20526,-7.58738],[110.20529,-7.58749],[110.20538,-7.58764],[110.20559,-7.58783],[110.20592,-7.58808],[110.20633,-7.58841],[110.20675,-7.58872],[110.20676,-7.58873],[110.20677,-7.58876],[110.20683,-7.58888],[110.20684,-7.58908],[110.20681,-7.58947],[110.20679,-7.5897],[110.20683,-7.59011],[110.20687,-7.59029],[110.20698,-7.59044],[110.20715,-7.59056],[110.20732,-7.5906],[110.20756,-7.59062],[110.20767,-7.59057],[110.20777,-7.59046],[110.20781,-7.59041],[110.20796,-7.59031],[110.2085,-7.59009],[110.20871,-7.59007],[110.20883,-7.59009],[110.20887,-7.59016],[110.20886,-7.59028],[110.20882,-7.59041],[110.20881,-7.59056],[110.20881,-7.59072],[110.20891,-7.59118],[110.20892,-7.59134],[110.20888,-7.5916],[110.20886,-7.59167],[110.20878,-7.59197],[110.20875,-7.59246],[110.20875,-7.59278],[110.2087,-7.59323],[110.20864,-7.59355],[110.20862,-7.59379],[110.20864,-7.59395],[110.20873,-7.59404],[110.20893,-7.59422],[110.20908,-7.59439],[110.20923,-7.59455],[110.20931,-7.59461],[110.20951,-7.59469],[110.20979,-7.59481],[110.20994,-7.59485],[110.21019,-7.59486],[110.21039,-7.59492],[110.21055,-7.59503],[110.21067,-7.59515],[110.21081,-7.5953],[110.21109,-7.59557],[110.21135,-7.59585],[110.21155,-7.59609],[110.21173,-7.59631],[110.21191,-7.59664],[110.21207,-7.59689],[110.21231,-7.59716],[110.21231,-7.59717],[110.21239,-7.59724],[110.21257,-7.59739],[110.21298,-7.59772],[110.21326,-7.59787],[110.21381,-7.59816],[110.21438,-7.59843],[110.21472,-7.59853],[110.21497,-7.59867],[110.21526,-7.59904],[110.21543,-7.59947],[110.21562,-7.60001],[110.21583,-7.60032],[110.21584,-7.60033],[110.21615,-7.60069],[110.21642,-7.60082],[110.2166,-7.60084],[110.21705,-7.60007],[110.21707,-7.60005],[110.21708,-7.59996],[110.21707,-7.59987],[110.21706,-7.59979],[110.21701,-7.59974],[110.21696,-7.59964],[110.21696,-7.59955],[110.21705,-7.59941],[110.21717,-7.59929],[110.21722,-7.59916],[110.21727,-7.59905],[110.21741,-7.59881],[110.21746,-7.59864],[110.21762,-7.59811],[110.21781,-7.59743],[110.21767,-7.59731],[110.2175,-7.59705],[110.21744,-7.59685],[110.21744,-7.59683],[110.21746,-7.59668],[110.2175,-7.59639],[110.21763,-7.5954],[110.2177,-7.59483],[110.21771,-7.59472],[110.21771,-7.59461],[110.21772,-7.59452],[110.21772,-7.59451],[110.21762,-7.59404],[110.21747,-7.59353],[110.21745,-7.59349],[110.21733,-7.59315],[110.21722,-7.59286],[110.21716,-7.59273],[110.21703,-7.5926],[110.21692,-7.59244],[110.21687,-7.59218],[110.21689,-7.59207],[110.21707,-7.59181],[110.21714,-7.5917],[110.21724,-7.59135],[110.21725,-7.59123],[110.2172,-7.59119],[110.21707,-7.59115],[110.21699,-7.59112],[110.21692,-7.59095],[110.21684,-7.59076],[110.21682,-7.59073],[110.21657,-7.59037],[110.21649,-7.59026],[110.21638,-7.5901],[110.21636,-7.59006],[110.21627,-7.58989],[110.21634,-7.58955],[110.21641,-7.5892],[110.2165,-7.58882],[110.21651,-7.58879],[110.21655,-7.58838],[110.21655,-7.58836],[110.2165,-7.58811],[110.21627,-7.58769],[110.21619,-7.58753],[110.21607,-7.58732],[110.21664,-7.58711],[110.21687,-7.58703],[110.21688,-7.58702],[110.21706,-7.58679],[110.21721,-7.58641],[110.21732,-7.58615],[110.21734,-7.58605],[110.21772,-7.5862],[110.21786,-7.58627],[110.2181,-7.58638],[110.21845,-7.58655],[110.21843,-7.58661],[110.21906,-7.58696],[110.21916,-7.58702],[110.2192,-7.58706],[110.21962,-7.58731],[110.21962,-7.58713],[110.21963,-7.58679],[110.21967,-7.58679],[110.21969,-7.58678],[110.21973,-7.58679],[110.21981,-7.58661],[110.21987,-7.5864],[110.2202,-7.58547],[110.22033,-7.58511],[110.22067,-7.58503],[110.22098,-7.58502],[110.22141,-7.58506],[110.22137,-7.58502],[110.22117,-7.58479],[110.22117,-7.58477],[110.22113,-7.58452],[110.22127,-7.58405],[110.22128,-7.58402],[110.22147,-7.58362],[110.2216,-7.58333],[110.22161,-7.58333],[110.22163,-7.58329],[110.222,-7.58265],[110.22206,-7.58249],[110.22211,-7.5822],[110.22211,-7.58219],[110.22213,-7.58203],[110.22223,-7.5819],[110.22247,-7.58171],[110.22263,-7.58166],[110.22272,-7.58164],[110.22289,-7.5816],[110.22308,-7.58153],[110.22323,-7.58142],[110.22333,-7.58126],[110.22332,-7.58102],[110.22321,-7.58082],[110.22306,-7.5807],[110.22243,-7.58034],[110.22202,-7.58003],[110.22186,-7.57982],[110.22181,-7.57963],[110.22188,-7.5794],[110.222,-7.57926],[110.22222,-7.5792],[110.22247,-7.57919],[110.22258,-7.5791],[110.22267,-7.57898],[110.22281,-7.57876],[110.22294,-7.57844],[110.22308,-7.57812],[110.22312,-7.5779],[110.22314,-7.57782],[110.22312,-7.57772],[110.22298,-7.57749],[110.2228,-7.57734],[110.22254,-7.57719],[110.22251,-7.57718],[110.22234,-7.5771],[110.22228,-7.57708],[110.22223,-7.57707],[110.22193,-7.57702],[110.22166,-7.57693],[110.22151,-7.57682],[110.22148,-7.57667],[110.22147,-7.57642],[110.22147,-7.57624],[110.22146,-7.57619],[110.22147,-7.57595],[110.2215,-7.57554],[110.22163,-7.57502],[110.22187,-7.57457],[110.2221,-7.57429],[110.22232,-7.57414],[110.22269,-7.57406],[110.22294,-7.57405],[110.22342,-7.57402],[110.22393,-7.57397],[110.22435,-7.57392],[110.22451,-7.57393],[110.22464,-7.57388],[110.22491,-7.57377],[110.22507,-7.57366],[110.22528,-7.57352],[110.22532,-7.57349],[110.22533,-7.57348],[110.22574,-7.57313],[110.22605,-7.57283],[110.22628,-7.5725],[110.22654,-7.57211],[110.22674,-7.57173],[110.22682,-7.57143],[110.2268,-7.57122],[110.22669,-7.57108],[110.22649,-7.5709],[110.22638,-7.5708],[110.2261,-7.57053],[110.22597,-7.57038],[110.22592,-7.57009],[110.22588,-7.56991],[110.2259,-7.56984],[110.22596,-7.5696],[110.22611,-7.56936],[110.2265,-7.56905],[110.22691,-7.56883],[110.22716,-7.56877],[110.22742,-7.56883],[110.22767,-7.56896],[110.22788,-7.56904],[110.22806,-7.56899],[110.22822,-7.56881],[110.22823,-7.56879],[110.2283,-7.56852],[110.22833,-7.56789],[110.2284,-7.56772],[110.22851,-7.56747],[110.22857,-7.56691],[110.22844,-7.56691],[110.22821,-7.5669],[110.22802,-7.56689],[110.22765,-7.5668],[110.22749,-7.56674],[110.22727,-7.56662],[110.22705,-7.56653],[110.2269,-7.56647],[110.22643,-7.56632],[110.22611,-7.56619],[110.22578,-7.56609],[110.22583,-7.56596],[110.22584,-7.56591],[110.22593,-7.56548],[110.22598,-7.56528],[110.22606,-7.56491],[110.22612,-7.56464],[110.22622,-7.56418],[110.2263,-7.56385],[110.2264,-7.56341],[110.22646,-7.56311],[110.22674,-7.56319],[110.22678,-7.5631],[110.22683,-7.56294],[110.22699,-7.56248],[110.22662,-7.56238],[110.22666,-7.5622],[110.22676,-7.56152],[110.22687,-7.56078],[110.22686,-7.56077],[110.22657,-7.56046],[110.22656,-7.56045],[110.22647,-7.56034],[110.22632,-7.56004],[110.22628,-7.55988],[110.22624,-7.55971],[110.22619,-7.55959],[110.22607,-7.55931],[110.22575,-7.55889],[110.22555,-7.55862],[110.2252,-7.55818],[110.22475,-7.55778],[110.22444,-7.55747],[110.22444,-7.55746],[110.2241,-7.557],[110.22398,-7.55681],[110.22388,-7.55666],[110.22381,-7.55649],[110.22376,-7.55636],[110.22395,-7.55597],[110.22396,-7.55553],[110.22399,-7.55511],[110.22402,-7.55481],[110.22372,-7.55457],[110.22335,-7.55452],[110.22346,-7.55399],[110.22322,-7.55342],[110.22311,-7.55316],[110.22298,-7.55282],[110.22297,-7.55281],[110.22297,-7.55276],[110.2229,-7.55244],[110.22288,-7.55243],[110.22275,-7.55234],[110.22283,-7.55212],[110.22286,-7.55204],[110.22292,-7.55175],[110.22292,-7.5517],[110.22294,-7.55145],[110.22293,-7.55138],[110.22293,-7.5513],[110.22292,-7.55095],[110.22291,-7.55076],[110.22288,-7.55068],[110.22254,-7.55067],[110.22247,-7.55024],[110.22245,-7.54992],[110.22245,-7.5498],[110.22253,-7.54912],[110.22263,-7.54877],[110.22271,-7.54851],[110.22271,-7.5485],[110.22267,-7.54848],[110.22252,-7.54836],[110.22232,-7.54821],[110.22231,-7.54815],[110.22227,-7.54789],[110.22208,-7.5479],[110.22191,-7.5479],[110.22184,-7.54772],[110.22185,-7.54757],[110.22191,-7.54741],[110.22213,-7.54709],[110.22229,-7.54693],[110.22248,-7.54672],[110.22257,-7.54657],[110.22264,-7.54636],[110.22272,-7.54604],[110.22291,-7.54599],[110.22309,-7.54605],[110.22316,-7.5456],[110.22334,-7.54522],[110.22362,-7.54488],[110.22381,-7.54476],[110.22398,-7.54468],[110.22426,-7.54463],[110.22453,-7.54464],[110.22471,-7.54469],[110.22479,-7.5447],[110.2248,-7.54415],[110.22483,-7.54384],[110.225,-7.54384],[110.22501,-7.5437],[110.22503,-7.54363],[110.22512,-7.54352],[110.22514,-7.54338],[110.22513,-7.54327],[110.22503,-7.54311],[110.22488,-7.543],[110.22449,-7.54294],[110.22414,-7.54289],[110.22367,-7.54273],[110.22373,-7.54251],[110.22385,-7.5416],[110.22415,-7.54147],[110.22432,-7.54141],[110.22489,-7.54104],[110.22516,-7.54076],[110.22536,-7.54056],[110.22587,-7.54071],[110.22655,-7.54086],[110.22746,-7.54106],[110.22751,-7.54098],[110.22776,-7.54101],[110.2278,-7.54081],[110.22801,-7.54079],[110.22827,-7.54004],[110.22837,-7.53975],[110.22853,-7.5398],[110.22857,-7.53962],[110.22861,-7.53951],[110.22869,-7.53925],[110.22878,-7.53902],[110.22888,-7.53852],[110.22896,-7.53853],[110.22945,-7.53847],[110.2295,-7.53846],[110.2298,-7.5385],[110.23001,-7.53845],[110.23032,-7.53823],[110.23055,-7.53806],[110.23076,-7.53803],[110.23083,-7.538],[110.23105,-7.53774],[110.23126,-7.5373],[110.23132,-7.53715],[110.23138,-7.53687],[110.23138,-7.53658],[110.23131,-7.53601],[110.23136,-7.53591],[110.23169,-7.53581],[110.23186,-7.53572],[110.232,-7.53561],[110.23259,-7.53523],[110.23286,-7.53509],[110.23303,-7.53505],[110.2329,-7.53546],[110.23284,-7.53654],[110.2328,-7.53724],[110.23278,-7.53758],[110.233,-7.53756],[110.23317,-7.53756],[110.2334,-7.53759],[110.23353,-7.53758],[110.2337,-7.53749],[110.23381,-7.53742],[110.23403,-7.53733],[110.23398,-7.53715],[110.23427,-7.53703],[110.23519,-7.53663],[110.23538,-7.53704],[110.23538,-7.53705],[110.23562,-7.53695],[110.23623,-7.53669],[110.23645,-7.53659],[110.23653,-7.5365],[110.23649,-7.53646],[110.23641,-7.53642],[110.23626,-7.53631],[110.23606,-7.53623],[110.23604,-7.53619],[110.23603,-7.53618],[110.23602,-7.53616],[110.23602,-7.53612],[110.23606,-7.53603],[110.23609,-7.53596],[110.23609,-7.53594],[110.2361,-7.53592],[110.23619,-7.53576],[110.23622,-7.5357],[110.23615,-7.53547],[110.23618,-7.53521],[110.23618,-7.53465],[110.23656,-7.53503],[110.2366,-7.53486],[110.2367,-7.5351],[110.23672,-7.53516],[110.23675,-7.53527],[110.23686,-7.53528],[110.23696,-7.53524],[110.23704,-7.53519],[110.23713,-7.53516],[110.23737,-7.53514],[110.23739,-7.53502],[110.23738,-7.53474],[110.23737,-7.53454],[110.23744,-7.53448],[110.23759,-7.53443],[110.2378,-7.53442],[110.23811,-7.53441],[110.23823,-7.53418],[110.23835,-7.5341],[110.2385,-7.53399],[110.23864,-7.53377],[110.23885,-7.53382],[110.23912,-7.53389],[110.2397,-7.53382],[110.24009,-7.53375],[110.24056,-7.53363],[110.24068,-7.53361],[110.24085,-7.53358],[110.24084,-7.53343],[110.24079,-7.5332],[110.24079,-7.53285],[110.2408,-7.5327],[110.2408,-7.53226],[110.24081,-7.53201],[110.24082,-7.53171],[110.24085,-7.5315],[110.24086,-7.53136],[110.24085,-7.5313],[110.24085,-7.53125],[110.24084,-7.53119],[110.24084,-7.53115],[110.24085,-7.53114],[110.24085,-7.5311],[110.24091,-7.53094],[110.24092,-7.53091],[110.24092,-7.53089],[110.24093,-7.53086],[110.24093,-7.53069],[110.24094,-7.53066],[110.24094,-7.53063],[110.24096,-7.53056],[110.24099,-7.53049],[110.24104,-7.53039],[110.24109,-7.5303],[110.24114,-7.53022],[110.24115,-7.5302],[110.24117,-7.53018],[110.24125,-7.53009],[110.24132,-7.53],[110.24134,-7.52997],[110.24134,-7.52996],[110.24138,-7.52992],[110.24138,-7.52991],[110.24145,-7.52985],[110.24164,-7.52975],[110.24179,-7.52966],[110.24197,-7.52956],[110.24208,-7.52949],[110.24215,-7.52946],[110.2422,-7.52943],[110.24231,-7.52938],[110.24242,-7.52934],[110.24244,-7.52933],[110.24255,-7.5293],[110.24257,-7.5293],[110.24274,-7.52927],[110.24319,-7.52912],[110.24331,-7.52907],[110.24336,-7.52904],[110.24343,-7.52901],[110.2435,-7.52897],[110.24359,-7.5289],[110.24364,-7.52884],[110.24377,-7.52871],[110.24382,-7.52863],[110.24384,-7.52857],[110.24384,-7.52852],[110.24385,-7.52848],[110.24386,-7.52842],[110.24384,-7.52829],[110.24384,-7.52825],[110.24381,-7.52813],[110.2438,-7.52808],[110.2438,-7.52805],[110.24378,-7.52803],[110.24374,-7.528],[110.24357,-7.52796],[110.24329,-7.52793],[110.24313,-7.52789],[110.24312,-7.52789],[110.24275,-7.52788],[110.24259,-7.52789],[110.24245,-7.52791],[110.24241,-7.52792],[110.24224,-7.52796],[110.24211,-7.52798],[110.24201,-7.52798],[110.2419,-7.52795],[110.24183,-7.52792],[110.24169,-7.52782],[110.24163,-7.52777],[110.24163,-7.52776],[110.24158,-7.52771],[110.24156,-7.52768],[110.24153,-7.52765],[110.24148,-7.52756],[110.24132,-7.52708],[110.2413,-7.52699],[110.24121,-7.52673],[110.24116,-7.52656],[110.24112,-7.52644],[110.24106,-7.52634],[110.24106,-7.52633],[110.24102,-7.52628],[110.24094,-7.52621],[110.24086,-7.52615],[110.2408,-7.52606],[110.24067,-7.52589],[110.24063,-7.52583],[110.2406,-7.52578],[110.24059,-7.52577],[110.24056,-7.52571],[110.24055,-7.52564],[110.24057,-7.52559],[110.2406,-7.52554],[110.24065,-7.52549],[110.24075,-7.52541],[110.24089,-7.52533],[110.24103,-7.52526],[110.24116,-7.52519],[110.24128,-7.5251],[110.24134,-7.52504],[110.24134,-7.52503],[110.24138,-7.52499],[110.24153,-7.52479],[110.24157,-7.52472],[110.2416,-7.52464],[110.24163,-7.52454],[110.24165,-7.52437],[110.24165,-7.524],[110.24164,-7.52396],[110.24162,-7.52386],[110.24157,-7.52371],[110.2415,-7.52355],[110.24133,-7.52321],[110.24133,-7.5232],[110.24129,-7.52313],[110.24123,-7.52304],[110.24124,-7.52299],[110.24122,-7.52294],[110.24121,-7.52289],[110.24116,-7.52283],[110.24109,-7.52275],[110.241,-7.52266],[110.24091,-7.52255],[110.24086,-7.5225],[110.24071,-7.52232],[110.24062,-7.52226],[110.24058,-7.52222],[110.24057,-7.52222],[110.24053,-7.52219],[110.24028,-7.522],[110.24017,-7.52189],[110.24018,-7.52181],[110.24019,-7.52176],[110.24027,-7.52156],[110.24033,-7.52146],[110.24037,-7.52135],[110.24038,-7.52131],[110.24038,-7.5213],[110.24039,-7.52125],[110.24042,-7.52117],[110.24046,-7.52103],[110.24074,-7.52031],[110.24078,-7.5202],[110.24082,-7.52008],[110.24084,-7.51999],[110.24087,-7.51992],[110.24092,-7.5198],[110.24099,-7.51972],[110.24106,-7.51955],[110.24109,-7.51939],[110.24112,-7.51921],[110.24112,-7.5192],[110.24114,-7.51907],[110.24118,-7.51877],[110.24118,-7.51864],[110.24119,-7.51856],[110.2412,-7.51849],[110.24123,-7.51842],[110.24127,-7.51835],[110.24132,-7.51828],[110.24139,-7.51821],[110.24146,-7.51816],[110.24147,-7.51816],[110.24149,-7.51814],[110.24157,-7.51807],[110.24164,-7.51799],[110.2417,-7.51789],[110.24174,-7.51778],[110.24182,-7.51754],[110.24182,-7.51752],[110.24183,-7.51748],[110.24183,-7.51741],[110.24182,-7.51733],[110.24181,-7.51723],[110.24175,-7.51703],[110.24173,-7.51688],[110.24166,-7.51674],[110.24166,-7.51673],[110.24163,-7.51664],[110.24157,-7.51651],[110.24149,-7.51619],[110.24146,-7.51604],[110.24144,-7.51597],[110.24144,-7.51591],[110.24146,-7.51585],[110.2415,-7.5158],[110.24156,-7.51576],[110.24174,-7.5157],[110.24183,-7.51568],[110.24191,-7.51567],[110.24195,-7.51567],[110.24205,-7.51564],[110.24211,-7.51561],[110.24216,-7.51559],[110.24218,-7.51555],[110.24219,-7.51551],[110.24219,-7.51546],[110.24216,-7.51539],[110.24211,-7.51532],[110.24206,-7.51526],[110.24201,-7.51523],[110.24198,-7.51522],[110.24188,-7.51517],[110.24183,-7.51514],[110.24177,-7.51509],[110.2416,-7.51481],[110.24159,-7.51479],[110.24151,-7.51466],[110.24146,-7.5145],[110.24144,-7.51441],[110.24143,-7.51435],[110.24141,-7.51421],[110.2414,-7.51406],[110.2414,-7.51396],[110.24142,-7.5139],[110.24144,-7.51376],[110.24146,-7.51361],[110.24147,-7.51345],[110.24144,-7.51333],[110.24135,-7.51313],[110.24131,-7.51302],[110.24127,-7.51289],[110.24126,-7.51286],[110.24124,-7.51276],[110.24123,-7.51273],[110.24123,-7.51272],[110.24122,-7.51271],[110.24121,-7.51264],[110.24115,-7.51252],[110.24109,-7.51243],[110.24105,-7.51239],[110.24097,-7.51236],[110.24095,-7.51235],[110.24088,-7.51233],[110.24081,-7.51232],[110.2406,-7.51232],[110.24038,-7.51231],[110.24028,-7.51228],[110.24024,-7.51228],[110.24006,-7.51219],[110.24005,-7.51219],[110.23995,-7.51213],[110.23987,-7.51203],[110.23984,-7.51196],[110.23982,-7.51191],[110.23982,-7.51184],[110.23984,-7.51179],[110.23987,-7.5117],[110.23991,-7.51157],[110.24016,-7.51083],[110.24021,-7.51068],[110.24023,-7.51054],[110.24021,-7.51047],[110.24018,-7.51039],[110.24014,-7.51032],[110.24006,-7.51017],[110.24005,-7.51016],[110.23991,-7.51007],[110.23981,-7.50997],[110.2397,-7.5099],[110.23956,-7.50984],[110.23945,-7.5098],[110.23933,-7.50978],[110.23924,-7.50979],[110.23913,-7.50981],[110.23902,-7.50982],[110.239,-7.50983],[110.23895,-7.50984],[110.23873,-7.5098],[110.2386,-7.50978],[110.23856,-7.50978],[110.23836,-7.50975],[110.23832,-7.50974],[110.23814,-7.5097],[110.23802,-7.50966],[110.23794,-7.50964],[110.23776,-7.50956],[110.23758,-7.50947],[110.23741,-7.50937],[110.23725,-7.50929],[110.23723,-7.50927],[110.23722,-7.50927],[110.23715,-7.50921],[110.23709,-7.50913],[110.23704,-7.50901],[110.237,-7.50892],[110.23698,-7.50886],[110.23695,-7.50872],[110.23693,-7.50854],[110.23692,-7.50835],[110.23692,-7.50831],[110.23693,-7.50823],[110.23693,-7.50808],[110.23692,-7.50785],[110.23691,-7.50766],[110.23691,-7.5076],[110.2369,-7.50746],[110.23689,-7.50742],[110.23689,-7.50741],[110.23681,-7.50722],[110.23681,-7.50721],[110.23678,-7.50714],[110.23676,-7.50705],[110.23675,-7.5069],[110.23676,-7.5068],[110.23676,-7.50673],[110.23678,-7.50656],[110.23679,-7.50641],[110.23681,-7.50628],[110.23685,-7.50619],[110.23686,-7.50619],[110.23687,-7.50617],[110.23694,-7.50611],[110.23702,-7.50606],[110.23705,-7.50604],[110.23743,-7.50585],[110.23756,-7.5058],[110.23768,-7.50575],[110.23773,-7.50568],[110.2378,-7.50559],[110.23796,-7.50531],[110.238,-7.50501],[110.23797,-7.50485],[110.23796,-7.50482],[110.23788,-7.50468],[110.23788,-7.50467],[110.23782,-7.50463],[110.23775,-7.50456],[110.23751,-7.50448],[110.2372,-7.50443],[110.23712,-7.50441],[110.23682,-7.50432],[110.23667,-7.50421],[110.23666,-7.50421],[110.2364,-7.50427],[110.2361,-7.50437],[110.23603,-7.5044],[110.23593,-7.50444],[110.23559,-7.50452],[110.23546,-7.50454],[110.23531,-7.50456],[110.23521,-7.50457],[110.23509,-7.50459],[110.23507,-7.50511],[110.23478,-7.50516],[110.23448,-7.50522],[110.23441,-7.50523],[110.23412,-7.50532],[110.23411,-7.50522],[110.2341,-7.50518],[110.23408,-7.50504],[110.23405,-7.50501],[110.23397,-7.505],[110.23379,-7.505],[110.23356,-7.50499],[110.23347,-7.50498],[110.23344,-7.50497],[110.23342,-7.50495],[110.23339,-7.50488],[110.23339,-7.50456],[110.23296,-7.50462],[110.23292,-7.50463],[110.23289,-7.50463],[110.23276,-7.50465],[110.23275,-7.50465],[110.23235,-7.50471],[110.23224,-7.50471],[110.23198,-7.5047],[110.23185,-7.50469],[110.23155,-7.50452],[110.23142,-7.50444],[110.23128,-7.50432],[110.23125,-7.5043],[110.23119,-7.50425],[110.23112,-7.50421],[110.2311,-7.50419],[110.23103,-7.50415],[110.23101,-7.50413],[110.23094,-7.50409],[110.23088,-7.50406],[110.23086,-7.50404],[110.23054,-7.50392],[110.23052,-7.50392],[110.23008,-7.50384],[110.2296,-7.50376],[110.22922,-7.50366],[110.22908,-7.50365],[110.22891,-7.50362],[110.22867,-7.50356],[110.22865,-7.50355],[110.22837,-7.50351],[110.22811,-7.50349],[110.2278,-7.50349],[110.22753,-7.50351],[110.22725,-7.50354],[110.22719,-7.50354],[110.22708,-7.50355],[110.22682,-7.50351],[110.22586,-7.50332],[110.22583,-7.50331],[110.22574,-7.50329],[110.22562,-7.50327],[110.22542,-7.50324],[110.22531,-7.50322],[110.22524,-7.50322],[110.22479,-7.50319],[110.22413,-7.50315],[110.22388,-7.50313],[110.22373,-7.50315],[110.22372,-7.50315],[110.22373,-7.50321],[110.22375,-7.50352],[110.22376,-7.50362],[110.22377,-7.5037],[110.22379,-7.50394],[110.2238,-7.50418],[110.22365,-7.50423],[110.22326,-7.50437],[110.22307,-7.50444],[110.22278,-7.50456],[110.22249,-7.50467],[110.22229,-7.50475],[110.22208,-7.50483],[110.22125,-7.50515],[110.22054,-7.50542],[110.22028,-7.50552],[110.22019,-7.50555],[110.21976,-7.50575],[110.21965,-7.5058],[110.21956,-7.50584],[110.21952,-7.50586],[110.21933,-7.50556],[110.21934,-7.50535],[110.21987,-7.50512],[110.2201,-7.50441],[110.22025,-7.50387],[110.21979,-7.50383],[110.21937,-7.5037],[110.21863,-7.50347],[110.21858,-7.5036],[110.21769,-7.50344],[110.2177,-7.50341],[110.21789,-7.50267],[110.21819,-7.50177],[110.21812,-7.50162],[110.21811,-7.5016],[110.218,-7.50165],[110.21743,-7.50185],[110.21727,-7.50192],[110.21705,-7.50201],[110.21688,-7.50206],[110.21679,-7.50209],[110.21627,-7.50209],[110.21582,-7.50202],[110.21532,-7.502],[110.21511,-7.50207],[110.21488,-7.50224],[110.2148,-7.50232],[110.21404,-7.50307],[110.21395,-7.50324],[110.21374,-7.50364],[110.21371,-7.50368],[110.21353,-7.504],[110.21343,-7.50417],[110.2133,-7.5044],[110.21329,-7.50443],[110.21312,-7.50474],[110.21306,-7.50484],[110.21303,-7.50507],[110.21301,-7.50521],[110.21291,-7.50577],[110.21264,-7.50574],[110.21252,-7.50596],[110.21248,-7.50603],[110.21211,-7.5058],[110.21169,-7.50556],[110.21147,-7.50545],[110.2114,-7.50573],[110.21079,-7.50542],[110.21052,-7.50529],[110.21043,-7.50529],[110.21033,-7.50528],[110.21013,-7.50524],[110.20997,-7.50506],[110.20984,-7.505],[110.20964,-7.50501],[110.2093,-7.50482],[110.20922,-7.50478],[110.20916,-7.50477],[110.20895,-7.50473],[110.20868,-7.50465],[110.20867,-7.50465],[110.20864,-7.50464],[110.20864,-7.50463],[110.20861,-7.50462],[110.20846,-7.50456],[110.20826,-7.50452],[110.20768,-7.50439],[110.20729,-7.50429],[110.20726,-7.50429],[110.20663,-7.50404],[110.20661,-7.50403],[110.20645,-7.50398],[110.20557,-7.50354],[110.20493,-7.50312],[110.20455,-7.50289],[110.20424,-7.50271],[110.20423,-7.50271],[110.20417,-7.50265],[110.20416,-7.50263],[110.20412,-7.5026],[110.20406,-7.50253],[110.20381,-7.50211],[110.20361,-7.50149],[110.20358,-7.50141],[110.20345,-7.501],[110.20339,-7.50088],[110.20334,-7.50077],[110.20313,-7.50035],[110.20311,-7.5003],[110.20283,-7.49995],[110.20282,-7.49993],[110.20257,-7.49972],[110.2025,-7.49967],[110.20243,-7.49961],[110.20232,-7.49953],[110.20225,-7.49944],[110.20198,-7.49913],[110.20197,-7.49912],[110.20193,-7.49897],[110.20193,-7.49865],[110.20194,-7.49863],[110.20201,-7.49843],[110.2021,-7.4983],[110.2022,-7.49818],[110.20251,-7.49795],[110.2027,-7.49782],[110.20279,-7.49776],[110.20283,-7.49774],[110.20286,-7.49771],[110.2029,-7.49766],[110.20299,-7.49754],[110.20305,-7.49736],[110.20306,-7.4972],[110.20304,-7.49688],[110.20304,-7.49683],[110.20308,-7.49618],[110.20308,-7.49611],[110.20317,-7.49583],[110.20322,-7.49568],[110.20322,-7.49566],[110.20321,-7.49562],[110.20339,-7.49513],[110.20341,-7.49507],[110.20342,-7.49502],[110.20344,-7.49499],[110.20345,-7.49498],[110.20364,-7.49456],[110.20371,-7.49442],[110.20404,-7.49381],[110.2042,-7.4936],[110.20443,-7.49343],[110.20445,-7.49342],[110.20487,-7.49311],[110.20511,-7.49297],[110.20549,-7.49275],[110.20574,-7.49261],[110.20583,-7.49257],[110.2059,-7.4925],[110.206,-7.49241],[110.20591,-7.49245],[110.20589,-7.49245],[110.20579,-7.49246],[110.20567,-7.49248],[110.20553,-7.49246],[110.20547,-7.49246],[110.20543,-7.49249],[110.20538,-7.49254],[110.20532,-7.49256],[110.2052,-7.49258],[110.20514,-7.49258],[110.2051,-7.49256],[110.20504,-7.49255],[110.20496,-7.49255],[110.2049,-7.49253],[110.20486,-7.49252],[110.20483,-7.49251],[110.2048,-7.49251],[110.20475,-7.49252],[110.20412,-7.49254],[110.20405,-7.49254],[110.2032,-7.4926],[110.20319,-7.4926],[110.20289,-7.49251],[110.20288,-7.49251],[110.20268,-7.49232],[110.20261,-7.49225],[110.20253,-7.49215],[110.20252,-7.49215],[110.2025,-7.49216],[110.20249,-7.49215],[110.20246,-7.49213],[110.20244,-7.4921],[110.20241,-7.49208],[110.20237,-7.49206],[110.20231,-7.49206],[110.20226,-7.49204],[110.2022,-7.49198],[110.20217,-7.49196],[110.20216,-7.49192],[110.20215,-7.49187],[110.20213,-7.49183],[110.20211,-7.4918],[110.20209,-7.49175],[110.20206,-7.49171],[110.20204,-7.49166],[110.20198,-7.49158],[110.20195,-7.49156],[110.20193,-7.49155],[110.20191,-7.49156],[110.20189,-7.49156],[110.20186,-7.49158],[110.20183,-7.49157],[110.20176,-7.49157],[110.20173,-7.49158],[110.2017,-7.4916],[110.20168,-7.49162],[110.20165,-7.49164],[110.20162,-7.49165],[110.20156,-7.49165],[110.20154,-7.49166],[110.20154,-7.49168],[110.20156,-7.4917],[110.20157,-7.49172],[110.20156,-7.49174],[110.20157,-7.49176],[110.20156,-7.49177],[110.20152,-7.49179],[110.20147,-7.49184],[110.20144,-7.49186],[110.2014,-7.49188],[110.20136,-7.49191],[110.20134,-7.49193],[110.20131,-7.49197],[110.20127,-7.492],[110.20123,-7.49204],[110.20113,-7.4921],[110.20107,-7.49213],[110.20104,-7.49214],[110.20103,-7.49215],[110.201,-7.49217],[110.20098,-7.4922],[110.20098,-7.49226],[110.20097,-7.4923],[110.20093,-7.49236],[110.2009,-7.49239],[110.20086,-7.49242],[110.20084,-7.49244],[110.2008,-7.4925],[110.20079,-7.49256],[110.2008,-7.49264],[110.2008,-7.49305],[110.20079,-7.4931],[110.20075,-7.49318],[110.20073,-7.49325],[110.20073,-7.49335],[110.20072,-7.4934],[110.20072,-7.4935],[110.20074,-7.49355],[110.20075,-7.49358],[110.20069,-7.49381],[110.20067,-7.49385],[110.20063,-7.49392],[110.20058,-7.49398],[110.20052,-7.49401],[110.20046,-7.49403],[110.20018,-7.49396],[110.20018,-7.49391],[110.20017,-7.49387],[110.20014,-7.49381],[110.20014,-7.49376],[110.20012,-7.49373],[110.20009,-7.4937],[110.20006,-7.49366],[110.20001,-7.49365],[110.19993,-7.49365],[110.19989,-7.49366],[110.19983,-7.49365],[110.19979,-7.49362],[110.19976,-7.49359],[110.19972,-7.49356],[110.1997,-7.49356],[110.19965,-7.49359],[110.19961,-7.49357],[110.19961,-7.49353],[110.19962,-7.49348],[110.1996,-7.49344],[110.19956,-7.49341],[110.19949,-7.49341],[110.19948,-7.49336],[110.19946,-7.49334],[110.19943,-7.49333],[110.19939,-7.4933],[110.1993,-7.4933],[110.19928,-7.49326],[110.19926,-7.49323],[110.19921,-7.4932],[110.19916,-7.49316],[110.19915,-7.49316],[110.19909,-7.49323],[110.19894,-7.49339],[110.19891,-7.49342],[110.19882,-7.49353],[110.19869,-7.49367],[110.19862,-7.49377],[110.19842,-7.49396],[110.19821,-7.49416],[110.19807,-7.49427],[110.1979,-7.49436],[110.19769,-7.49449],[110.19746,-7.49461],[110.19671,-7.495],[110.19669,-7.49501],[110.19656,-7.4951],[110.19644,-7.4952],[110.19643,-7.49521],[110.19637,-7.49526],[110.19634,-7.49531],[110.19633,-7.49535],[110.19632,-7.4954],[110.19632,-7.49547],[110.19637,-7.49562],[110.19646,-7.49581],[110.19666,-7.49622],[110.19674,-7.49642],[110.1969,-7.49695],[110.19691,-7.497],[110.19691,-7.49704],[110.1969,-7.49711],[110.19683,-7.49725],[110.19679,-7.49732],[110.19673,-7.49744],[110.19672,-7.49752],[110.19671,-7.49755],[110.19669,-7.49765],[110.19662,-7.49778],[110.19653,-7.49795],[110.19629,-7.49826],[110.1959,-7.49883],[110.1959,-7.49884],[110.19585,-7.4989],[110.19582,-7.49895],[110.19571,-7.4991],[110.19557,-7.49935],[110.19543,-7.49961],[110.19539,-7.49966],[110.19539,-7.49967],[110.1953,-7.49982],[110.19511,-7.50005],[110.19504,-7.50013],[110.19499,-7.50017],[110.19497,-7.50018],[110.19478,-7.50031],[110.19457,-7.50042],[110.19435,-7.50052],[110.19426,-7.50057],[110.19426,-7.50058],[110.19424,-7.50058],[110.19424,-7.50059],[110.19423,-7.50059],[110.19351,-7.50098],[110.19321,-7.50114],[110.19307,-7.50121],[110.19291,-7.5013],[110.19249,-7.50153],[110.19247,-7.50154],[110.19222,-7.50168],[110.19185,-7.50188],[110.19164,-7.502],[110.19152,-7.50208],[110.19142,-7.50216],[110.19134,-7.50227],[110.19129,-7.50234],[110.19124,-7.5025],[110.19123,-7.50259],[110.19123,-7.50262],[110.19108,-7.50283],[110.19098,-7.50294],[110.1909,-7.50302],[110.19042,-7.50368],[110.19033,-7.50382],[110.19025,-7.50393],[110.19025,-7.50394],[110.19016,-7.50402],[110.19004,-7.50413],[110.18986,-7.50426],[110.18975,-7.50437],[110.18964,-7.50446],[110.18961,-7.50448],[110.18941,-7.50464],[110.18936,-7.50467],[110.1893,-7.50475],[110.18929,-7.50479],[110.18929,-7.50483],[110.18938,-7.50495],[110.18938,-7.50496],[110.1894,-7.50499],[110.18945,-7.50507],[110.18951,-7.5052],[110.18955,-7.50532],[110.18959,-7.50551],[110.18962,-7.50571],[110.18962,-7.5058],[110.1896,-7.50594],[110.18958,-7.506],[110.18955,-7.50605],[110.18949,-7.50616],[110.18929,-7.50653],[110.18918,-7.50667],[110.18907,-7.50684],[110.18903,-7.50691],[110.18901,-7.50698],[110.18896,-7.5071],[110.18882,-7.50735],[110.18875,-7.50748],[110.18864,-7.50767],[110.1883,-7.50824],[110.18819,-7.50846],[110.18812,-7.50861],[110.18808,-7.50869],[110.188,-7.5088],[110.18798,-7.50888],[110.18799,-7.50899],[110.18802,-7.50912],[110.18808,-7.50926],[110.18815,-7.50943],[110.18844,-7.51001],[110.18878,-7.51072],[110.1888,-7.51077],[110.18888,-7.51094],[110.18895,-7.51116],[110.18904,-7.51141],[110.18904,-7.51142],[110.18913,-7.51168],[110.18922,-7.51192],[110.18928,-7.51211],[110.18954,-7.51268],[110.18963,-7.51284],[110.18972,-7.51298],[110.18982,-7.51316],[110.1899,-7.51326],[110.18998,-7.51344],[110.19005,-7.51356],[110.19005,-7.51357],[110.19006,-7.51358],[110.19012,-7.51368],[110.19013,-7.51376],[110.19015,-7.51384],[110.19013,-7.51392],[110.19007,-7.51401],[110.19001,-7.51408],[110.18993,-7.51415],[110.18991,-7.51416],[110.18989,-7.51418],[110.1898,-7.51424],[110.1896,-7.51444],[110.18958,-7.5145],[110.18957,-7.51459],[110.18957,-7.51467],[110.18958,-7.51484],[110.18958,-7.51506],[110.18955,-7.51528],[110.1895,-7.51553],[110.18946,-7.5157],[110.18945,-7.5157],[110.18929,-7.5162],[110.18904,-7.51691],[110.18899,-7.51705],[110.18893,-7.51725],[110.18893,-7.51726],[110.18891,-7.51732],[110.18883,-7.51753],[110.1888,-7.51762],[110.18876,-7.51772],[110.1887,-7.51783],[110.18868,-7.51793],[110.18866,-7.51801],[110.18863,-7.51806],[110.18859,-7.5181],[110.18854,-7.51812],[110.18848,-7.51814],[110.18834,-7.51813],[110.1882,-7.51813],[110.18811,-7.51814],[110.1881,-7.51814],[110.18735,-7.51821],[110.18715,-7.51824],[110.18694,-7.5183],[110.18679,-7.51836],[110.18675,-7.51838],[110.18654,-7.51847],[110.1865,-7.51849],[110.18634,-7.51858],[110.18619,-7.51869],[110.18608,-7.51878],[110.18602,-7.51886],[110.18599,-7.51893],[110.18597,-7.51898],[110.1859,-7.51915],[110.18597,-7.51925],[110.186,-7.51933],[110.18601,-7.51934],[110.18605,-7.51943],[110.18609,-7.51995],[110.18608,-7.52025],[110.18616,-7.52035],[110.18623,-7.52046],[110.18631,-7.52057],[110.18636,-7.52063],[110.1864,-7.52068],[110.18644,-7.52103],[110.18645,-7.52142],[110.1864,-7.52192],[110.18637,-7.52231],[110.18629,-7.52254],[110.18617,-7.52264],[110.18596,-7.52276],[110.18571,-7.52286],[110.18559,-7.52286],[110.18541,-7.52284],[110.18528,-7.52279],[110.18521,-7.52273],[110.18515,-7.52263],[110.18501,-7.52231],[110.18488,-7.52208],[110.18484,-7.52197],[110.18484,-7.52196],[110.1848,-7.52185],[110.18475,-7.52176],[110.18468,-7.52165],[110.18438,-7.52131],[110.18418,-7.52107],[110.18401,-7.52096],[110.18393,-7.5209],[110.18385,-7.52088],[110.18363,-7.52083],[110.18345,-7.52083],[110.18324,-7.52087],[110.18307,-7.52092],[110.18296,-7.521],[110.18273,-7.52124],[110.18263,-7.52144],[110.1826,-7.52157],[110.18259,-7.5217],[110.1826,-7.52195],[110.18264,-7.52207],[110.18269,-7.52218],[110.18276,-7.5223],[110.18288,-7.52245],[110.18306,-7.52258],[110.18319,-7.5227],[110.18331,-7.52282],[110.18345,-7.52291],[110.18363,-7.52302],[110.18372,-7.52313],[110.18398,-7.5234],[110.1841,-7.5236],[110.18416,-7.52373],[110.18419,-7.52394],[110.18418,-7.52415],[110.18415,-7.52438],[110.18411,-7.52458],[110.18412,-7.52471],[110.1841,-7.5248],[110.18407,-7.52486],[110.18398,-7.52499],[110.18392,-7.52504],[110.18388,-7.52511],[110.18384,-7.52517],[110.18371,-7.52531],[110.18354,-7.52551],[110.18345,-7.52562],[110.18339,-7.52567],[110.18335,-7.52568],[110.1833,-7.52567],[110.18324,-7.52565],[110.18319,-7.52563],[110.18309,-7.52558],[110.18302,-7.52558],[110.1829,-7.52554],[110.1827,-7.52549],[110.18265,-7.52548],[110.18257,-7.52547],[110.18245,-7.52546],[110.18228,-7.52546],[110.18184,-7.5255],[110.18167,-7.52553],[110.18148,-7.52559],[110.18122,-7.52571],[110.18102,-7.52581],[110.18088,-7.52598],[110.18076,-7.52615],[110.18072,-7.52621],[110.1804,-7.52679],[110.18026,-7.52714],[110.1802,-7.52743],[110.18015,-7.52772],[110.18015,-7.52801],[110.18012,-7.5283],[110.18012,-7.52839],[110.18015,-7.52864],[110.18015,-7.52869],[110.1802,-7.52912],[110.18028,-7.52952],[110.18039,-7.52997],[110.18068,-7.53081],[110.18093,-7.53141],[110.18102,-7.53169],[110.18113,-7.53191],[110.18116,-7.5321],[110.18114,-7.53221],[110.18112,-7.5323],[110.18112,-7.53232],[110.18109,-7.53241],[110.18104,-7.5325],[110.18099,-7.53257],[110.18095,-7.53263],[110.18089,-7.53269],[110.18076,-7.53275],[110.18044,-7.53291],[110.18042,-7.53291],[110.18013,-7.53297],[110.17996,-7.53302],[110.1797,-7.5331],[110.17952,-7.53317],[110.17934,-7.53322],[110.17923,-7.53329],[110.17911,-7.53337],[110.17901,-7.53348],[110.17884,-7.53359],[110.17862,-7.53365],[110.17847,-7.53369],[110.17827,-7.53372],[110.17807,-7.53378],[110.17793,-7.53383],[110.17781,-7.53389],[110.17775,-7.53398],[110.17768,-7.53416],[110.17766,-7.53424],[110.17765,-7.53435],[110.17764,-7.53448]]]}}]}