{"type":"FeatureCollection","features":[{"type":"Feature","properties":{"KECAMATAN":"Mungkid"},"geometry":{"type":"Polygon","coordinates":[[[110.21607,-7.58732],[110.21619,-7.58753],[110.21627,-7.58769],[110.2165,-7.58811],[110.21655,-7.58836],[110.21655,-7.58838],[110.21651,-7.58879],[110.2165,-7.58882],[110.21641,-7.5892],[110.21634,-7.58955],[110.21627,-7.58989],[110.21636,-7.59006],[110.21638,-7.5901],[110.21649,-7.59026],[110.21657,-7.59037],[110.21682,-7.59073],[110.21684,-7.59076],[110.21692,-7.59095],[110.21699,-7.59112],[110.21707,-7.59115],[110.2172,-7.59119],[110.21725,-7.59123],[110.21724,-7.59135],[110.21714,-7.5917],[110.21707,-7.59181],[110.21689,-7.59207],[110.21687,-7.59218],[110.21692,-7.59244],[110.21703,-7.5926],[110.21716,-7.59273],[110.21722,-7.59286],[110.21733,-7.59315],[110.21745,-7.59349],[110.21747,-7.59353],[110.21762,-7.59404],[110.21772,-7.59451],[110.21772,-7.59452],[110.21771,-7.59461],[110.21771,-7.59472],[110.2177,-7.59483],[110.21763,-7.5954],[110.2175,-7.59639],[110.21746,-7.59668],[110.21744,-7.59683],[110.21744,-7.59685],[110.2175,-7.59705],[110.21767,-7.59731],[110.21781,-7.59743],[110.21762,-7.59811],[110.21746,-7.59864],[110.21741,-7.59881],[110.21727,-7.59905],[110.21722,-7.59916],[110.21717,-7.59929],[110.21705,-7.59941],[110.21696,-7.59955],[110.21696,-7.59964],[110.21701,-7.59974],[110.21706,-7.59979],[110.21707,-7.59987],[110.21708,-7.59996],[110.21707,-7.60005],[110.21705,-7.60007],[110.2166,-7.60084],[110.21666,-7.60088],[110.21676,-7.60091],[110.2169,-7.60096],[110.21737,-7.60111],[110.21756,-7.60116],[110.21765,-7.60117],[110.21782,-7.6012],[110.21816,-7.60119],[110.21821,-7.6012],[110.21843,-7.60121],[110.21875,-7.60125],[110.2191,-7.60128],[110.21927,-7.60136],[110.21943,-7.60147],[110.21965,-7.60162],[110.21992,-7.60178],[110.21993,-7.60178],[110.22017,-7.60194],[110.2204,-7.60215],[110.22049,-7.60221],[110.22071,-7.60238],[110.22103,-7.60256],[110.22122,-7.60263],[110.22137,-7.60266],[110.22157,-7.60267],[110.22161,-7.60267],[110.22172,-7.60268],[110.22176,-7.60269],[110.22178,-7.6027],[110.22189,-7.60277],[110.2221,-7.60286],[110.22214,-7.60288],[110.22225,-7.60298],[110.22227,-7.60299],[110.22252,-7.6033],[110.22269,-7.60361],[110.22272,-7.60378],[110.22271,-7.60396],[110.22266,-7.60403],[110.22245,-7.60405],[110.22226,-7.60411],[110.22197,-7.60423],[110.22159,-7.60435],[110.22126,-7.60448],[110.22099,-7.60466],[110.22074,-7.60491],[110.2207,-7.60514],[110.2207,-7.60535],[110.22061,-7.60582],[110.22061,-7.60638],[110.22066,-7.60677],[110.22074,-7.60701],[110.22086,-7.6072],[110.2211,-7.60736],[110.22119,-7.60739],[110.22147,-7.60749],[110.22185,-7.60756],[110.22189,-7.60757],[110.22215,-7.6077],[110.22236,-7.60783],[110.2226,-7.60806],[110.22284,-7.60826],[110.22286,-7.60828],[110.22299,-7.60837],[110.22318,-7.60836],[110.22327,-7.60832],[110.22349,-7.60799],[110.22366,-7.60777],[110.22384,-7.60749],[110.22395,-7.60739],[110.22407,-7.60729],[110.22426,-7.6071],[110.22441,-7.60701],[110.22454,-7.60702],[110.22466,-7.60712],[110.22481,-7.60731],[110.22489,-7.6074],[110.22516,-7.60768],[110.22531,-7.60786],[110.22538,-7.60806],[110.22545,-7.60839],[110.22546,-7.60843],[110.22555,-7.60889],[110.22554,-7.6092],[110.22548,-7.6094],[110.22531,-7.60963],[110.22508,-7.60991],[110.22495,-7.61015],[110.22495,-7.61039],[110.22496,-7.61056],[110.22496,-7.61072],[110.22509,-7.6114],[110.22521,-7.61172],[110.22551,-7.61212],[110.22559,-7.61221],[110.2257,-7.61235],[110.22593,-7.61247],[110.22617,-7.61256],[110.22653,-7.61259],[110.22679,-7.61257],[110.22689,-7.61256],[110.22705,-7.61253],[110.2273,-7.61245],[110.22756,-7.61231],[110.22776,-7.61219],[110.22785,-7.61224],[110.228,-7.61231],[110.22814,-7.61242],[110.22835,-7.61255],[110.22863,-7.61279],[110.22888,-7.61301],[110.22911,-7.61333],[110.22926,-7.61351],[110.22943,-7.61362],[110.22958,-7.61367],[110.22982,-7.61369],[110.2301,-7.6137],[110.23024,-7.61376],[110.23046,-7.6139],[110.2307,-7.61412],[110.23106,-7.61461],[110.23123,-7.61492],[110.23148,-7.61541],[110.23157,-7.61574],[110.23166,-7.61608],[110.23183,-7.61652],[110.23186,-7.61657],[110.23196,-7.61672],[110.23199,-7.61686],[110.23199,-7.61704],[110.23193,-7.61723],[110.23181,-7.6174],[110.23155,-7.61807],[110.23135,-7.61862],[110.23125,-7.61899],[110.23119,-7.61925],[110.23108,-7.61958],[110.23098,-7.61985],[110.23086,-7.62024],[110.23067,-7.62072],[110.2304,-7.62125],[110.23029,-7.62153],[110.23024,-7.62171],[110.23015,-7.62196],[110.23011,-7.62217],[110.23007,-7.62235],[110.23011,-7.62274],[110.23033,-7.62309],[110.23067,-7.62343],[110.23092,-7.62358],[110.23136,-7.62369],[110.23164,-7.62373],[110.23184,-7.6237],[110.23209,-7.62362],[110.23236,-7.62357],[110.23274,-7.62342],[110.23334,-7.62289],[110.23372,-7.62261],[110.23402,-7.62236],[110.23429,-7.62224],[110.23456,-7.62218],[110.23491,-7.62219],[110.23513,-7.62222],[110.23537,-7.62238],[110.23568,-7.62271],[110.23594,-7.62296],[110.23618,-7.62331],[110.23623,-7.6238],[110.2363,-7.62409],[110.23632,-7.62439],[110.2363,-7.62453],[110.23621,-7.62466],[110.23601,-7.62478],[110.23585,-7.62494],[110.23571,-7.62505],[110.23542,-7.62516],[110.23507,-7.62524],[110.23474,-7.62535],[110.23435,-7.62557],[110.23397,-7.62579],[110.23331,-7.62613],[110.23291,-7.62632],[110.2327,-7.62643],[110.23254,-7.6266],[110.23243,-7.62693],[110.23239,-7.62703],[110.23235,-7.62719],[110.23235,-7.62735],[110.23239,-7.62756],[110.23241,-7.62764],[110.23253,-7.62791],[110.23261,-7.62803],[110.23278,-7.62821],[110.23298,-7.62831],[110.23308,-7.62831],[110.23326,-7.62832],[110.23382,-7.62835],[110.23418,-7.62839],[110.23467,-7.62841],[110.23503,-7.62843],[110.23523,-7.62849],[110.23553,-7.62849],[110.23584,-7.62846],[110.2361,-7.62843],[110.23668,-7.6285],[110.237,-7.62855],[110.23721,-7.62865],[110.23745,-7.62884],[110.23755,-7.62836],[110.23792,-7.62802],[110.23815,-7.62772],[110.2385,-7.62739],[110.23879,-7.62715],[110.23901,-7.62701],[110.23918,-7.62695],[110.23945,-7.62677],[110.2395,-7.62663],[110.23958,-7.62642],[110.2396,-7.62638],[110.23968,-7.62593],[110.2397,-7.62586],[110.2397,-7.62585],[110.23968,-7.62561],[110.23963,-7.62518],[110.23956,-7.62482],[110.23955,-7.6248],[110.23933,-7.62417],[110.23907,-7.6237],[110.23885,-7.62309],[110.23884,-7.62289],[110.23883,-7.62244],[110.23887,-7.6223],[110.23898,-7.62186],[110.23919,-7.6213],[110.23925,-7.62112],[110.2393,-7.62093],[110.23943,-7.62049],[110.23947,-7.62038],[110.2396,-7.61967],[110.23959,-7.61944],[110.23957,-7.61886],[110.23949,-7.6186],[110.23936,-7.6184],[110.23931,-7.61816],[110.23925,-7.61798],[110.23925,-7.61792],[110.23928,-7.6179],[110.23935,-7.61784],[110.23939,-7.6178],[110.2394,-7.61777],[110.23939,-7.61774],[110.23938,-7.6177],[110.23931,-7.6176],[110.23928,-7.61755],[110.23926,-7.61753],[110.23923,-7.61749],[110.23921,-7.61744],[110.2392,-7.61741],[110.23921,-7.61738],[110.23921,-7.61736],[110.23925,-7.61727],[110.23926,-7.61719],[110.23928,-7.61711],[110.23937,-7.61705],[110.23945,-7.61695],[110.23944,-7.6169],[110.23876,-7.61734],[110.23866,-7.61741],[110.23857,-7.61719],[110.23846,-7.61685],[110.23838,-7.61661],[110.23832,-7.61645],[110.23838,-7.61629],[110.23841,-7.61612],[110.23838,-7.61598],[110.23823,-7.61589],[110.23811,-7.61592],[110.23809,-7.61588],[110.23798,-7.61571],[110.23783,-7.61555],[110.23757,-7.61526],[110.23724,-7.6149],[110.23722,-7.61487],[110.23703,-7.61464],[110.23696,-7.61443],[110.23692,-7.61427],[110.23692,-7.61425],[110.23688,-7.614],[110.23685,-7.61388],[110.23682,-7.61365],[110.23683,-7.61343],[110.23683,-7.61316],[110.23681,-7.61291],[110.23678,-7.61266],[110.23674,-7.61241],[110.23671,-7.61224],[110.23671,-7.61201],[110.23672,-7.61182],[110.23674,-7.61172],[110.23676,-7.61152],[110.23691,-7.61142],[110.23694,-7.61127],[110.23692,-7.61117],[110.23682,-7.61108],[110.23668,-7.61104],[110.23664,-7.6109],[110.23658,-7.61072],[110.23655,-7.61057],[110.23654,-7.61049],[110.23653,-7.61045],[110.23652,-7.61037],[110.23653,-7.61019],[110.23654,-7.61012],[110.23654,-7.61003],[110.23655,-7.61],[110.23662,-7.60985],[110.23664,-7.60984],[110.2367,-7.60975],[110.23674,-7.6097],[110.23679,-7.60966],[110.23687,-7.60962],[110.23738,-7.60941],[110.23759,-7.6093],[110.23774,-7.60917],[110.23786,-7.60903],[110.23802,-7.60866],[110.23833,-7.60827],[110.2384,-7.60808],[110.2384,-7.60805],[110.23841,-7.60784],[110.23844,-7.60767],[110.23849,-7.60757],[110.23853,-7.60748],[110.23863,-7.60739],[110.2388,-7.60729],[110.23896,-7.60722],[110.23938,-7.60704],[110.23962,-7.60693],[110.23986,-7.60684],[110.23993,-7.60683],[110.24005,-7.6068],[110.24021,-7.60674],[110.24027,-7.60663],[110.24033,-7.60639],[110.24035,-7.60629],[110.24037,-7.60617],[110.24035,-7.606],[110.24036,-7.60589],[110.24042,-7.60569],[110.2405,-7.60551],[110.24055,-7.60542],[110.24059,-7.60533],[110.24063,-7.60523],[110.24069,-7.60511],[110.24069,-7.60495],[110.2407,-7.60488],[110.2407,-7.60487],[110.24077,-7.60474],[110.24096,-7.60459],[110.24099,-7.60455],[110.241,-7.60455],[110.24109,-7.60448],[110.24117,-7.60441],[110.24123,-7.60436],[110.24136,-7.60424],[110.24166,-7.60389],[110.24182,-7.60374],[110.24197,-7.60358],[110.24213,-7.60337],[110.24235,-7.60311],[110.24248,-7.60298],[110.2426,-7.60289],[110.24268,-7.60282],[110.24277,-7.60272],[110.24278,-7.60269],[110.24279,-7.60265],[110.2428,-7.6026],[110.24282,-7.60252],[110.24284,-7.60243],[110.24288,-7.60238],[110.24293,-7.60234],[110.243,-7.6023],[110.24308,-7.60227],[110.24315,-7.60228],[110.24326,-7.60229],[110.24334,-7.60229],[110.24344,-7.60226],[110.24355,-7.60221],[110.24372,-7.60212],[110.24387,-7.60201],[110.24399,-7.60193],[110.24408,-7.60156],[110.24408,-7.60148],[110.24412,-7.60136],[110.24427,-7.60113],[110.24408,-7.60114],[110.24406,-7.60087],[110.24405,-7.60073],[110.24403,-7.6005],[110.24406,-7.60024],[110.24418,-7.6003],[110.24431,-7.60035],[110.24431,-7.60044],[110.24436,-7.60049],[110.2444,-7.60052],[110.2447,-7.60019],[110.24481,-7.6003],[110.24495,-7.6004],[110.24518,-7.60027],[110.24521,-7.59997],[110.24529,-7.59988],[110.24538,-7.59973],[110.24553,-7.59957],[110.24573,-7.59964],[110.24577,-7.59958],[110.24595,-7.59922],[110.24596,-7.59919],[110.24604,-7.59905],[110.24605,-7.59901],[110.24606,-7.59886],[110.24605,-7.59872],[110.24603,-7.59842],[110.24604,-7.59826],[110.2461,-7.59806],[110.24629,-7.59782],[110.24634,-7.59776],[110.24642,-7.59754],[110.24659,-7.59698],[110.24664,-7.59666],[110.24674,-7.59625],[110.24676,-7.59619],[110.24688,-7.59578],[110.24693,-7.59569],[110.24698,-7.59561],[110.24701,-7.59557],[110.24706,-7.5955],[110.24721,-7.59532],[110.24736,-7.59512],[110.2476,-7.59486],[110.24763,-7.59483],[110.24769,-7.59472],[110.24771,-7.59462],[110.24774,-7.5945],[110.24779,-7.5942],[110.2479,-7.59403],[110.24807,-7.59386],[110.2482,-7.59381],[110.24834,-7.59378],[110.2485,-7.59371],[110.24857,-7.59366],[110.24868,-7.59358],[110.24875,-7.59345],[110.24885,-7.59277],[110.24884,-7.59257],[110.24884,-7.5925],[110.24887,-7.59234],[110.24889,-7.59224],[110.24876,-7.59204],[110.24876,-7.59203],[110.2487,-7.59186],[110.2487,-7.59184],[110.24872,-7.59168],[110.24878,-7.59155],[110.24887,-7.59147],[110.24907,-7.5914],[110.24913,-7.59144],[110.24924,-7.5915],[110.24931,-7.59142],[110.24942,-7.5913],[110.24964,-7.59108],[110.2498,-7.591],[110.24986,-7.59098],[110.25005,-7.59092],[110.25016,-7.59089],[110.25043,-7.59082],[110.25079,-7.59075],[110.25076,-7.59071],[110.25075,-7.59058],[110.25075,-7.59041],[110.25077,-7.59029],[110.25083,-7.59015],[110.25085,-7.59011],[110.25093,-7.59003],[110.25126,-7.58978],[110.2514,-7.58965],[110.25153,-7.58955],[110.25165,-7.58941],[110.25181,-7.58919],[110.25185,-7.58924],[110.25192,-7.58932],[110.25199,-7.58929],[110.2521,-7.58922],[110.25228,-7.58909],[110.25244,-7.58882],[110.25251,-7.5887],[110.25277,-7.58851],[110.25307,-7.58829],[110.25314,-7.58824],[110.25332,-7.58811],[110.25351,-7.58799],[110.2539,-7.58768],[110.25384,-7.58756],[110.25399,-7.58742],[110.25415,-7.58721],[110.25435,-7.58694],[110.2546,-7.5867],[110.25474,-7.58668],[110.25481,-7.58668],[110.25488,-7.58669],[110.25495,-7.58646],[110.25501,-7.58623],[110.25512,-7.58604],[110.25519,-7.58592],[110.25523,-7.58587],[110.25537,-7.58575],[110.2554,-7.58572],[110.2556,-7.58556],[110.25562,-7.58554],[110.2558,-7.5854],[110.25592,-7.58528],[110.25602,-7.58517],[110.25606,-7.58511],[110.25613,-7.58497],[110.25613,-7.58496],[110.25618,-7.58475],[110.25618,-7.58472],[110.25619,-7.58457],[110.2562,-7.58448],[110.2562,-7.58437],[110.25623,-7.58419],[110.25627,-7.58409],[110.25629,-7.58405],[110.2563,-7.58404],[110.25639,-7.58394],[110.25652,-7.58375],[110.25668,-7.58362],[110.25688,-7.58354],[110.25718,-7.58336],[110.25727,-7.58331],[110.25753,-7.5831],[110.25778,-7.58288],[110.258,-7.5827],[110.25829,-7.58244],[110.25846,-7.58217],[110.25864,-7.58176],[110.25882,-7.58154],[110.25884,-7.58151],[110.2589,-7.58144],[110.25917,-7.58119],[110.25961,-7.5809],[110.25972,-7.58084],[110.25973,-7.58084],[110.26001,-7.58067],[110.2601,-7.58059],[110.26042,-7.58026],[110.26065,-7.57998],[110.26106,-7.57951],[110.26125,-7.57938],[110.26139,-7.57932],[110.26168,-7.57916],[110.26183,-7.57898],[110.26197,-7.57883],[110.26208,-7.57869],[110.26234,-7.57845],[110.26236,-7.57844],[110.26292,-7.57798],[110.26324,-7.57773],[110.26349,-7.57754],[110.26378,-7.57738],[110.26389,-7.57731],[110.26403,-7.57718],[110.26428,-7.57699],[110.26424,-7.57685],[110.26435,-7.57675],[110.26437,-7.57674],[110.26467,-7.5765],[110.26508,-7.57614],[110.26533,-7.57597],[110.26562,-7.57577],[110.26564,-7.57576],[110.26571,-7.57572],[110.26624,-7.57545],[110.26626,-7.57544],[110.26644,-7.57529],[110.26696,-7.57494],[110.26718,-7.57474],[110.26736,-7.57464],[110.26743,-7.57463],[110.26751,-7.57462],[110.26777,-7.57463],[110.26784,-7.57463],[110.26811,-7.57471],[110.26843,-7.5748],[110.26846,-7.57481],[110.26869,-7.57487],[110.26883,-7.57483],[110.26897,-7.57477],[110.26907,-7.57458],[110.26908,-7.57449],[110.26908,-7.57448],[110.26914,-7.57435],[110.26915,-7.57433],[110.26917,-7.57417],[110.26924,-7.57371],[110.26945,-7.57327],[110.26962,-7.57309],[110.26965,-7.57307],[110.26973,-7.57301],[110.27012,-7.57269],[110.27044,-7.57251],[110.27086,-7.5722],[110.27093,-7.57215],[110.271,-7.57209],[110.27101,-7.57208],[110.27149,-7.57171],[110.2716,-7.57162],[110.27168,-7.57149],[110.27192,-7.57111],[110.27199,-7.57095],[110.27206,-7.57078],[110.27216,-7.57064],[110.27223,-7.57054],[110.27238,-7.57035],[110.27242,-7.57029],[110.27267,-7.57007],[110.27287,-7.56995],[110.27324,-7.56965],[110.27328,-7.5696],[110.27329,-7.56959],[110.27339,-7.56944],[110.27347,-7.56917],[110.27348,-7.56911],[110.27349,-7.56908],[110.27361,-7.56876],[110.27362,-7.56871],[110.27379,-7.56831],[110.27398,-7.56804],[110.27411,-7.56783],[110.27433,-7.56758],[110.27452,-7.5674],[110.27453,-7.56739],[110.27489,-7.56697],[110.2751,-7.56667],[110.2753,-7.56643],[110.27531,-7.56642],[110.27532,-7.5664],[110.27543,-7.56612],[110.27566,-7.56578],[110.27594,-7.56554],[110.27645,-7.56529],[110.27659,-7.56524],[110.27684,-7.56512],[110.27697,-7.56507],[110.27722,-7.56496],[110.27726,-7.56494],[110.2777,-7.5648],[110.27779,-7.56477],[110.27784,-7.56476],[110.27812,-7.56468],[110.27813,-7.56468],[110.27821,-7.56467],[110.27824,-7.56466],[110.27888,-7.56459],[110.27899,-7.56458],[110.27926,-7.56458],[110.27935,-7.56457],[110.27972,-7.56451],[110.27989,-7.56436],[110.27996,-7.56423],[110.27997,-7.56418],[110.27999,-7.56393],[110.27999,-7.56392],[110.27991,-7.56358],[110.27985,-7.56331],[110.27977,-7.56326],[110.27952,-7.56328],[110.27937,-7.56318],[110.27918,-7.56299],[110.27893,-7.56278],[110.27869,-7.5627],[110.2788,-7.56259],[110.27895,-7.56251],[110.27904,-7.5625],[110.27926,-7.56245],[110.27925,-7.56227],[110.27923,-7.56204],[110.2793,-7.5619],[110.27944,-7.56179],[110.27929,-7.56172],[110.27911,-7.56167],[110.27897,-7.56166],[110.27876,-7.56158],[110.2788,-7.56144],[110.27885,-7.56124],[110.2786,-7.5613],[110.27839,-7.56133],[110.27829,-7.56133],[110.27822,-7.56124],[110.27826,-7.56109],[110.27812,-7.56109],[110.27788,-7.56073],[110.27781,-7.56076],[110.27768,-7.56051],[110.27752,-7.5602],[110.27744,-7.55999],[110.27744,-7.5598],[110.27741,-7.55981],[110.27738,-7.55973],[110.27728,-7.55948],[110.2772,-7.55934],[110.27711,-7.55942],[110.2769,-7.55914],[110.27685,-7.55906],[110.27706,-7.55892],[110.2773,-7.55882],[110.27741,-7.55876],[110.27746,-7.5587],[110.27742,-7.55863],[110.27741,-7.55862],[110.27759,-7.55846],[110.27741,-7.55839],[110.27726,-7.55834],[110.27734,-7.55816],[110.27744,-7.55813],[110.2775,-7.5581],[110.27752,-7.55808],[110.27753,-7.55806],[110.27754,-7.55805],[110.27757,-7.55805],[110.2776,-7.55803],[110.27768,-7.55799],[110.2778,-7.55791],[110.27792,-7.55785],[110.27798,-7.55779],[110.27799,-7.55777],[110.27807,-7.55767],[110.27813,-7.5576],[110.27819,-7.55756],[110.27826,-7.55752],[110.27833,-7.5575],[110.27857,-7.5575],[110.27896,-7.55749],[110.27907,-7.55748],[110.27912,-7.55747],[110.27922,-7.55742],[110.27952,-7.55728],[110.2797,-7.55722],[110.2799,-7.55716],[110.27998,-7.55713],[110.28007,-7.55709],[110.28042,-7.55693],[110.28079,-7.55678],[110.28094,-7.55672],[110.281,-7.55669],[110.28104,-7.55665],[110.28111,-7.5566],[110.28129,-7.55648],[110.2815,-7.55638],[110.28176,-7.55625],[110.28208,-7.55612],[110.28202,-7.55605],[110.28195,-7.55593],[110.282,-7.55573],[110.28186,-7.55562],[110.28174,-7.55553],[110.28178,-7.55528],[110.28207,-7.55528],[110.28225,-7.55515],[110.28243,-7.55497],[110.28256,-7.55481],[110.28258,-7.55476],[110.28259,-7.55472],[110.28269,-7.5546],[110.28277,-7.55439],[110.28264,-7.55412],[110.28266,-7.55394],[110.28261,-7.55368],[110.28264,-7.55356],[110.28253,-7.55333],[110.28235,-7.55303],[110.28226,-7.55282],[110.28228,-7.55264],[110.2821,-7.55248],[110.28174,-7.55239],[110.28159,-7.55241],[110.28151,-7.55231],[110.28167,-7.5523],[110.28182,-7.55227],[110.28178,-7.55219],[110.28158,-7.5522],[110.28143,-7.55218],[110.28132,-7.5521],[110.28127,-7.55196],[110.28118,-7.5518],[110.28113,-7.5516],[110.2811,-7.55149],[110.28143,-7.55144],[110.28175,-7.55132],[110.28192,-7.55118],[110.28221,-7.55104],[110.28234,-7.55092],[110.2823,-7.55078],[110.28211,-7.55076],[110.28188,-7.55071],[110.28159,-7.55073],[110.28136,-7.55087],[110.28121,-7.55103],[110.28106,-7.55114],[110.28095,-7.55104],[110.28087,-7.55096],[110.28077,-7.55093],[110.28063,-7.55084],[110.2805,-7.55079],[110.2804,-7.55076],[110.28039,-7.55067],[110.28042,-7.55056],[110.28026,-7.55044],[110.2801,-7.55035],[110.28001,-7.55031],[110.27991,-7.55034],[110.27984,-7.55037],[110.27971,-7.55043],[110.27959,-7.55038],[110.27955,-7.55035],[110.27953,-7.55027],[110.27957,-7.55004],[110.27957,-7.54987],[110.27953,-7.54979],[110.27948,-7.54972],[110.27948,-7.54961],[110.27949,-7.54943],[110.27948,-7.5492],[110.27948,-7.54917],[110.27947,-7.54897],[110.27944,-7.54888],[110.27942,-7.54876],[110.27942,-7.54864],[110.27941,-7.54853],[110.27935,-7.54849],[110.27929,-7.54841],[110.27928,-7.54841],[110.27924,-7.54839],[110.27908,-7.54838],[110.27898,-7.54838],[110.27887,-7.54835],[110.27883,-7.54837],[110.2788,-7.54843],[110.27871,-7.54843],[110.27862,-7.54846],[110.27849,-7.54849],[110.2784,-7.54839],[110.27837,-7.5485],[110.2783,-7.54851],[110.27816,-7.54854],[110.27798,-7.54854],[110.27788,-7.54853],[110.27782,-7.54851],[110.2778,-7.54848],[110.27776,-7.54839],[110.27767,-7.54819],[110.27763,-7.54808],[110.27762,-7.54803],[110.27762,-7.54797],[110.27763,-7.54794],[110.27765,-7.54792],[110.2777,-7.54788],[110.27773,-7.54785],[110.27776,-7.54783],[110.27799,-7.5478],[110.27821,-7.54774],[110.27852,-7.54765],[110.27866,-7.54761],[110.27892,-7.54756],[110.27892,-7.54753],[110.27888,-7.54738],[110.27893,-7.54724],[110.279,-7.54714],[110.27904,-7.54703],[110.27909,-7.54685],[110.27912,-7.54673],[110.2791,-7.54661],[110.27905,-7.54642],[110.27903,-7.54622],[110.27892,-7.54605],[110.27905,-7.54587],[110.2791,-7.54576],[110.27889,-7.54588],[110.27872,-7.54604],[110.27869,-7.54596],[110.27854,-7.54564],[110.27846,-7.54542],[110.27837,-7.54542],[110.27834,-7.5454],[110.27829,-7.54515],[110.27828,-7.54492],[110.27836,-7.54483],[110.27829,-7.54452],[110.27825,-7.54445],[110.27807,-7.5445],[110.27789,-7.5447],[110.27767,-7.54476],[110.27745,-7.54473],[110.27733,-7.54461],[110.27727,-7.5445],[110.27721,-7.54438],[110.27711,-7.54413],[110.27707,-7.54402],[110.27706,-7.54382],[110.277,-7.54373],[110.27696,-7.54368],[110.27683,-7.54358],[110.27669,-7.54349],[110.27631,-7.54327],[110.27603,-7.54316],[110.27586,-7.54314],[110.27562,-7.54318],[110.27542,-7.5434],[110.27523,-7.54349],[110.27505,-7.54357],[110.2749,-7.54356],[110.27464,-7.54356],[110.27439,-7.54347],[110.27424,-7.54345],[110.27411,-7.54348],[110.27386,-7.54348],[110.27371,-7.54309],[110.27359,-7.54281],[110.27357,-7.54269],[110.27349,-7.54256],[110.27348,-7.54255],[110.2732,-7.54282],[110.27304,-7.54301],[110.2729,-7.54314],[110.27289,-7.54312],[110.27286,-7.54309],[110.27283,-7.54307],[110.27279,-7.54304],[110.27275,-7.54302],[110.27269,-7.54301],[110.27255,-7.54301],[110.27246,-7.54302],[110.27236,-7.54304],[110.27225,-7.54303],[110.27217,-7.54303],[110.2721,-7.54301],[110.27204,-7.54299],[110.272,-7.54295],[110.27199,-7.54293],[110.27198,-7.5429],[110.27198,-7.54287],[110.27199,-7.54284],[110.27201,-7.54281],[110.27208,-7.54271],[110.27213,-7.54262],[110.27216,-7.54257],[110.27218,-7.54248],[110.27226,-7.5422],[110.27231,-7.54204],[110.27234,-7.54199],[110.27238,-7.54196],[110.27241,-7.54194],[110.27246,-7.54193],[110.27251,-7.54193],[110.27257,-7.54195],[110.2727,-7.54199],[110.27279,-7.542],[110.27287,-7.54201],[110.27295,-7.542],[110.273,-7.54198],[110.27304,-7.54196],[110.27307,-7.54193],[110.27309,-7.5419],[110.27312,-7.54186],[110.27318,-7.54173],[110.27336,-7.5414],[110.27343,-7.54131],[110.27351,-7.54122],[110.27369,-7.54108],[110.27398,-7.5409],[110.27413,-7.5408],[110.2742,-7.54074],[110.27424,-7.54068],[110.27429,-7.54058],[110.27433,-7.54049],[110.27437,-7.54035],[110.2744,-7.5402],[110.27441,-7.54007],[110.27442,-7.53992],[110.27444,-7.53975],[110.27449,-7.53957],[110.27455,-7.53939],[110.27464,-7.53922],[110.27477,-7.53902],[110.27489,-7.53885],[110.27496,-7.53879],[110.27501,-7.53876],[110.27506,-7.53874],[110.2751,-7.53873],[110.27517,-7.53873],[110.27522,-7.53874],[110.27526,-7.53877],[110.27529,-7.53879],[110.27531,-7.53882],[110.27534,-7.53886],[110.27538,-7.53899],[110.27544,-7.53922],[110.27548,-7.53937],[110.27552,-7.53943],[110.27557,-7.53948],[110.2756,-7.5395],[110.27568,-7.53952],[110.27572,-7.53951],[110.27582,-7.5395],[110.27597,-7.53943],[110.27607,-7.53935],[110.27623,-7.53919],[110.27642,-7.53898],[110.27654,-7.53879],[110.2766,-7.53865],[110.27665,-7.53854],[110.27668,-7.5385],[110.27672,-7.53847],[110.27677,-7.53845],[110.27681,-7.53843],[110.2769,-7.53842],[110.27711,-7.5384],[110.27719,-7.5384],[110.27725,-7.53841],[110.27728,-7.53842],[110.27734,-7.53843],[110.27737,-7.53845],[110.27739,-7.53846],[110.27743,-7.53854],[110.27744,-7.53858],[110.27745,-7.53863],[110.27744,-7.53872],[110.27745,-7.53887],[110.27745,-7.53911],[110.27746,-7.53928],[110.27747,-7.53934],[110.27749,-7.53939],[110.27752,-7.53945],[110.27755,-7.53949],[110.27758,-7.53952],[110.27766,-7.53956],[110.27773,-7.53958],[110.27779,-7.5396],[110.27786,-7.5396],[110.27791,-7.53959],[110.27795,-7.53958],[110.27799,-7.53952],[110.27802,-7.53944],[110.27803,-7.53938],[110.27803,-7.53931],[110.27802,-7.53927],[110.27801,-7.53925],[110.278,-7.53922],[110.27798,-7.53919],[110.27794,-7.53915],[110.27792,-7.53912],[110.2779,-7.53907],[110.27789,-7.53904],[110.27789,-7.53902],[110.2779,-7.53899],[110.27791,-7.53897],[110.27795,-7.53893],[110.27798,-7.53892],[110.27802,-7.53889],[110.27806,-7.53889],[110.27811,-7.53888],[110.27823,-7.53888],[110.27829,-7.53889],[110.27834,-7.53891],[110.27842,-7.53894],[110.27848,-7.53899],[110.27854,-7.53901],[110.27857,-7.53901],[110.27862,-7.539],[110.27869,-7.53897],[110.27888,-7.53887],[110.27906,-7.53877],[110.27915,-7.53873],[110.2792,-7.53872],[110.27921,-7.53869],[110.2793,-7.53867],[110.27941,-7.53866],[110.27952,-7.53869],[110.27968,-7.53877],[110.27977,-7.53884],[110.27986,-7.53874],[110.27988,-7.53862],[110.27987,-7.53856],[110.27962,-7.53838],[110.27951,-7.53813],[110.27937,-7.53774],[110.27961,-7.53752],[110.2794,-7.53754],[110.27937,-7.53741],[110.27931,-7.53738],[110.27951,-7.53705],[110.27965,-7.53703],[110.28019,-7.53692],[110.28036,-7.53681],[110.28045,-7.53675],[110.28049,-7.53663],[110.28052,-7.53657],[110.28057,-7.53649],[110.28061,-7.53645],[110.28068,-7.5364],[110.28077,-7.53635],[110.28084,-7.53632],[110.28095,-7.53629],[110.28104,-7.53629],[110.28101,-7.53613],[110.28128,-7.53605],[110.28158,-7.53599],[110.28159,-7.53592],[110.28143,-7.53593],[110.28125,-7.53597],[110.28104,-7.53603],[110.28077,-7.53612],[110.28052,-7.53623],[110.28031,-7.53638],[110.28013,-7.53651],[110.28007,-7.53655],[110.27997,-7.5366],[110.27966,-7.5366],[110.27931,-7.53661],[110.27908,-7.5366],[110.27895,-7.53653],[110.27887,-7.53647],[110.27884,-7.5364],[110.27881,-7.5363],[110.27875,-7.53614],[110.27868,-7.53599],[110.27862,-7.53586],[110.27851,-7.5357],[110.27838,-7.53555],[110.27821,-7.53534],[110.27835,-7.53524],[110.27849,-7.53513],[110.27857,-7.53504],[110.27861,-7.53497],[110.27861,-7.53488],[110.27859,-7.53484],[110.27856,-7.5348],[110.27852,-7.53473],[110.27847,-7.53463],[110.27848,-7.53459],[110.2785,-7.53454],[110.27855,-7.53449],[110.27859,-7.53444],[110.27862,-7.53437],[110.27864,-7.53434],[110.27868,-7.5343],[110.27869,-7.53428],[110.27863,-7.53423],[110.27862,-7.53421],[110.2784,-7.53403],[110.27826,-7.53389],[110.2781,-7.53374],[110.27808,-7.53369],[110.278,-7.53362],[110.27793,-7.53356],[110.27783,-7.53352],[110.27776,-7.53351],[110.27768,-7.53352],[110.27767,-7.5335],[110.27765,-7.53345],[110.27761,-7.53341],[110.27754,-7.53333],[110.27742,-7.53327],[110.27734,-7.53324],[110.27722,-7.53321],[110.27713,-7.53323],[110.27706,-7.53321],[110.27701,-7.5332],[110.27691,-7.53317],[110.2765,-7.53311],[110.27627,-7.53303],[110.27606,-7.53294],[110.27601,-7.53301],[110.27598,-7.53315],[110.27597,-7.53328],[110.27594,-7.53338],[110.27584,-7.53356],[110.2758,-7.53374],[110.27576,-7.5338],[110.27572,-7.53388],[110.27568,-7.53397],[110.27566,-7.53406],[110.27564,-7.53412],[110.27557,-7.53426],[110.27552,-7.53433],[110.27546,-7.53439],[110.27543,-7.53443],[110.27539,-7.53447],[110.27534,-7.5346],[110.27528,-7.53471],[110.27523,-7.53476],[110.27511,-7.53476],[110.2747,-7.53459],[110.27446,-7.53447],[110.27442,-7.53446],[110.27442,-7.53447],[110.27436,-7.53451],[110.27428,-7.53455],[110.27421,-7.53458],[110.27405,-7.53464],[110.27398,-7.53467],[110.27388,-7.53474],[110.27378,-7.53489],[110.27373,-7.535],[110.2737,-7.53504],[110.27364,-7.53508],[110.27362,-7.53512],[110.2736,-7.53517],[110.27359,-7.53524],[110.27357,-7.53534],[110.27356,-7.53551],[110.27356,-7.53565],[110.27354,-7.53579],[110.2735,-7.53589],[110.27345,-7.53595],[110.2734,-7.53596],[110.27338,-7.53594],[110.2733,-7.53579],[110.27322,-7.53572],[110.27317,-7.53568],[110.27308,-7.5356],[110.27303,-7.53556],[110.273,-7.53555],[110.27295,-7.53554],[110.27289,-7.53558],[110.27281,-7.53562],[110.27274,-7.53564],[110.27267,-7.53564],[110.27261,-7.53568],[110.27255,-7.5357],[110.27248,-7.53572],[110.27237,-7.53576],[110.27224,-7.53582],[110.27215,-7.53587],[110.27205,-7.5359],[110.27199,-7.53593],[110.27192,-7.53599],[110.27191,-7.53603],[110.27197,-7.53611],[110.27202,-7.53617],[110.27205,-7.53626],[110.27207,-7.53635],[110.27202,-7.53641],[110.27192,-7.53647],[110.27178,-7.5365],[110.27163,-7.53652],[110.27153,-7.53655],[110.27144,-7.53655],[110.27131,-7.53662],[110.27113,-7.53669],[110.271,-7.53675],[110.27102,-7.53667],[110.27092,-7.53625],[110.27079,-7.53627],[110.27069,-7.53633],[110.27057,-7.53645],[110.27054,-7.53659],[110.27049,-7.5368],[110.27032,-7.53688],[110.27015,-7.53694],[110.27006,-7.53701],[110.27001,-7.53705],[110.26996,-7.5371],[110.26992,-7.53713],[110.26985,-7.53715],[110.26978,-7.53716],[110.26976,-7.53696],[110.26971,-7.53682],[110.26977,-7.53674],[110.2698,-7.53667],[110.26983,-7.53663],[110.2699,-7.53658],[110.26997,-7.53654],[110.27005,-7.53643],[110.27007,-7.53636],[110.27008,-7.53633],[110.27014,-7.53629],[110.27019,-7.53627],[110.27026,-7.53625],[110.27043,-7.53633],[110.2707,-7.53612],[110.27078,-7.53609],[110.27084,-7.53603],[110.27091,-7.53591],[110.27102,-7.53579],[110.27117,-7.53563],[110.27131,-7.5355],[110.27144,-7.53534],[110.27157,-7.53522],[110.27167,-7.53506],[110.27172,-7.53502],[110.27183,-7.53487],[110.27168,-7.53478],[110.27156,-7.5347],[110.27144,-7.53465],[110.27131,-7.53464],[110.27126,-7.5347],[110.27146,-7.53497],[110.27135,-7.53499],[110.2712,-7.53504],[110.27108,-7.53507],[110.27102,-7.53515],[110.27084,-7.53521],[110.27069,-7.53531],[110.27062,-7.53538],[110.27057,-7.53537],[110.27053,-7.53532],[110.27048,-7.5353],[110.27032,-7.53522],[110.27018,-7.5352],[110.27011,-7.53517],[110.27003,-7.53518],[110.26996,-7.53521],[110.26988,-7.53526],[110.26984,-7.5353],[110.26977,-7.53531],[110.26961,-7.53533],[110.26947,-7.53536],[110.26951,-7.53531],[110.2695,-7.53525],[110.26959,-7.53514],[110.26962,-7.53508],[110.26966,-7.53499],[110.2697,-7.53493],[110.26977,-7.53486],[110.26982,-7.5348],[110.26982,-7.53473],[110.26984,-7.53467],[110.26986,-7.53459],[110.26986,-7.53454],[110.26985,-7.53444],[110.26988,-7.53428],[110.26988,-7.53417],[110.26991,-7.53407],[110.26995,-7.53403],[110.26995,-7.53392],[110.27001,-7.53384],[110.27006,-7.53375],[110.27012,-7.53362],[110.27013,-7.53357],[110.2701,-7.53353],[110.27016,-7.53342],[110.27016,-7.53296],[110.27013,-7.53282],[110.27009,-7.53258],[110.2701,-7.53253],[110.27011,-7.53245],[110.27011,-7.53237],[110.27009,-7.53227],[110.27009,-7.53222],[110.27011,-7.53203],[110.27012,-7.53198],[110.27012,-7.53192],[110.27016,-7.53184],[110.27023,-7.53176],[110.27033,-7.53164],[110.27021,-7.53164],[110.27008,-7.5317],[110.26999,-7.53175],[110.26985,-7.5318],[110.26976,-7.53184],[110.26963,-7.53186],[110.2695,-7.53186],[110.2694,-7.53187],[110.26926,-7.5319],[110.26919,-7.53192],[110.26911,-7.53195],[110.26905,-7.53195],[110.269,-7.53193],[110.26896,-7.53191],[110.26891,-7.5319],[110.26883,-7.53191],[110.26869,-7.53194],[110.2686,-7.53197],[110.2685,-7.532],[110.26843,-7.53203],[110.26835,-7.53205],[110.26831,-7.53205],[110.26828,-7.53204],[110.26824,-7.53203],[110.26814,-7.53203],[110.2681,-7.53204],[110.26805,-7.53205],[110.26801,-7.53207],[110.26797,-7.53211],[110.26791,-7.53219],[110.26787,-7.53223],[110.2678,-7.53226],[110.26763,-7.53235],[110.26746,-7.53239],[110.26707,-7.53236],[110.26702,-7.53231],[110.26702,-7.5323],[110.26699,-7.53226],[110.26667,-7.53216],[110.26667,-7.53213],[110.26666,-7.53207],[110.26662,-7.5319],[110.26651,-7.53152],[110.26646,-7.53137],[110.26641,-7.53118],[110.26637,-7.53112],[110.26634,-7.5311],[110.26644,-7.53104],[110.26653,-7.53086],[110.26663,-7.53073],[110.26666,-7.53066],[110.26664,-7.53063],[110.26659,-7.53061],[110.26655,-7.53055],[110.26649,-7.5304],[110.26646,-7.53032],[110.26646,-7.53023],[110.26649,-7.53016],[110.26651,-7.53012],[110.26652,-7.53011],[110.26659,-7.52999],[110.26678,-7.52987],[110.26689,-7.52981],[110.26703,-7.52974],[110.26714,-7.52969],[110.26721,-7.52964],[110.26728,-7.5296],[110.26737,-7.52955],[110.26748,-7.52951],[110.26762,-7.52945],[110.26777,-7.52941],[110.2678,-7.52938],[110.26813,-7.52861],[110.26794,-7.52827],[110.26801,-7.52808],[110.26816,-7.52791],[110.26809,-7.52789],[110.26796,-7.52792],[110.26794,-7.52793],[110.26786,-7.52798],[110.26765,-7.52807],[110.26737,-7.52817],[110.26704,-7.52822],[110.26683,-7.52827],[110.26647,-7.52835],[110.2662,-7.52842],[110.26611,-7.52843],[110.26606,-7.52843],[110.26594,-7.52849],[110.26584,-7.52858],[110.26577,-7.52865],[110.26564,-7.52874],[110.26555,-7.52886],[110.2655,-7.52898],[110.26542,-7.52921],[110.26537,-7.52933],[110.26522,-7.52951],[110.26519,-7.52957],[110.26518,-7.52961],[110.2651,-7.52969],[110.26495,-7.52972],[110.26489,-7.52969],[110.26486,-7.52959],[110.26483,-7.5295],[110.26482,-7.52949],[110.26478,-7.52939],[110.26475,-7.52934],[110.26469,-7.52926],[110.26464,-7.52924],[110.26444,-7.52918],[110.26426,-7.52912],[110.26413,-7.52903],[110.26387,-7.52882],[110.26374,-7.52869],[110.26366,-7.52868],[110.26353,-7.52873],[110.2634,-7.52889],[110.26329,-7.52908],[110.26327,-7.52912],[110.26319,-7.52922],[110.26313,-7.52927],[110.26305,-7.5293],[110.26297,-7.52929],[110.2629,-7.52925],[110.26288,-7.52923],[110.26275,-7.5292],[110.26261,-7.52918],[110.26228,-7.52916],[110.26179,-7.52917],[110.26165,-7.52919],[110.26161,-7.5293],[110.26159,-7.52935],[110.26148,-7.52953],[110.26143,-7.52968],[110.26131,-7.52977],[110.26122,-7.52982],[110.26116,-7.52985],[110.26097,-7.52986],[110.26083,-7.52984],[110.26074,-7.52987],[110.26071,-7.52992],[110.26065,-7.53014],[110.26063,-7.5302],[110.26064,-7.5304],[110.26066,-7.5305],[110.26066,-7.5306],[110.26065,-7.53069],[110.26065,-7.53076],[110.26063,-7.5308],[110.26057,-7.53081],[110.26054,-7.53081],[110.2605,-7.5308],[110.26043,-7.53073],[110.2604,-7.53067],[110.26033,-7.53062],[110.26025,-7.53057],[110.26012,-7.53055],[110.26005,-7.53061],[110.26,-7.5307],[110.25998,-7.53073],[110.25998,-7.53074],[110.25994,-7.53078],[110.25989,-7.53081],[110.25985,-7.53087],[110.25979,-7.53094],[110.25975,-7.53104],[110.25976,-7.53116],[110.2598,-7.53127],[110.25984,-7.53131],[110.25987,-7.53138],[110.25985,-7.53149],[110.25978,-7.53165],[110.25973,-7.53175],[110.25964,-7.53182],[110.25956,-7.53182],[110.25949,-7.53179],[110.25946,-7.53175],[110.25943,-7.53169],[110.25943,-7.53165],[110.25942,-7.5316],[110.25943,-7.53153],[110.25944,-7.53149],[110.25944,-7.53143],[110.25937,-7.53127],[110.25927,-7.53107],[110.2592,-7.53102],[110.2591,-7.53099],[110.25901,-7.53097],[110.25876,-7.53097],[110.25863,-7.53095],[110.2585,-7.53089],[110.25841,-7.53085],[110.25823,-7.53078],[110.25819,-7.53073],[110.25812,-7.53065],[110.25806,-7.53059],[110.25802,-7.53054],[110.25795,-7.5305],[110.25775,-7.53045],[110.25759,-7.53043],[110.25742,-7.53048],[110.25739,-7.53053],[110.25737,-7.53055],[110.25734,-7.53069],[110.25734,-7.53079],[110.25733,-7.53089],[110.25736,-7.53099],[110.25742,-7.53109],[110.25746,-7.53114],[110.25748,-7.53122],[110.25748,-7.53138],[110.25747,-7.53144],[110.25742,-7.53151],[110.25734,-7.5316],[110.25725,-7.53164],[110.2571,-7.53167],[110.25692,-7.53167],[110.2568,-7.53164],[110.25669,-7.53154],[110.25663,-7.53149],[110.25659,-7.53143],[110.25655,-7.53138],[110.25648,-7.53134],[110.2564,-7.53133],[110.25633,-7.53134],[110.25623,-7.53136],[110.25618,-7.5314],[110.2561,-7.53146],[110.25601,-7.53156],[110.25601,-7.53157],[110.25594,-7.53173],[110.2559,-7.53183],[110.25587,-7.5319],[110.25582,-7.53198],[110.25575,-7.53201],[110.25569,-7.53201],[110.25566,-7.532],[110.25561,-7.53198],[110.25555,-7.53189],[110.25552,-7.53181],[110.25553,-7.53174],[110.25556,-7.53164],[110.25562,-7.5315],[110.25563,-7.53146],[110.2556,-7.53141],[110.25556,-7.53138],[110.25548,-7.53135],[110.2554,-7.53134],[110.25531,-7.53132],[110.25522,-7.53132],[110.25516,-7.53131],[110.25509,-7.53131],[110.255,-7.53132],[110.25494,-7.53135],[110.25486,-7.53144],[110.25482,-7.53154],[110.25485,-7.53165],[110.25486,-7.53168],[110.25488,-7.53173],[110.25495,-7.53193],[110.25495,-7.53205],[110.25494,-7.53215],[110.25491,-7.53223],[110.25485,-7.53231],[110.25475,-7.53238],[110.25468,-7.53242],[110.2546,-7.53244],[110.25453,-7.53244],[110.2545,-7.5324],[110.2545,-7.53232],[110.25449,-7.53226],[110.25449,-7.53224],[110.25447,-7.53213],[110.25445,-7.53205],[110.25442,-7.532],[110.2544,-7.53194],[110.25436,-7.5319],[110.25429,-7.53188],[110.25426,-7.53188],[110.25422,-7.53187],[110.25405,-7.5319],[110.25389,-7.53194],[110.25374,-7.53196],[110.25365,-7.53197],[110.25355,-7.53195],[110.25353,-7.53195],[110.25346,-7.53193],[110.2533,-7.53189],[110.25321,-7.53185],[110.25315,-7.53181],[110.25306,-7.53178],[110.25298,-7.53177],[110.25293,-7.53176],[110.25284,-7.53176],[110.25279,-7.5318],[110.2528,-7.53187],[110.25282,-7.53189],[110.25285,-7.53195],[110.25285,-7.53207],[110.25284,-7.53217],[110.25282,-7.5323],[110.25281,-7.53234],[110.25276,-7.53246],[110.25274,-7.53254],[110.25264,-7.53259],[110.25255,-7.53259],[110.25246,-7.53257],[110.25229,-7.53251],[110.25221,-7.53248],[110.25213,-7.53244],[110.252,-7.53238],[110.2519,-7.53234],[110.25182,-7.53231],[110.25176,-7.53231],[110.25174,-7.53233],[110.25173,-7.5324],[110.25177,-7.53248],[110.25179,-7.53253],[110.25183,-7.53264],[110.25186,-7.5327],[110.25187,-7.53284],[110.25185,-7.53291],[110.25184,-7.53299],[110.25185,-7.53306],[110.25187,-7.53314],[110.25188,-7.53341],[110.25181,-7.53358],[110.25179,-7.53363],[110.25173,-7.53384],[110.25166,-7.53396],[110.25159,-7.53403],[110.25155,-7.53403],[110.25152,-7.53401],[110.25148,-7.53395],[110.25147,-7.53385],[110.25144,-7.53377],[110.25142,-7.53369],[110.25139,-7.53363],[110.25136,-7.53358],[110.25133,-7.53355],[110.25129,-7.53352],[110.25125,-7.53351],[110.25123,-7.53352],[110.25121,-7.53357],[110.25118,-7.53365],[110.25118,-7.53388],[110.25121,-7.53391],[110.25127,-7.534],[110.25141,-7.53419],[110.25153,-7.53433],[110.25157,-7.53441],[110.2516,-7.5345],[110.25162,-7.53458],[110.25162,-7.53467],[110.2516,-7.53473],[110.25155,-7.53477],[110.25146,-7.53478],[110.25139,-7.53478],[110.25124,-7.53475],[110.25112,-7.53472],[110.25101,-7.53469],[110.25093,-7.53467],[110.25086,-7.53466],[110.25068,-7.53466],[110.25062,-7.53467],[110.25056,-7.53469],[110.25047,-7.53477],[110.25042,-7.53486],[110.25042,-7.53503],[110.25044,-7.53525],[110.25044,-7.53526],[110.25043,-7.5353],[110.2504,-7.53537],[110.25033,-7.53558],[110.25032,-7.53563],[110.25029,-7.53572],[110.25018,-7.53589],[110.25012,-7.53599],[110.25005,-7.53605],[110.2499,-7.53612],[110.24976,-7.53619],[110.24972,-7.53625],[110.24969,-7.53634],[110.24971,-7.53642],[110.24975,-7.53655],[110.24981,-7.53668],[110.24984,-7.53679],[110.24983,-7.53689],[110.2498,-7.537],[110.24975,-7.53706],[110.2497,-7.53709],[110.24957,-7.53714],[110.24945,-7.53714],[110.2494,-7.53715],[110.24935,-7.53718],[110.24933,-7.53722],[110.24933,-7.53732],[110.24931,-7.53739],[110.24927,-7.53748],[110.24924,-7.5376],[110.24925,-7.53767],[110.24932,-7.53775],[110.24941,-7.53783],[110.24941,-7.53805],[110.2493,-7.53841],[110.24923,-7.53858],[110.24912,-7.53866],[110.24895,-7.53872],[110.24876,-7.53872],[110.24873,-7.53871],[110.24861,-7.53873],[110.24851,-7.53875],[110.24843,-7.53879],[110.24843,-7.5388],[110.24836,-7.53883],[110.24835,-7.53883],[110.24827,-7.53884],[110.2482,-7.53884],[110.24817,-7.53885],[110.2481,-7.53883],[110.24802,-7.53876],[110.24786,-7.53859],[110.24777,-7.53845],[110.24766,-7.53836],[110.24757,-7.5383],[110.24743,-7.53823],[110.24732,-7.53823],[110.24723,-7.53826],[110.24719,-7.53828],[110.24713,-7.5383],[110.24705,-7.53832],[110.24675,-7.53832],[110.24658,-7.53825],[110.24647,-7.5382],[110.24637,-7.53817],[110.2462,-7.53816],[110.24604,-7.53822],[110.24589,-7.53834],[110.24575,-7.53847],[110.24561,-7.53863],[110.24554,-7.53872],[110.24541,-7.53889],[110.24528,-7.53908],[110.24508,-7.53928],[110.24495,-7.53937],[110.24494,-7.53938],[110.24491,-7.53939],[110.24474,-7.53947],[110.24452,-7.53956],[110.24435,-7.53967],[110.2442,-7.53989],[110.24409,-7.54018],[110.24404,-7.54024],[110.24397,-7.54026],[110.24373,-7.54027],[110.24354,-7.54027],[110.24334,-7.54021],[110.24323,-7.54013],[110.24317,-7.54008],[110.24309,-7.54003],[110.243,-7.53998],[110.24286,-7.53997],[110.24276,-7.53999],[110.24266,-7.54007],[110.24263,-7.54012],[110.24263,-7.54015],[110.24262,-7.54021],[110.24263,-7.54023],[110.24268,-7.54031],[110.24282,-7.54035],[110.24294,-7.54038],[110.24299,-7.5404],[110.243,-7.5404],[110.24305,-7.54046],[110.24305,-7.54054],[110.24304,-7.54068],[110.24305,-7.54106],[110.24307,-7.54136],[110.24305,-7.54154],[110.24299,-7.54167],[110.24289,-7.54176],[110.24267,-7.54174],[110.24253,-7.54172],[110.24235,-7.54164],[110.24219,-7.54162],[110.242,-7.54159],[110.24176,-7.54162],[110.24173,-7.54163],[110.2416,-7.54166],[110.24158,-7.54167],[110.24155,-7.54168],[110.2414,-7.54183],[110.24122,-7.542],[110.24106,-7.54213],[110.24087,-7.54222],[110.24059,-7.54229],[110.24052,-7.54231],[110.24049,-7.54214],[110.24053,-7.5421],[110.24056,-7.54205],[110.24058,-7.54201],[110.2406,-7.54196],[110.24063,-7.5419],[110.24068,-7.54181],[110.24078,-7.54168],[110.24092,-7.54154],[110.24101,-7.54141],[110.24116,-7.54125],[110.24144,-7.54099],[110.24145,-7.54099],[110.24163,-7.54081],[110.24168,-7.54072],[110.24175,-7.54051],[110.2418,-7.54032],[110.24188,-7.54011],[110.24191,-7.54],[110.24192,-7.53994],[110.24191,-7.53986],[110.24188,-7.53976],[110.24187,-7.53972],[110.24185,-7.53968],[110.24184,-7.53963],[110.24182,-7.53948],[110.2418,-7.53935],[110.24179,-7.53933],[110.24179,-7.5393],[110.24178,-7.53929],[110.24176,-7.53916],[110.24175,-7.53903],[110.24172,-7.53888],[110.24167,-7.53877],[110.24159,-7.53862],[110.24152,-7.53846],[110.24144,-7.53833],[110.24139,-7.53827],[110.24133,-7.53826],[110.24126,-7.53827],[110.24115,-7.53829],[110.24103,-7.53832],[110.24091,-7.53832],[110.24076,-7.5383],[110.24059,-7.53824],[110.24051,-7.53821],[110.24037,-7.53815],[110.24025,-7.5381],[110.24008,-7.53803],[110.23992,-7.53797],[110.23986,-7.53794],[110.23979,-7.5379],[110.23974,-7.53784],[110.23972,-7.53778],[110.23972,-7.53777],[110.23971,-7.53773],[110.23972,-7.53767],[110.23975,-7.53759],[110.23979,-7.5375],[110.23984,-7.53743],[110.24032,-7.53662],[110.24038,-7.53654],[110.24042,-7.53648],[110.24042,-7.53647],[110.24044,-7.53644],[110.24059,-7.53619],[110.24081,-7.53584],[110.24089,-7.53569],[110.2409,-7.53567],[110.24096,-7.53552],[110.241,-7.53541],[110.24108,-7.53521],[110.24111,-7.53513],[110.24112,-7.53506],[110.24113,-7.535],[110.24113,-7.53492],[110.24111,-7.53482],[110.24109,-7.53473],[110.24103,-7.53449],[110.24099,-7.53441],[110.24096,-7.53432],[110.24092,-7.53418],[110.24089,-7.5339],[110.24086,-7.5336],[110.24085,-7.53358],[110.24068,-7.53361],[110.24056,-7.53363],[110.24009,-7.53375],[110.2397,-7.53382],[110.23912,-7.53389],[110.23885,-7.53382],[110.23864,-7.53377],[110.2385,-7.53399],[110.23835,-7.5341],[110.23823,-7.53418],[110.23811,-7.53441],[110.2378,-7.53442],[110.23759,-7.53443],[110.23744,-7.53448],[110.23737,-7.53454],[110.23738,-7.53474],[110.23739,-7.53502],[110.23737,-7.53514],[110.23713,-7.53516],[110.23704,-7.53519],[110.23696,-7.53524],[110.23686,-7.53528],[110.23675,-7.53527],[110.23672,-7.53516],[110.2367,-7.5351],[110.2366,-7.53486],[110.23656,-7.53503],[110.23618,-7.53465],[110.23618,-7.53521],[110.23615,-7.53547],[110.23622,-7.5357],[110.23619,-7.53576],[110.2361,-7.53592],[110.23609,-7.53594],[110.23609,-7.53596],[110.23606,-7.53603],[110.23602,-7.53612],[110.23602,-7.53616],[110.23603,-7.53618],[110.23604,-7.53619],[110.23606,-7.53623],[110.23626,-7.53631],[110.23641,-7.53642],[110.23649,-7.53646],[110.23653,-7.5365],[110.23645,-7.53659],[110.23623,-7.53669],[110.23562,-7.53695],[110.23538,-7.53705],[110.23538,-7.53704],[110.23519,-7.53663],[110.23427,-7.53703],[110.23398,-7.53715],[110.23403,-7.53733],[110.23381,-7.53742],[110.2337,-7.53749],[110.23353,-7.53758],[110.2334,-7.53759],[110.23317,-7.53756],[110.233,-7.53756],[110.23278,-7.53758],[110.2328,-7.53724],[110.23284,-7.53654],[110.2329,-7.53546],[110.23303,-7.53505],[110.23286,-7.53509],[110.23259,-7.53523],[110.232,-7.53561],[110.23186,-7.53572],[110.23169,-7.53581],[110.23136,-7.53591],[110.23131,-7.53601],[110.23138,-7.53658],[110.23138,-7.53687],[110.23132,-7.53715],[110.23126,-7.5373],[110.23105,-7.53774],[110.23083,-7.538],[110.23076,-7.53803],[110.23055,-7.53806],[110.23032,-7.53823],[110.23001,-7.53845],[110.2298,-7.5385],[110.2295,-7.53846],[110.22945,-7.53847],[110.22896,-7.53853],[110.22888,-7.53852],[110.22878,-7.53902],[110.22869,-7.53925],[110.22861,-7.53951],[110.22857,-7.53962],[110.22853,-7.5398],[110.22837,-7.53975],[110.22827,-7.54004],[110.22801,-7.54079],[110.2278,-7.54081],[110.22776,-7.54101],[110.22751,-7.54098],[110.22746,-7.54106],[110.22655,-7.54086],[110.22587,-7.54071],[110.22536,-7.54056],[110.22516,-7.54076],[110.22489,-7.54104],[110.22432,-7.54141],[110.22415,-7.54147],[110.22385,-7.5416],[110.22373,-7.54251],[110.22367,-7.54273],[110.22414,-7.54289],[110.22449,-7.54294],[110.22488,-7.543],[110.22503,-7.54311],[110.22513,-7.54327],[110.22514,-7.54338],[110.22512,-7.54352],[110.22503,-7.54363],[110.22501,-7.5437],[110.225,-7.54384],[110.22483,-7.54384],[110.2248,-7.54415],[110.22479,-7.5447],[110.22471,-7.54469],[110.22453,-7.54464],[110.22426,-7.54463],[110.22398,-7.54468],[110.22381,-7.54476],[110.22362,-7.54488],[110.22334,-7.54522],[110.22316,-7.5456],[110.22309,-7.54605],[110.22291,-7.54599],[110.22272,-7.54604],[110.22264,-7.54636],[110.22257,-7.54657],[110.22248,-7.54672],[110.22229,-7.54693],[110.22213,-7.54709],[110.22191,-7.54741],[110.22185,-7.54757],[110.22184,-7.54772],[110.22191,-7.5479],[110.22208,-7.5479],[110.22227,-7.54789],[110.22231,-7.54815],[110.22232,-7.54821],[110.22252,-7.54836],[110.22267,-7.54848],[110.22271,-7.5485],[110.22271,-7.54851],[110.22263,-7.54877],[110.22253,-7.54912],[110.22245,-7.5498],[110.22245,-7.54992],[110.22247,-7.55024],[110.22254,-7.55067],[110.22288,-7.55068],[110.22291,-7.55076],[110.22292,-7.55095],[110.22293,-7.5513],[110.22293,-7.55138],[110.22294,-7.55145],[110.22292,-7.5517],[110.22292,-7.55175],[110.22286,-7.55204],[110.22283,-7.55212],[110.22275,-7.55234],[110.22288,-7.55243],[110.2229,-7.55244],[110.22297,-7.55276],[110.22297,-7.55281],[110.22298,-7.55282],[110.22311,-7.55316],[110.22322,-7.55342],[110.22346,-7.55399],[110.22335,-7.55452],[110.22372,-7.55457],[110.22402,-7.55481],[110.22399,-7.55511],[110.22396,-7.55553],[110.22395,-7.55597],[110.22376,-7.55636],[110.22381,-7.55649],[110.22388,-7.55666],[110.22398,-7.55681],[110.2241,-7.557],[110.22444,-7.55746],[110.22444,-7.55747],[110.22475,-7.55778],[110.2252,-7.55818],[110.22555,-7.55862],[110.22575,-7.55889],[110.22607,-7.55931],[110.22619,-7.55959],[110.22624,-7.55971],[110.22628,-7.55988],[110.22632,-7.56004],[110.22647,-7.56034],[110.22656,-7.56045],[110.22657,-7.56046],[110.22686,-7.56077],[110.22687,-7.56078],[110.22676,-7.56152],[110.22666,-7.5622],[110.22662,-7.56238],[110.22699,-7.56248],[110.22683,-7.56294],[110.22678,-7.5631],[110.22674,-7.56319],[110.22646,-7.56311],[110.2264,-7.56341],[110.2263,-7.56385],[110.22622,-7.56418],[110.22612,-7.56464],[110.22606,-7.56491],[110.22598,-7.56528],[110.22593,-7.56548],[110.22584,-7.56591],[110.22583,-7.56596],[110.22578,-7.56609],[110.22611,-7.56619],[110.22643,-7.56632],[110.2269,-7.56647],[110.22705,-7.56653],[110.22727,-7.56662],[110.22749,-7.56674],[110.22765,-7.5668],[110.22802,-7.56689],[110.22821,-7.5669],[110.22844,-7.56691],[110.22857,-7.56691],[110.22851,-7.56747],[110.2284,-7.56772],[110.22833,-7.56789],[110.2283,-7.56852],[110.22823,-7.56879],[110.22822,-7.56881],[110.22806,-7.56899],[110.22788,-7.56904],[110.22767,-7.56896],[110.22742,-7.56883],[110.22716,-7.56877],[110.22691,-7.56883],[110.2265,-7.56905],[110.22611,-7.56936],[110.22596,-7.5696],[110.2259,-7.56984],[110.22588,-7.56991],[110.22592,-7.57009],[110.22597,-7.57038],[110.2261,-7.57053],[110.22638,-7.5708],[110.22649,-7.5709],[110.22669,-7.57108],[110.2268,-7.57122],[110.22682,-7.57143],[110.22674,-7.57173],[110.22654,-7.57211],[110.22628,-7.5725],[110.22605,-7.57283],[110.22574,-7.57313],[110.22533,-7.57348],[110.22532,-7.57349],[110.22528,-7.57352],[110.22507,-7.57366],[110.22491,-7.57377],[110.22464,-7.57388],[110.22451,-7.57393],[110.22435,-7.57392],[110.22393,-7.57397],[110.22342,-7.57402],[110.22294,-7.57405],[110.22269,-7.57406],[110.22232,-7.57414],[110.2221,-7.57429],[110.22187,-7.57457],[110.22163,-7.57502],[110.2215,-7.57554],[110.22147,-7.57595],[110.22146,-7.57619],[110.22147,-7.57624],[110.22147,-7.57642],[110.22148,-7.57667],[110.22151,-7.57682],[110.22166,-7.57693],[110.22193,-7.57702],[110.22223,-7.57707],[110.22228,-7.57708],[110.22234,-7.5771],[110.22251,-7.57718],[110.22254,-7.57719],[110.2228,-7.57734],[110.22298,-7.57749],[110.22312,-7.57772],[110.22314,-7.57782],[110.22312,-7.5779],[110.22308,-7.57812],[110.22294,-7.57844],[110.22281,-7.57876],[110.22267,-7.57898],[110.22258,-7.5791],[110.22247,-7.57919],[110.22222,-7.5792],[110.222,-7.57926],[110.22188,-7.5794],[110.22181,-7.57963],[110.22186,-7.57982],[110.22202,-7.58003],[110.22243,-7.58034],[110.22306,-7.5807],[110.22321,-7.58082],[110.22332,-7.58102],[110.22333,-7.58126],[110.22323,-7.58142],[110.22308,-7.58153],[110.22289,-7.5816],[110.22272,-7.58164],[110.22263,-7.58166],[110.22247,-7.58171],[110.22223,-7.5819],[110.22213,-7.58203],[110.22211,-7.58219],[110.22211,-7.5822],[110.22206,-7.58249],[110.222,-7.58265],[110.22163,-7.58329],[110.22161,-7.58333],[110.2216,-7.58333],[110.22147,-7.58362],[110.22128,-7.58402],[110.22127,-7.58405],[110.22113,-7.58452],[110.22117,-7.58477],[110.22117,-7.58479],[110.22137,-7.58502],[110.22141,-7.58506],[110.22098,-7.58502],[110.22067,-7.58503],[110.22033,-7.58511],[110.2202,-7.58547],[110.21987,-7.5864],[110.21981,-7.58661],[110.21973,-7.58679],[110.21969,-7.58678],[110.21967,-7.58679],[110.21963,-7.58679],[110.21962,-7.58713],[110.21962,-7.58731],[110.2192,-7.58706],[110.21916,-7.58702],[110.21906,-7.58696],[110.21843,-7.58661],[110.21845,-7.58655],[110.2181,-7.58638],[110.21786,-7.58627],[110.21772,-7.5862],[110.21734,-7.58605],[110.21732,-7.58615],[110.21721,-7.58641],[110.21706,-7.58679],[110.21688,-7.58702],[110.21687,-7.58703],[110.21664,-7.58711],[110.21607,-7.58732]]]}}]}