{"type":"FeatureCollection","features":[{"type":"Feature","properties":{"KECAMATAN":"Muntilan"},"geometry":{"type":"Polygon","coordinates":[[[110.23652,-7.61037],[110.23653,-7.61045],[110.23654,-7.61049],[110.23655,-7.61057],[110.23658,-7.61072],[110.23664,-7.6109],[110.23668,-7.61104],[110.23682,-7.61108],[110.23692,-7.61117],[110.23694,-7.61127],[110.23691,-7.61142],[110.23676,-7.61152],[110.23674,-7.61172],[110.23672,-7.61182],[110.23671,-7.61201],[110.23671,-7.61224],[110.23674,-7.61241],[110.23678,-7.61266],[110.23681,-7.61291],[110.23683,-7.61316],[110.23683,-7.61343],[110.23682,-7.61365],[110.23685,-7.61388],[110.23688,-7.614],[110.23692,-7.61425],[110.23692,-7.61427],[110.23696,-7.61443],[110.23703,-7.61464],[110.23722,-7.61487],[110.23724,-7.6149],[110.23757,-7.61526],[110.23783,-7.61555],[110.23798,-7.61571],[110.23809,-7.61588],[110.23811,-7.61592],[110.23823,-7.61589],[110.23838,-7.61598],[110.23841,-7.61612],[110.23838,-7.61629],[110.23832,-7.61645],[110.23838,-7.61661],[110.23846,-7.61685],[110.23857,-7.61719],[110.23866,-7.61741],[110.23876,-7.61734],[110.23944,-7.6169],[110.23945,-7.61695],[110.23937,-7.61705],[110.23928,-7.61711],[110.23926,-7.61719],[110.23925,-7.61727],[110.23921,-7.61736],[110.23921,-7.61738],[110.2392,-7.61741],[110.23921,-7.61744],[110.23923,-7.61749],[110.23926,-7.61753],[110.23928,-7.61755],[110.23931,-7.6176],[110.23938,-7.6177],[110.23939,-7.61774],[110.2394,-7.61777],[110.23939,-7.6178],[110.23935,-7.61784],[110.23928,-7.6179],[110.23925,-7.61792],[110.23925,-7.61798],[110.23931,-7.61816],[110.23936,-7.6184],[110.23949,-7.6186],[110.23957,-7.61886],[110.23959,-7.61944],[110.2396,-7.61967],[110.23947,-7.62038],[110.23943,-7.62049],[110.2393,-7.62093],[110.23925,-7.62112],[110.23919,-7.6213],[110.23898,-7.62186],[110.23887,-7.6223],[110.23883,-7.62244],[110.23884,-7.62289],[110.23885,-7.62309],[110.23907,-7.6237],[110.23933,-7.62417],[110.23955,-7.6248],[110.23956,-7.62482],[110.23963,-7.62518],[110.23968,-7.62561],[110.2397,-7.62585],[110.2397,-7.62586],[110.23968,-7.62593],[110.2396,-7.62638],[110.23958,-7.62642],[110.2395,-7.62663],[110.23945,-7.62677],[110.23918,-7.62695],[110.23901,-7.62701],[110.23879,-7.62715],[110.2385,-7.62739],[110.23815,-7.62772],[110.23792,-7.62802],[110.23755,-7.62836],[110.23745,-7.62884],[110.23745,-7.62885],[110.2378,-7.62938],[110.23825,-7.63042],[110.23857,-7.63112],[110.2388,-7.63171],[110.23883,-7.63176],[110.23884,-7.63179],[110.23904,-7.6321],[110.23954,-7.63266],[110.24027,-7.6334],[110.24035,-7.63348],[110.24067,-7.63361],[110.24069,-7.63362],[110.2407,-7.63362],[110.24078,-7.63365],[110.24109,-7.63368],[110.24114,-7.63369],[110.24134,-7.63369],[110.24141,-7.63367],[110.24172,-7.63358],[110.24186,-7.63351],[110.24204,-7.63343],[110.24221,-7.63338],[110.24267,-7.63321],[110.24316,-7.63303],[110.24351,-7.63297],[110.24399,-7.633],[110.24439,-7.63306],[110.24488,-7.63316],[110.2454,-7.63327],[110.24572,-7.63338],[110.24628,-7.63364],[110.24697,-7.63402],[110.24728,-7.63417],[110.24757,-7.63436],[110.24777,-7.63451],[110.24805,-7.63486],[110.24806,-7.6349],[110.2481,-7.63505],[110.24817,-7.63536],[110.24842,-7.63527],[110.24866,-7.63511],[110.24877,-7.63489],[110.24883,-7.63476],[110.2489,-7.63467],[110.24895,-7.6346],[110.24906,-7.63431],[110.24908,-7.63426],[110.24909,-7.63422],[110.24916,-7.63413],[110.24937,-7.634],[110.24944,-7.63396],[110.2495,-7.63389],[110.24955,-7.63378],[110.24956,-7.63369],[110.24962,-7.63357],[110.24966,-7.6334],[110.24971,-7.63327],[110.24979,-7.63315],[110.24986,-7.63305],[110.24992,-7.63298],[110.25003,-7.63292],[110.25031,-7.63292],[110.25046,-7.6329],[110.25046,-7.63281],[110.25049,-7.6327],[110.25049,-7.63257],[110.25052,-7.63243],[110.25062,-7.63252],[110.25068,-7.63255],[110.25071,-7.63259],[110.25084,-7.6326],[110.25095,-7.63263],[110.25116,-7.63272],[110.25127,-7.63282],[110.25132,-7.63285],[110.25139,-7.6329],[110.25144,-7.63297],[110.25154,-7.63296],[110.25166,-7.63294],[110.25177,-7.63298],[110.25188,-7.63303],[110.25194,-7.63298],[110.25206,-7.63295],[110.25224,-7.63295],[110.25241,-7.63285],[110.25253,-7.63276],[110.25267,-7.63264],[110.25283,-7.63261],[110.25298,-7.63258],[110.25299,-7.63263],[110.25305,-7.63273],[110.25316,-7.63282],[110.25329,-7.63285],[110.25348,-7.63288],[110.2536,-7.63289],[110.25369,-7.633],[110.25363,-7.63331],[110.25369,-7.63332],[110.25391,-7.63334],[110.25406,-7.63336],[110.25413,-7.63324],[110.25417,-7.63315],[110.2542,-7.63301],[110.25434,-7.63273],[110.25439,-7.63258],[110.25443,-7.63245],[110.25449,-7.63235],[110.25464,-7.63219],[110.25471,-7.63209],[110.2548,-7.63199],[110.25487,-7.63192],[110.25502,-7.6317],[110.25512,-7.63158],[110.25521,-7.63135],[110.25524,-7.63129],[110.2554,-7.63131],[110.25542,-7.63125],[110.25547,-7.63116],[110.25554,-7.6311],[110.25558,-7.63106],[110.25568,-7.63099],[110.25578,-7.63093],[110.25592,-7.63089],[110.25603,-7.63085],[110.25608,-7.63084],[110.2561,-7.63083],[110.25616,-7.63081],[110.2563,-7.63063],[110.25646,-7.63039],[110.25684,-7.62966],[110.25699,-7.62937],[110.25715,-7.62907],[110.25734,-7.62857],[110.25737,-7.62855],[110.25741,-7.62851],[110.25745,-7.62801],[110.25749,-7.62734],[110.25756,-7.62676],[110.25759,-7.62628],[110.2578,-7.62594],[110.25819,-7.62547],[110.25822,-7.62544],[110.25834,-7.62529],[110.25873,-7.62483],[110.25932,-7.62422],[110.26,-7.62362],[110.26024,-7.62336],[110.26035,-7.62321],[110.26036,-7.62319],[110.26048,-7.62303],[110.26054,-7.62294],[110.26055,-7.62293],[110.26069,-7.62272],[110.26075,-7.62264],[110.26076,-7.62262],[110.26079,-7.62258],[110.26083,-7.62251],[110.26084,-7.62251],[110.26092,-7.62239],[110.26101,-7.62225],[110.26107,-7.62217],[110.26118,-7.622],[110.26124,-7.6219],[110.26132,-7.62177],[110.26154,-7.62148],[110.26155,-7.62147],[110.26163,-7.62129],[110.26165,-7.62127],[110.2618,-7.621],[110.26183,-7.62095],[110.26191,-7.62084],[110.26196,-7.62076],[110.26199,-7.62071],[110.26221,-7.62038],[110.26224,-7.62033],[110.26226,-7.62029],[110.26232,-7.62016],[110.26238,-7.62002],[110.26243,-7.61985],[110.26246,-7.61966],[110.26247,-7.61961],[110.26248,-7.61958],[110.2625,-7.61942],[110.26249,-7.61911],[110.26249,-7.61909],[110.26251,-7.61903],[110.26254,-7.61893],[110.26258,-7.61877],[110.2626,-7.61873],[110.26273,-7.61844],[110.26278,-7.61835],[110.26281,-7.61831],[110.26299,-7.61809],[110.26315,-7.61795],[110.26317,-7.61794],[110.26337,-7.61781],[110.26339,-7.6178],[110.26348,-7.6177],[110.26362,-7.61762],[110.2637,-7.61755],[110.26389,-7.61736],[110.26395,-7.61727],[110.26399,-7.61723],[110.26407,-7.61711],[110.26418,-7.61704],[110.26439,-7.61687],[110.26467,-7.61668],[110.26492,-7.61655],[110.26502,-7.61643],[110.26507,-7.61633],[110.26514,-7.61617],[110.26519,-7.61592],[110.26523,-7.61581],[110.26531,-7.61558],[110.26538,-7.61549],[110.26544,-7.6154],[110.26549,-7.61531],[110.26561,-7.61514],[110.26563,-7.61511],[110.26574,-7.61487],[110.26583,-7.61466],[110.26584,-7.61464],[110.26588,-7.6145],[110.26588,-7.61448],[110.2659,-7.61446],[110.26598,-7.6144],[110.26603,-7.61436],[110.26604,-7.61435],[110.26616,-7.61425],[110.26623,-7.61417],[110.26632,-7.61408],[110.26667,-7.61368],[110.26702,-7.61339],[110.26729,-7.61318],[110.26746,-7.61309],[110.26754,-7.61302],[110.26749,-7.61291],[110.26767,-7.61285],[110.26778,-7.61267],[110.26784,-7.61252],[110.26785,-7.61244],[110.26787,-7.61236],[110.26792,-7.61228],[110.26798,-7.61224],[110.26809,-7.61222],[110.2682,-7.61218],[110.26831,-7.6121],[110.26838,-7.61198],[110.26843,-7.61185],[110.26854,-7.61167],[110.26864,-7.6115],[110.26872,-7.61135],[110.26894,-7.61116],[110.26898,-7.61114],[110.26917,-7.61103],[110.26925,-7.61101],[110.26938,-7.61098],[110.26941,-7.61097],[110.26951,-7.61094],[110.26956,-7.61093],[110.26966,-7.61089],[110.26969,-7.61088],[110.26977,-7.61085],[110.27027,-7.61085],[110.27031,-7.61084],[110.27038,-7.61083],[110.27041,-7.61083],[110.27065,-7.61075],[110.27075,-7.61072],[110.27081,-7.6107],[110.27087,-7.61066],[110.27094,-7.61063],[110.27101,-7.61059],[110.27109,-7.61057],[110.27153,-7.61045],[110.2716,-7.61044],[110.27178,-7.61039],[110.27191,-7.61035],[110.27209,-7.6103],[110.27218,-7.61029],[110.27221,-7.61029],[110.2724,-7.61028],[110.27241,-7.61028],[110.2727,-7.61032],[110.27271,-7.61032],[110.27272,-7.61033],[110.27313,-7.61033],[110.27336,-7.61032],[110.27347,-7.61032],[110.2736,-7.61031],[110.27384,-7.61026],[110.27403,-7.61012],[110.27409,-7.61003],[110.2741,-7.61002],[110.27422,-7.60985],[110.27422,-7.60984],[110.27423,-7.60983],[110.27434,-7.60969],[110.27443,-7.60957],[110.27446,-7.60952],[110.2745,-7.60946],[110.27457,-7.60936],[110.27465,-7.60931],[110.27468,-7.60929],[110.2748,-7.60918],[110.27481,-7.60918],[110.2749,-7.60909],[110.27498,-7.60897],[110.27499,-7.60895],[110.27505,-7.60889],[110.27512,-7.6088],[110.27513,-7.6088],[110.27515,-7.60877],[110.27522,-7.60869],[110.27535,-7.60856],[110.27541,-7.60849],[110.27555,-7.60837],[110.27561,-7.60829],[110.27576,-7.60816],[110.27578,-7.60814],[110.27594,-7.60795],[110.27596,-7.60788],[110.27602,-7.60769],[110.27614,-7.60745],[110.27623,-7.60721],[110.2763,-7.60711],[110.27639,-7.60705],[110.27648,-7.60702],[110.27656,-7.60699],[110.27657,-7.60697],[110.27661,-7.6069],[110.27664,-7.60683],[110.27666,-7.60678],[110.27672,-7.60657],[110.27687,-7.60622],[110.27689,-7.60619],[110.2769,-7.60616],[110.27708,-7.60583],[110.27714,-7.60568],[110.27724,-7.60535],[110.27724,-7.60527],[110.27723,-7.6047],[110.27724,-7.60442],[110.27734,-7.6042],[110.27748,-7.604],[110.27761,-7.60383],[110.27777,-7.60362],[110.27783,-7.60353],[110.27794,-7.60337],[110.27791,-7.60327],[110.2779,-7.60325],[110.27786,-7.60304],[110.27791,-7.60272],[110.27807,-7.60227],[110.27822,-7.60171],[110.27826,-7.60145],[110.27831,-7.60128],[110.27839,-7.60105],[110.27851,-7.6008],[110.27856,-7.60065],[110.27852,-7.60052],[110.2785,-7.60044],[110.2785,-7.60026],[110.27857,-7.59999],[110.2787,-7.59979],[110.27874,-7.5996],[110.27875,-7.59943],[110.27879,-7.59928],[110.27888,-7.59905],[110.27893,-7.599],[110.27905,-7.59886],[110.27924,-7.59868],[110.27943,-7.59846],[110.2796,-7.59829],[110.27972,-7.59821],[110.27988,-7.59812],[110.28003,-7.59805],[110.28019,-7.59795],[110.28045,-7.59786],[110.28063,-7.59776],[110.28076,-7.59772],[110.28094,-7.5977],[110.28107,-7.5977],[110.28121,-7.59772],[110.28138,-7.59776],[110.28159,-7.59786],[110.28173,-7.59794],[110.28199,-7.5983],[110.2822,-7.59858],[110.28241,-7.59895],[110.28249,-7.59914],[110.28249,-7.59915],[110.28253,-7.59929],[110.28266,-7.59937],[110.28268,-7.59938],[110.28319,-7.59968],[110.28354,-7.59984],[110.28363,-7.59985],[110.28371,-7.59986],[110.28382,-7.5998],[110.28394,-7.59973],[110.28407,-7.59965],[110.28443,-7.59948],[110.28452,-7.59947],[110.28465,-7.59942],[110.28475,-7.59934],[110.28481,-7.59923],[110.28493,-7.59908],[110.28506,-7.59894],[110.28528,-7.5988],[110.28537,-7.59875],[110.28556,-7.59867],[110.28566,-7.59851],[110.28572,-7.59839],[110.2858,-7.59822],[110.28592,-7.5981],[110.28602,-7.59803],[110.28628,-7.59786],[110.28634,-7.59782],[110.28636,-7.59778],[110.28638,-7.59775],[110.28639,-7.59772],[110.28638,-7.5977],[110.28635,-7.59767],[110.28635,-7.59763],[110.28637,-7.5976],[110.2864,-7.59758],[110.28644,-7.59757],[110.2865,-7.59757],[110.28654,-7.59759],[110.28656,-7.59762],[110.28658,-7.59764],[110.28659,-7.59763],[110.2869,-7.59749],[110.28699,-7.59745],[110.28694,-7.59722],[110.2868,-7.59725],[110.28677,-7.59708],[110.28805,-7.59679],[110.2881,-7.59707],[110.28813,-7.59711],[110.28822,-7.59713],[110.28823,-7.59713],[110.28834,-7.59711],[110.28855,-7.59706],[110.28871,-7.59704],[110.28877,-7.59705],[110.28896,-7.59708],[110.2891,-7.59713],[110.28934,-7.59713],[110.2895,-7.5971],[110.28972,-7.59703],[110.28994,-7.59695],[110.29009,-7.59684],[110.2902,-7.59674],[110.29027,-7.59663],[110.29033,-7.59629],[110.2904,-7.5961],[110.29043,-7.59599],[110.29045,-7.59592],[110.29046,-7.59591],[110.29055,-7.59578],[110.29061,-7.59569],[110.29061,-7.59568],[110.29066,-7.59565],[110.29078,-7.59559],[110.29083,-7.59556],[110.29086,-7.59555],[110.29104,-7.59553],[110.29114,-7.59549],[110.29125,-7.59544],[110.29139,-7.59535],[110.29152,-7.59526],[110.29158,-7.59518],[110.29164,-7.59506],[110.29193,-7.5945],[110.29216,-7.5942],[110.29217,-7.59418],[110.29248,-7.5939],[110.29267,-7.59374],[110.29296,-7.59351],[110.29304,-7.59344],[110.29311,-7.59338],[110.29321,-7.59328],[110.29322,-7.59322],[110.29322,-7.59321],[110.29321,-7.59306],[110.29323,-7.59301],[110.29328,-7.59293],[110.29334,-7.59287],[110.29355,-7.59275],[110.29391,-7.5926],[110.29412,-7.59251],[110.29455,-7.59233],[110.29475,-7.59222],[110.29494,-7.59204],[110.29517,-7.59181],[110.29538,-7.59149],[110.2955,-7.59134],[110.2956,-7.59125],[110.29564,-7.59122],[110.29578,-7.59112],[110.29611,-7.59104],[110.29612,-7.59102],[110.29613,-7.59098],[110.29614,-7.59093],[110.2962,-7.59085],[110.29628,-7.59077],[110.29635,-7.59071],[110.29638,-7.59069],[110.2964,-7.59068],[110.29643,-7.59067],[110.29648,-7.5906],[110.29654,-7.59057],[110.29655,-7.59056],[110.29661,-7.59054],[110.29663,-7.59054],[110.29663,-7.59053],[110.29668,-7.59052],[110.29672,-7.59052],[110.29687,-7.59041],[110.29695,-7.59037],[110.29707,-7.59024],[110.29712,-7.5902],[110.29714,-7.59019],[110.29716,-7.59016],[110.29728,-7.59004],[110.29731,-7.59002],[110.29733,-7.59001],[110.29737,-7.59001],[110.2974,-7.58999],[110.29742,-7.58999],[110.29751,-7.58996],[110.29752,-7.58996],[110.29758,-7.58994],[110.29773,-7.58988],[110.29775,-7.58986],[110.29777,-7.58985],[110.29778,-7.58985],[110.29783,-7.58981],[110.29789,-7.58978],[110.29796,-7.58974],[110.29796,-7.58973],[110.29803,-7.58969],[110.29806,-7.58967],[110.29814,-7.58962],[110.29819,-7.58953],[110.29831,-7.58941],[110.29835,-7.58935],[110.29838,-7.5893],[110.29839,-7.58928],[110.29847,-7.5892],[110.29849,-7.58916],[110.29852,-7.58913],[110.29857,-7.58911],[110.29861,-7.5891],[110.29862,-7.5891],[110.29871,-7.58904],[110.29876,-7.58902],[110.29879,-7.58902],[110.29881,-7.58899],[110.29885,-7.58897],[110.29892,-7.58893],[110.299,-7.58891],[110.29902,-7.5889],[110.29903,-7.5889],[110.29904,-7.58889],[110.29908,-7.58886],[110.2991,-7.58884],[110.29911,-7.58884],[110.29918,-7.5888],[110.29925,-7.58879],[110.29931,-7.58879],[110.29937,-7.58866],[110.29947,-7.58861],[110.29948,-7.58861],[110.29949,-7.58857],[110.29952,-7.58852],[110.29958,-7.58846],[110.29969,-7.58846],[110.2997,-7.58844],[110.29974,-7.58838],[110.29978,-7.58835],[110.29987,-7.58831],[110.29988,-7.58831],[110.2999,-7.58832],[110.30011,-7.58804],[110.30016,-7.58797],[110.30024,-7.58787],[110.3003,-7.58778],[110.3004,-7.58765],[110.30052,-7.58752],[110.30067,-7.58744],[110.30077,-7.5874],[110.30082,-7.58737],[110.30099,-7.58726],[110.3011,-7.58715],[110.30112,-7.5871],[110.30113,-7.58709],[110.30117,-7.58699],[110.30117,-7.58695],[110.30116,-7.58682],[110.30112,-7.58661],[110.30106,-7.58643],[110.301,-7.58622],[110.301,-7.58604],[110.30109,-7.5859],[110.30122,-7.5858],[110.30128,-7.58576],[110.30131,-7.58572],[110.30142,-7.58557],[110.30164,-7.5853],[110.30182,-7.5852],[110.30199,-7.58511],[110.3022,-7.58504],[110.30244,-7.58491],[110.30246,-7.58491],[110.30248,-7.5849],[110.30255,-7.58486],[110.30294,-7.58465],[110.30309,-7.58454],[110.30317,-7.58439],[110.30324,-7.58418],[110.30329,-7.58384],[110.30329,-7.58381],[110.30332,-7.58365],[110.30334,-7.58335],[110.30339,-7.58316],[110.30339,-7.58313],[110.30346,-7.58287],[110.30354,-7.58267],[110.30374,-7.58236],[110.30375,-7.58234],[110.30378,-7.58231],[110.30393,-7.58211],[110.30416,-7.58188],[110.30447,-7.58159],[110.30457,-7.58144],[110.30468,-7.58112],[110.30468,-7.58109],[110.30472,-7.58097],[110.30473,-7.58093],[110.30485,-7.58076],[110.30502,-7.58061],[110.30505,-7.58058],[110.30518,-7.58041],[110.30519,-7.58039],[110.30526,-7.58027],[110.30549,-7.58009],[110.30562,-7.58003],[110.30583,-7.58003],[110.30598,-7.58007],[110.30608,-7.58007],[110.30621,-7.58002],[110.3063,-7.57995],[110.3064,-7.57988],[110.30641,-7.57987],[110.30645,-7.57984],[110.3065,-7.57983],[110.30668,-7.57978],[110.307,-7.57967],[110.30705,-7.57965],[110.30724,-7.57958],[110.30737,-7.57957],[110.30747,-7.57955],[110.30762,-7.57955],[110.30781,-7.57951],[110.30794,-7.57947],[110.30807,-7.57942],[110.30817,-7.57932],[110.30823,-7.57923],[110.30825,-7.5791],[110.30828,-7.57884],[110.30817,-7.57888],[110.30803,-7.57894],[110.30785,-7.57899],[110.30765,-7.57906],[110.30751,-7.57912],[110.30744,-7.57909],[110.30738,-7.57897],[110.30723,-7.57896],[110.3073,-7.57848],[110.30676,-7.5778],[110.30664,-7.57797],[110.30661,-7.578],[110.30648,-7.57807],[110.30664,-7.57822],[110.30669,-7.57842],[110.30669,-7.57852],[110.30666,-7.57861],[110.30669,-7.5787],[110.30672,-7.57878],[110.30671,-7.57889],[110.30668,-7.57889],[110.3066,-7.57882],[110.3065,-7.57885],[110.30646,-7.57887],[110.30633,-7.57887],[110.30629,-7.57889],[110.3062,-7.5789],[110.30612,-7.57892],[110.30603,-7.57892],[110.30591,-7.57893],[110.30585,-7.57895],[110.30569,-7.57895],[110.3056,-7.57901],[110.30553,-7.57903],[110.30549,-7.57904],[110.30543,-7.57907],[110.30539,-7.57911],[110.30532,-7.57915],[110.30506,-7.57915],[110.30498,-7.57913],[110.30495,-7.57909],[110.30491,-7.57906],[110.30486,-7.57901],[110.3048,-7.57903],[110.30472,-7.57904],[110.30461,-7.57916],[110.30453,-7.57921],[110.30446,-7.57924],[110.30435,-7.57926],[110.30429,-7.57925],[110.30429,-7.57921],[110.30436,-7.57907],[110.30437,-7.57901],[110.30435,-7.57895],[110.30427,-7.57889],[110.30425,-7.57889],[110.30422,-7.57891],[110.3042,-7.57892],[110.30417,-7.57891],[110.30407,-7.57873],[110.30404,-7.57863],[110.304,-7.57855],[110.30394,-7.57836],[110.30389,-7.57823],[110.30383,-7.57814],[110.30377,-7.57806],[110.30369,-7.57797],[110.30361,-7.57789],[110.30357,-7.57778],[110.30338,-7.57747],[110.30334,-7.57741],[110.30314,-7.577],[110.30298,-7.57671],[110.3029,-7.57663],[110.30286,-7.57661],[110.30283,-7.57661],[110.30281,-7.57662],[110.30278,-7.57662],[110.30275,-7.57661],[110.30273,-7.5766],[110.30272,-7.5766],[110.30268,-7.57659],[110.30263,-7.57662],[110.30259,-7.57662],[110.30251,-7.57657],[110.30249,-7.57655],[110.30244,-7.57653],[110.3024,-7.57653],[110.30236,-7.57658],[110.30234,-7.57661],[110.30232,-7.57662],[110.30228,-7.57663],[110.30227,-7.57662],[110.30224,-7.57657],[110.3021,-7.57647],[110.30207,-7.57642],[110.30205,-7.57636],[110.30206,-7.57629],[110.30207,-7.5762],[110.30202,-7.57618],[110.30201,-7.57618],[110.30196,-7.57615],[110.30175,-7.57604],[110.30155,-7.57591],[110.30138,-7.57577],[110.30127,-7.57567],[110.30118,-7.57559],[110.30106,-7.5754],[110.30105,-7.57533],[110.30105,-7.57509],[110.30104,-7.575],[110.30108,-7.57493],[110.30114,-7.57483],[110.30121,-7.57471],[110.30126,-7.57465],[110.3013,-7.57455],[110.30133,-7.57449],[110.30135,-7.57444],[110.30139,-7.57438],[110.3015,-7.5742],[110.30153,-7.57415],[110.30107,-7.57381],[110.30114,-7.57363],[110.30086,-7.57336],[110.30083,-7.57329],[110.3008,-7.57325],[110.30077,-7.57318],[110.30072,-7.57312],[110.30069,-7.57309],[110.30063,-7.57307],[110.30053,-7.57303],[110.3005,-7.57301],[110.30045,-7.573],[110.30038,-7.573],[110.3003,-7.57302],[110.30018,-7.57316],[110.30013,-7.57325],[110.30005,-7.57334],[110.2999,-7.57353],[110.29982,-7.5736],[110.29972,-7.5737],[110.29967,-7.57374],[110.2996,-7.5738],[110.29946,-7.57389],[110.29935,-7.57383],[110.29923,-7.57376],[110.2992,-7.57369],[110.29919,-7.57367],[110.29917,-7.5736],[110.29917,-7.57352],[110.29914,-7.57347],[110.29911,-7.57343],[110.29908,-7.57337],[110.29907,-7.57333],[110.29905,-7.57324],[110.29903,-7.5732],[110.29901,-7.57317],[110.299,-7.57313],[110.299,-7.57311],[110.29899,-7.57308],[110.29899,-7.57305],[110.299,-7.57303],[110.299,-7.57297],[110.29899,-7.57295],[110.29897,-7.57293],[110.29893,-7.57293],[110.29892,-7.57292],[110.29889,-7.57292],[110.29888,-7.57291],[110.29884,-7.57279],[110.29878,-7.57265],[110.29875,-7.57253],[110.29871,-7.5724],[110.2987,-7.57239],[110.29869,-7.57237],[110.29861,-7.57216],[110.29862,-7.57215],[110.29863,-7.57215],[110.2987,-7.57208],[110.29875,-7.57202],[110.29884,-7.57193],[110.29889,-7.57187],[110.29894,-7.57183],[110.29899,-7.57178],[110.29904,-7.57172],[110.2995,-7.57122],[110.29958,-7.57114],[110.29976,-7.57095],[110.29979,-7.57091],[110.2998,-7.5709],[110.29996,-7.57072],[110.29998,-7.57069],[110.3,-7.57067],[110.29996,-7.57066],[110.29991,-7.57063],[110.29988,-7.57058],[110.29985,-7.57054],[110.29983,-7.57051],[110.29977,-7.57045],[110.29974,-7.57043],[110.29972,-7.5704],[110.29966,-7.5703],[110.29962,-7.57024],[110.29961,-7.57019],[110.29961,-7.57015],[110.29964,-7.5701],[110.29967,-7.57006],[110.2997,-7.57],[110.29971,-7.56995],[110.29973,-7.56984],[110.29977,-7.56973],[110.29981,-7.56961],[110.29982,-7.56957],[110.29982,-7.56954],[110.29978,-7.56945],[110.29976,-7.56939],[110.29975,-7.56934],[110.29975,-7.5693],[110.29979,-7.56924],[110.29983,-7.56921],[110.29997,-7.56915],[110.30002,-7.5691],[110.30002,-7.56897],[110.30001,-7.56879],[110.30001,-7.56876],[110.3,-7.56871],[110.30002,-7.56862],[110.30006,-7.56852],[110.30012,-7.56841],[110.30016,-7.56828],[110.30016,-7.56812],[110.30011,-7.56802],[110.30007,-7.56798],[110.30001,-7.56795],[110.29992,-7.56791],[110.29981,-7.56791],[110.29972,-7.56794],[110.29962,-7.56804],[110.29954,-7.56811],[110.29949,-7.56812],[110.29934,-7.56811],[110.2993,-7.56811],[110.29924,-7.5681],[110.29921,-7.5681],[110.29913,-7.56811],[110.299,-7.56813],[110.29896,-7.56813],[110.2989,-7.56815],[110.29888,-7.56816],[110.29878,-7.56816],[110.29873,-7.56813],[110.29871,-7.56807],[110.29869,-7.56803],[110.29867,-7.56797],[110.29867,-7.56786],[110.29865,-7.56784],[110.29864,-7.56784],[110.2986,-7.56778],[110.2986,-7.56772],[110.29861,-7.56769],[110.2986,-7.56767],[110.29858,-7.56766],[110.29854,-7.56762],[110.29853,-7.5676],[110.29853,-7.56757],[110.29856,-7.56751],[110.29861,-7.56745],[110.29866,-7.56736],[110.2987,-7.56726],[110.29874,-7.5672],[110.29875,-7.56718],[110.29875,-7.56712],[110.29874,-7.56708],[110.29872,-7.56705],[110.29864,-7.56697],[110.29864,-7.56688],[110.29861,-7.56685],[110.29859,-7.56682],[110.29856,-7.56679],[110.29852,-7.56677],[110.29848,-7.56676],[110.29834,-7.56676],[110.29828,-7.56675],[110.29819,-7.56675],[110.29816,-7.56677],[110.29812,-7.5668],[110.29805,-7.56684],[110.29801,-7.56684],[110.29797,-7.56681],[110.2979,-7.56675],[110.29786,-7.56671],[110.29783,-7.56667],[110.29777,-7.56661],[110.29775,-7.56655],[110.29772,-7.56648],[110.29767,-7.56645],[110.29764,-7.56642],[110.29759,-7.56639],[110.29756,-7.56637],[110.29754,-7.56636],[110.29751,-7.5663],[110.29749,-7.56625],[110.29749,-7.56622],[110.2975,-7.56618],[110.29753,-7.56614],[110.29754,-7.56613],[110.29761,-7.56596],[110.29761,-7.5659],[110.29763,-7.56584],[110.29768,-7.56581],[110.2977,-7.56578],[110.29776,-7.56572],[110.29781,-7.56565],[110.29785,-7.56559],[110.2979,-7.56553],[110.29792,-7.56547],[110.29796,-7.5654],[110.29799,-7.56535],[110.29804,-7.56527],[110.29806,-7.56523],[110.29808,-7.56522],[110.29811,-7.56521],[110.29819,-7.56518],[110.29826,-7.56517],[110.29832,-7.5652],[110.29841,-7.56517],[110.29845,-7.56516],[110.29858,-7.56509],[110.29865,-7.56507],[110.29879,-7.56505],[110.2989,-7.56504],[110.29898,-7.56502],[110.29909,-7.56498],[110.29912,-7.56496],[110.29917,-7.56493],[110.29923,-7.56485],[110.29925,-7.56482],[110.29927,-7.5648],[110.29937,-7.56473],[110.29948,-7.56466],[110.29957,-7.56459],[110.29966,-7.56447],[110.29966,-7.56445],[110.29964,-7.56443],[110.29959,-7.56442],[110.2995,-7.56434],[110.29954,-7.56428],[110.2994,-7.56418],[110.29928,-7.5641],[110.29924,-7.56405],[110.29914,-7.56389],[110.29905,-7.56378],[110.29896,-7.56368],[110.29888,-7.56357],[110.29884,-7.56365],[110.2988,-7.56368],[110.29876,-7.5637],[110.29873,-7.56372],[110.29866,-7.56372],[110.29857,-7.5637],[110.29835,-7.5637],[110.29861,-7.56336],[110.29873,-7.56318],[110.2989,-7.56292],[110.29916,-7.56235],[110.29925,-7.56226],[110.29934,-7.56218],[110.29959,-7.56203],[110.29966,-7.56198],[110.29972,-7.5619],[110.29973,-7.56183],[110.29981,-7.56162],[110.29982,-7.5616],[110.29991,-7.56147],[110.3,-7.56137],[110.30015,-7.56123],[110.30025,-7.56118],[110.30044,-7.56106],[110.30051,-7.56099],[110.30062,-7.56091],[110.30069,-7.5608],[110.30075,-7.56071],[110.30082,-7.56062],[110.30093,-7.56051],[110.30101,-7.56045],[110.30112,-7.56037],[110.30124,-7.56031],[110.30131,-7.56027],[110.30143,-7.56024],[110.30146,-7.56024],[110.30157,-7.56031],[110.30172,-7.56023],[110.30178,-7.56018],[110.30183,-7.56016],[110.30195,-7.56014],[110.30204,-7.56014],[110.30214,-7.5601],[110.3022,-7.56008],[110.30228,-7.56002],[110.30235,-7.55998],[110.3024,-7.55995],[110.30248,-7.55992],[110.30253,-7.5599],[110.30263,-7.55989],[110.30271,-7.55988],[110.30283,-7.55989],[110.30301,-7.5599],[110.30318,-7.55991],[110.30328,-7.5599],[110.30334,-7.55985],[110.30338,-7.55982],[110.30343,-7.55979],[110.30353,-7.55976],[110.30357,-7.55971],[110.30359,-7.55968],[110.30372,-7.55967],[110.30385,-7.55962],[110.30381,-7.55949],[110.30379,-7.55945],[110.30379,-7.55939],[110.3038,-7.55936],[110.30381,-7.55932],[110.30382,-7.55929],[110.30383,-7.55927],[110.30383,-7.55924],[110.30384,-7.55921],[110.30383,-7.55917],[110.30382,-7.55911],[110.30379,-7.55907],[110.30378,-7.55906],[110.30377,-7.55903],[110.30377,-7.55899],[110.30378,-7.55895],[110.3038,-7.55892],[110.30382,-7.55888],[110.30393,-7.55877],[110.30398,-7.55873],[110.30403,-7.55872],[110.30407,-7.55871],[110.30412,-7.55869],[110.30416,-7.55868],[110.30419,-7.55866],[110.30421,-7.55863],[110.30424,-7.55856],[110.30425,-7.55853],[110.30427,-7.55845],[110.30427,-7.55842],[110.3043,-7.55835],[110.30432,-7.55831],[110.30434,-7.5583],[110.30436,-7.55826],[110.30436,-7.55819],[110.30439,-7.55816],[110.3044,-7.55814],[110.30441,-7.55811],[110.30441,-7.55809],[110.3044,-7.55807],[110.30438,-7.55805],[110.30437,-7.55803],[110.30436,-7.55803],[110.30435,-7.55801],[110.30435,-7.55796],[110.30436,-7.55794],[110.30438,-7.55792],[110.30439,-7.55789],[110.30439,-7.55783],[110.30438,-7.55774],[110.30435,-7.55761],[110.30436,-7.55756],[110.3044,-7.55744],[110.30444,-7.55737],[110.30447,-7.55728],[110.30448,-7.55721],[110.30449,-7.55715],[110.30449,-7.5571],[110.30451,-7.55705],[110.30453,-7.55695],[110.30455,-7.55692],[110.30459,-7.55689],[110.30469,-7.55687],[110.30478,-7.55687],[110.30483,-7.55686],[110.30488,-7.55683],[110.30498,-7.55675],[110.30506,-7.55666],[110.30514,-7.55656],[110.30518,-7.55652],[110.30532,-7.55641],[110.30549,-7.5563],[110.30556,-7.55627],[110.30564,-7.55623],[110.30574,-7.5562],[110.30577,-7.55619],[110.30582,-7.55615],[110.30586,-7.55608],[110.30592,-7.55595],[110.30607,-7.55577],[110.30612,-7.55574],[110.30617,-7.55568],[110.30623,-7.55563],[110.30644,-7.55551],[110.30661,-7.55541],[110.30675,-7.55533],[110.30677,-7.55531],[110.30692,-7.55525],[110.30715,-7.55516],[110.30728,-7.55509],[110.30734,-7.55506],[110.30733,-7.55504],[110.30724,-7.5549],[110.30718,-7.5548],[110.30713,-7.55473],[110.30704,-7.55463],[110.30699,-7.55459],[110.30695,-7.55456],[110.3069,-7.55455],[110.3068,-7.55451],[110.30679,-7.55451],[110.30673,-7.5545],[110.30666,-7.55446],[110.30662,-7.55443],[110.30659,-7.55442],[110.30658,-7.55439],[110.30657,-7.55434],[110.30658,-7.55429],[110.30661,-7.55421],[110.30662,-7.55416],[110.30664,-7.55402],[110.30662,-7.55392],[110.30659,-7.55387],[110.30652,-7.55381],[110.30645,-7.55376],[110.30642,-7.55372],[110.3064,-7.55369],[110.30636,-7.55366],[110.3063,-7.55366],[110.30626,-7.55369],[110.3062,-7.55375],[110.30618,-7.55376],[110.30615,-7.55376],[110.30614,-7.55373],[110.30614,-7.55369],[110.30617,-7.55363],[110.30618,-7.55359],[110.30618,-7.55355],[110.30614,-7.5535],[110.30613,-7.55348],[110.30611,-7.55346],[110.30609,-7.55346],[110.30606,-7.55345],[110.30605,-7.55346],[110.30603,-7.55347],[110.306,-7.55347],[110.30597,-7.55344],[110.30597,-7.55342],[110.30604,-7.55335],[110.30608,-7.55328],[110.30611,-7.55323],[110.30614,-7.55314],[110.30617,-7.55303],[110.30618,-7.55289],[110.30615,-7.5528],[110.30615,-7.55253],[110.30613,-7.55241],[110.30611,-7.5523],[110.30608,-7.55226],[110.30605,-7.55225],[110.30601,-7.55226],[110.30593,-7.55227],[110.3058,-7.5523],[110.30574,-7.55232],[110.30568,-7.55233],[110.30563,-7.55234],[110.3054,-7.55234],[110.30529,-7.55233],[110.30525,-7.55232],[110.30521,-7.55232],[110.30515,-7.55231],[110.30505,-7.55232],[110.30498,-7.55234],[110.30488,-7.55238],[110.30472,-7.55248],[110.30462,-7.55252],[110.30463,-7.55246],[110.30466,-7.55244],[110.30472,-7.55242],[110.30473,-7.55239],[110.30473,-7.55236],[110.30472,-7.55233],[110.30472,-7.55224],[110.30475,-7.55216],[110.30476,-7.55212],[110.3048,-7.55207],[110.30484,-7.55203],[110.30487,-7.55201],[110.30495,-7.55194],[110.30497,-7.55192],[110.30503,-7.55192],[110.30509,-7.55191],[110.30513,-7.55189],[110.30511,-7.55186],[110.30508,-7.55184],[110.30505,-7.55183],[110.30501,-7.55181],[110.30496,-7.55179],[110.30492,-7.55177],[110.30488,-7.55176],[110.30483,-7.55171],[110.30497,-7.55141],[110.30499,-7.55134],[110.305,-7.55132],[110.30503,-7.55127],[110.30506,-7.55124],[110.30514,-7.5512],[110.30517,-7.55118],[110.30521,-7.55114],[110.30523,-7.5511],[110.3052,-7.55101],[110.30515,-7.55097],[110.30514,-7.55098],[110.30505,-7.55104],[110.30503,-7.55105],[110.30501,-7.55105],[110.305,-7.55104],[110.30499,-7.55104],[110.30496,-7.55103],[110.30495,-7.55103],[110.30485,-7.55091],[110.30477,-7.55078],[110.30474,-7.55073],[110.30478,-7.55044],[110.30493,-7.5502],[110.305,-7.55007],[110.30506,-7.55005],[110.3051,-7.55004],[110.30516,-7.55002],[110.30523,-7.54999],[110.3053,-7.54995],[110.30536,-7.54989],[110.30543,-7.54983],[110.30548,-7.54977],[110.30549,-7.54969],[110.30551,-7.54963],[110.30557,-7.54956],[110.30562,-7.54953],[110.30578,-7.54949],[110.3059,-7.54947],[110.30599,-7.54948],[110.30606,-7.54946],[110.30611,-7.54942],[110.30614,-7.54938],[110.30619,-7.54932],[110.30623,-7.54928],[110.30631,-7.54918],[110.30633,-7.54913],[110.30638,-7.54907],[110.30641,-7.54903],[110.30645,-7.549],[110.30654,-7.54889],[110.3066,-7.54883],[110.30663,-7.54881],[110.30673,-7.54881],[110.30675,-7.54882],[110.30678,-7.54882],[110.30682,-7.54881],[110.30686,-7.54879],[110.30694,-7.54871],[110.30701,-7.54866],[110.30707,-7.54852],[110.30713,-7.54848],[110.3072,-7.54846],[110.30723,-7.54843],[110.30728,-7.54837],[110.30732,-7.54831],[110.30733,-7.54828],[110.30733,-7.54826],[110.30731,-7.54825],[110.30727,-7.54824],[110.30722,-7.54824],[110.3072,-7.54823],[110.30719,-7.5482],[110.30716,-7.54817],[110.30711,-7.54813],[110.30704,-7.54811],[110.30703,-7.54807],[110.30702,-7.54795],[110.307,-7.54791],[110.30698,-7.54788],[110.30695,-7.54784],[110.30694,-7.54781],[110.30694,-7.54777],[110.30696,-7.54773],[110.30702,-7.54767],[110.30705,-7.54765],[110.30708,-7.54764],[110.30709,-7.54763],[110.30709,-7.54761],[110.30707,-7.5476],[110.30706,-7.5476],[110.30705,-7.54758],[110.30705,-7.54756],[110.30704,-7.54754],[110.30702,-7.54753],[110.30695,-7.54753],[110.30692,-7.54752],[110.30691,-7.54751],[110.30692,-7.54749],[110.30695,-7.54746],[110.30696,-7.54742],[110.30697,-7.5474],[110.30698,-7.54737],[110.30699,-7.54735],[110.30699,-7.54726],[110.30701,-7.54725],[110.30709,-7.54725],[110.30713,-7.54723],[110.30716,-7.54715],[110.30714,-7.54705],[110.30713,-7.54697],[110.30714,-7.54691],[110.30716,-7.54686],[110.30635,-7.5469],[110.30553,-7.54698],[110.30485,-7.54703],[110.30429,-7.54728],[110.30411,-7.54736],[110.30391,-7.54765],[110.30367,-7.54798],[110.30361,-7.54807],[110.30343,-7.54817],[110.30291,-7.54847],[110.30104,-7.54969],[110.30016,-7.55047],[110.29917,-7.55099],[110.29842,-7.55138],[110.29788,-7.55179],[110.29753,-7.55206],[110.29708,-7.55229],[110.29636,-7.5526],[110.29561,-7.5531],[110.29436,-7.55423],[110.29369,-7.5547],[110.29349,-7.55485],[110.29194,-7.55517],[110.29166,-7.55523],[110.29071,-7.55561],[110.29004,-7.5559],[110.2897,-7.5561],[110.28937,-7.55636],[110.28919,-7.5565],[110.28895,-7.5567],[110.28871,-7.55677],[110.28857,-7.55681],[110.28814,-7.55696],[110.28769,-7.55708],[110.28723,-7.55733],[110.28683,-7.5577],[110.2866,-7.55803],[110.2866,-7.55806],[110.28655,-7.55865],[110.28648,-7.55882],[110.28636,-7.55895],[110.28619,-7.55904],[110.28606,-7.55913],[110.28601,-7.55931],[110.28607,-7.55966],[110.28616,-7.56007],[110.28602,-7.56053],[110.28585,-7.561],[110.28578,-7.56103],[110.28554,-7.56117],[110.28505,-7.56127],[110.28465,-7.56129],[110.28423,-7.56124],[110.28371,-7.56118],[110.28326,-7.56108],[110.28297,-7.56101],[110.28277,-7.56104],[110.28252,-7.56113],[110.28227,-7.5611],[110.28195,-7.56115],[110.28177,-7.56117],[110.28147,-7.56129],[110.28128,-7.56145],[110.28123,-7.56149],[110.28093,-7.56172],[110.28077,-7.56184],[110.28068,-7.56202],[110.28054,-7.56237],[110.28048,-7.56256],[110.28043,-7.56271],[110.28036,-7.56296],[110.28035,-7.56303],[110.28029,-7.56331],[110.28016,-7.56378],[110.2801,-7.56391],[110.27999,-7.56415],[110.27998,-7.56417],[110.27996,-7.56423],[110.27989,-7.56436],[110.27972,-7.56451],[110.27935,-7.56457],[110.27926,-7.56458],[110.27899,-7.56458],[110.27888,-7.56459],[110.27824,-7.56466],[110.27821,-7.56467],[110.27813,-7.56468],[110.27812,-7.56468],[110.27784,-7.56476],[110.27779,-7.56477],[110.2777,-7.5648],[110.27726,-7.56494],[110.27722,-7.56496],[110.27697,-7.56507],[110.27684,-7.56512],[110.27659,-7.56524],[110.27645,-7.56529],[110.27594,-7.56554],[110.27566,-7.56578],[110.27543,-7.56612],[110.27532,-7.5664],[110.27531,-7.56642],[110.2753,-7.56643],[110.2751,-7.56667],[110.27489,-7.56697],[110.27453,-7.56739],[110.27452,-7.5674],[110.27433,-7.56758],[110.27411,-7.56783],[110.27398,-7.56804],[110.27379,-7.56831],[110.27362,-7.56871],[110.27361,-7.56876],[110.27349,-7.56908],[110.27348,-7.56911],[110.27347,-7.56917],[110.27339,-7.56944],[110.27329,-7.56959],[110.27328,-7.5696],[110.27324,-7.56965],[110.27287,-7.56995],[110.27267,-7.57007],[110.27242,-7.57029],[110.27238,-7.57035],[110.27223,-7.57054],[110.27216,-7.57064],[110.27206,-7.57078],[110.27199,-7.57095],[110.27192,-7.57111],[110.27168,-7.57149],[110.2716,-7.57162],[110.27149,-7.57171],[110.27101,-7.57208],[110.271,-7.57209],[110.27093,-7.57215],[110.27086,-7.5722],[110.27044,-7.57251],[110.27012,-7.57269],[110.26973,-7.57301],[110.26965,-7.57307],[110.26962,-7.57309],[110.26945,-7.57327],[110.26924,-7.57371],[110.26917,-7.57417],[110.26915,-7.57433],[110.26914,-7.57435],[110.26908,-7.57448],[110.26908,-7.57449],[110.26907,-7.57458],[110.26897,-7.57477],[110.26883,-7.57483],[110.26869,-7.57487],[110.26846,-7.57481],[110.26843,-7.5748],[110.26811,-7.57471],[110.26784,-7.57463],[110.26777,-7.57463],[110.26751,-7.57462],[110.26743,-7.57463],[110.26736,-7.57464],[110.26718,-7.57474],[110.26696,-7.57494],[110.26644,-7.57529],[110.26626,-7.57544],[110.26624,-7.57545],[110.26571,-7.57572],[110.26564,-7.57576],[110.26562,-7.57577],[110.26533,-7.57597],[110.26508,-7.57614],[110.26467,-7.5765],[110.26437,-7.57674],[110.26435,-7.57675],[110.26424,-7.57685],[110.26428,-7.57699],[110.26403,-7.57718],[110.26389,-7.57731],[110.26378,-7.57738],[110.26349,-7.57754],[110.26324,-7.57773],[110.26292,-7.57798],[110.26236,-7.57844],[110.26234,-7.57845],[110.26208,-7.57869],[110.26197,-7.57883],[110.26183,-7.57898],[110.26168,-7.57916],[110.26139,-7.57932],[110.26125,-7.57938],[110.26106,-7.57951],[110.26065,-7.57998],[110.26042,-7.58026],[110.2601,-7.58059],[110.26001,-7.58067],[110.25973,-7.58084],[110.25972,-7.58084],[110.25961,-7.5809],[110.25917,-7.58119],[110.2589,-7.58144],[110.25884,-7.58151],[110.25882,-7.58154],[110.25864,-7.58176],[110.25846,-7.58217],[110.25829,-7.58244],[110.258,-7.5827],[110.25778,-7.58288],[110.25753,-7.5831],[110.25727,-7.58331],[110.25718,-7.58336],[110.25688,-7.58354],[110.25668,-7.58362],[110.25652,-7.58375],[110.25639,-7.58394],[110.2563,-7.58404],[110.25629,-7.58405],[110.25627,-7.58409],[110.25623,-7.58419],[110.2562,-7.58437],[110.2562,-7.58448],[110.25619,-7.58457],[110.25618,-7.58472],[110.25618,-7.58475],[110.25613,-7.58496],[110.25613,-7.58497],[110.25606,-7.58511],[110.25602,-7.58517],[110.25592,-7.58528],[110.2558,-7.5854],[110.25562,-7.58554],[110.2556,-7.58556],[110.2554,-7.58572],[110.25537,-7.58575],[110.25523,-7.58587],[110.25519,-7.58592],[110.25512,-7.58604],[110.25501,-7.58623],[110.25495,-7.58646],[110.25488,-7.58669],[110.25481,-7.58668],[110.25474,-7.58668],[110.2546,-7.5867],[110.25435,-7.58694],[110.25415,-7.58721],[110.25399,-7.58742],[110.25384,-7.58756],[110.2539,-7.58768],[110.25351,-7.58799],[110.25332,-7.58811],[110.25314,-7.58824],[110.25307,-7.58829],[110.25277,-7.58851],[110.25251,-7.5887],[110.25244,-7.58882],[110.25228,-7.58909],[110.2521,-7.58922],[110.25199,-7.58929],[110.25192,-7.58932],[110.25185,-7.58924],[110.25181,-7.58919],[110.25165,-7.58941],[110.25153,-7.58955],[110.2514,-7.58965],[110.25126,-7.58978],[110.25093,-7.59003],[110.25085,-7.59011],[110.25083,-7.59015],[110.25077,-7.59029],[110.25075,-7.59041],[110.25075,-7.59058],[110.25076,-7.59071],[110.25079,-7.59075],[110.25043,-7.59082],[110.25016,-7.59089],[110.25005,-7.59092],[110.24986,-7.59098],[110.2498,-7.591],[110.24964,-7.59108],[110.24942,-7.5913],[110.24931,-7.59142],[110.24924,-7.5915],[110.24913,-7.59144],[110.24907,-7.5914],[110.24887,-7.59147],[110.24878,-7.59155],[110.24872,-7.59168],[110.2487,-7.59184],[110.2487,-7.59186],[110.24876,-7.59203],[110.24876,-7.59204],[110.24889,-7.59224],[110.24887,-7.59234],[110.24884,-7.5925],[110.24884,-7.59257],[110.24885,-7.59277],[110.24875,-7.59345],[110.24868,-7.59358],[110.24857,-7.59366],[110.2485,-7.59371],[110.24834,-7.59378],[110.2482,-7.59381],[110.24807,-7.59386],[110.2479,-7.59403],[110.24779,-7.5942],[110.24774,-7.5945],[110.24771,-7.59462],[110.24769,-7.59472],[110.24763,-7.59483],[110.2476,-7.59486],[110.24736,-7.59512],[110.24721,-7.59532],[110.24706,-7.5955],[110.24701,-7.59557],[110.24698,-7.59561],[110.24693,-7.59569],[110.24688,-7.59578],[110.24676,-7.59619],[110.24674,-7.59625],[110.24664,-7.59666],[110.24659,-7.59698],[110.24642,-7.59754],[110.24634,-7.59776],[110.24629,-7.59782],[110.2461,-7.59806],[110.24604,-7.59826],[110.24603,-7.59842],[110.24605,-7.59872],[110.24606,-7.59886],[110.24605,-7.59901],[110.24604,-7.59905],[110.24596,-7.59919],[110.24595,-7.59922],[110.24577,-7.59958],[110.24573,-7.59964],[110.24553,-7.59957],[110.24538,-7.59973],[110.24529,-7.59988],[110.24521,-7.59997],[110.24518,-7.60027],[110.24495,-7.6004],[110.24481,-7.6003],[110.2447,-7.60019],[110.2444,-7.60052],[110.24436,-7.60049],[110.24431,-7.60044],[110.24431,-7.60035],[110.24418,-7.6003],[110.24406,-7.60024],[110.24403,-7.6005],[110.24405,-7.60073],[110.24406,-7.60087],[110.24408,-7.60114],[110.24427,-7.60113],[110.24412,-7.60136],[110.24408,-7.60148],[110.24408,-7.60156],[110.24399,-7.60193],[110.24387,-7.60201],[110.24372,-7.60212],[110.24355,-7.60221],[110.24344,-7.60226],[110.24334,-7.60229],[110.24326,-7.60229],[110.24315,-7.60228],[110.24308,-7.60227],[110.243,-7.6023],[110.24293,-7.60234],[110.24288,-7.60238],[110.24284,-7.60243],[110.24282,-7.60252],[110.2428,-7.6026],[110.24279,-7.60265],[110.24278,-7.60269],[110.24277,-7.60272],[110.24268,-7.60282],[110.2426,-7.60289],[110.24248,-7.60298],[110.24235,-7.60311],[110.24213,-7.60337],[110.24197,-7.60358],[110.24182,-7.60374],[110.24166,-7.60389],[110.24136,-7.60424],[110.24123,-7.60436],[110.24117,-7.60441],[110.24109,-7.60448],[110.241,-7.60455],[110.24099,-7.60455],[110.24096,-7.60459],[110.24077,-7.60474],[110.2407,-7.60487],[110.2407,-7.60488],[110.24069,-7.60495],[110.24069,-7.60511],[110.24063,-7.60523],[110.24059,-7.60533],[110.24055,-7.60542],[110.2405,-7.60551],[110.24042,-7.60569],[110.24036,-7.60589],[110.24035,-7.606],[110.24037,-7.60617],[110.24035,-7.60629],[110.24033,-7.60639],[110.24027,-7.60663],[110.24021,-7.60674],[110.24005,-7.6068],[110.23993,-7.60683],[110.23986,-7.60684],[110.23962,-7.60693],[110.23938,-7.60704],[110.23896,-7.60722],[110.2388,-7.60729],[110.23863,-7.60739],[110.23853,-7.60748],[110.23849,-7.60757],[110.23844,-7.60767],[110.23841,-7.60784],[110.2384,-7.60805],[110.2384,-7.60808],[110.23833,-7.60827],[110.23802,-7.60866],[110.23786,-7.60903],[110.23774,-7.60917],[110.23759,-7.6093],[110.23738,-7.60941],[110.23687,-7.60962],[110.23679,-7.60966],[110.23674,-7.6097],[110.2367,-7.60975],[110.23664,-7.60984],[110.23662,-7.60985],[110.23655,-7.61],[110.23654,-7.61003],[110.23654,-7.61012],[110.23653,-7.61019],[110.23652,-7.61037]]]}}]}