{"type":"FeatureCollection","features":[{"type":"Feature","properties":{"KECAMATAN":"Ngablak"},"geometry":{"type":"Polygon","coordinates":[[[110.33919,-7.40595],[110.33923,-7.40604],[110.33935,-7.40632],[110.33936,-7.40633],[110.33948,-7.40657],[110.33949,-7.40657],[110.34002,-7.40707],[110.34041,-7.40752],[110.34082,-7.40814],[110.3412,-7.4091],[110.34126,-7.40932],[110.34155,-7.41037],[110.34155,-7.41038],[110.34177,-7.41111],[110.34194,-7.41143],[110.3424,-7.41199],[110.34295,-7.41225],[110.34342,-7.41242],[110.34341,-7.41242],[110.34324,-7.41249],[110.34331,-7.41289],[110.34329,-7.41318],[110.34336,-7.41362],[110.34358,-7.41415],[110.34364,-7.41418],[110.34388,-7.41426],[110.34406,-7.41433],[110.34418,-7.41438],[110.34419,-7.41491],[110.34421,-7.4152],[110.34427,-7.41553],[110.34435,-7.4159],[110.34444,-7.416],[110.34464,-7.41622],[110.34492,-7.41646],[110.34528,-7.41682],[110.34543,-7.41707],[110.34543,-7.41708],[110.34545,-7.41716],[110.3455,-7.41733],[110.34556,-7.41763],[110.34559,-7.41776],[110.34562,-7.41794],[110.34587,-7.41818],[110.34599,-7.41824],[110.34615,-7.41828],[110.3463,-7.41833],[110.34654,-7.41838],[110.34687,-7.41842],[110.34718,-7.41854],[110.34758,-7.41889],[110.34756,-7.41915],[110.34717,-7.41913],[110.3472,-7.41933],[110.34722,-7.41947],[110.34724,-7.41962],[110.34772,-7.41966],[110.34856,-7.41979],[110.34859,-7.41981],[110.34868,-7.41982],[110.34884,-7.41983],[110.34908,-7.41987],[110.34931,-7.41993],[110.34947,-7.41999],[110.34963,-7.42004],[110.34965,-7.42005],[110.34977,-7.42008],[110.35005,-7.42013],[110.35032,-7.42019],[110.35055,-7.42024],[110.35059,-7.42025],[110.35066,-7.42026],[110.35097,-7.42026],[110.35119,-7.42024],[110.3514,-7.42023],[110.35141,-7.42023],[110.35156,-7.42022],[110.35174,-7.4202],[110.3521,-7.4202],[110.35223,-7.42021],[110.35238,-7.42023],[110.3525,-7.42024],[110.35277,-7.42029],[110.35297,-7.42033],[110.35299,-7.42034],[110.35321,-7.42037],[110.35349,-7.42039],[110.35352,-7.4204],[110.35359,-7.4204],[110.35384,-7.42041],[110.35397,-7.4204],[110.35412,-7.42038],[110.35422,-7.42037],[110.35423,-7.42037],[110.3545,-7.4203],[110.35458,-7.42028],[110.3547,-7.42027],[110.35471,-7.42027],[110.35475,-7.42028],[110.35479,-7.42028],[110.35489,-7.4203],[110.35489,-7.42031],[110.35494,-7.42033],[110.35498,-7.42035],[110.35512,-7.42043],[110.35528,-7.42056],[110.35529,-7.42056],[110.35553,-7.42066],[110.35572,-7.42075],[110.35584,-7.42081],[110.35598,-7.42092],[110.35613,-7.42107],[110.35627,-7.42114],[110.35628,-7.42114],[110.35636,-7.42117],[110.35654,-7.42117],[110.35658,-7.42116],[110.35692,-7.42114],[110.35718,-7.42112],[110.35732,-7.42112],[110.35745,-7.42114],[110.35754,-7.42116],[110.35776,-7.42116],[110.35797,-7.42112],[110.35821,-7.42105],[110.35823,-7.42105],[110.35846,-7.42099],[110.35874,-7.42095],[110.35895,-7.42093],[110.35906,-7.42091],[110.35923,-7.42089],[110.35937,-7.42084],[110.35953,-7.4208],[110.35961,-7.42079],[110.35971,-7.4208],[110.35981,-7.42083],[110.35997,-7.42087],[110.36016,-7.42095],[110.36027,-7.42101],[110.36036,-7.42107],[110.3604,-7.4211],[110.36048,-7.42118],[110.36052,-7.42125],[110.36053,-7.42124],[110.36087,-7.42121],[110.36105,-7.4212],[110.3612,-7.42118],[110.36135,-7.42117],[110.36138,-7.42116],[110.36166,-7.42116],[110.36196,-7.42117],[110.36211,-7.42119],[110.36223,-7.4212],[110.36251,-7.42123],[110.36277,-7.42125],[110.36313,-7.42126],[110.36366,-7.42127],[110.36382,-7.42128],[110.36399,-7.42164],[110.36421,-7.42167],[110.36437,-7.42168],[110.36462,-7.42168],[110.36492,-7.42165],[110.36506,-7.42159],[110.36518,-7.42153],[110.36532,-7.42147],[110.36549,-7.42138],[110.36586,-7.42119],[110.366,-7.42116],[110.36612,-7.42113],[110.36627,-7.42112],[110.36643,-7.42111],[110.36658,-7.42111],[110.36685,-7.42114],[110.36717,-7.42123],[110.36729,-7.42125],[110.36732,-7.42124],[110.36744,-7.42121],[110.36766,-7.42116],[110.36781,-7.42112],[110.36824,-7.42098],[110.36859,-7.42087],[110.36871,-7.4208],[110.369,-7.42073],[110.36927,-7.42073],[110.36942,-7.42076],[110.36978,-7.4208],[110.37013,-7.42087],[110.37044,-7.42089],[110.37056,-7.42088],[110.37062,-7.42087],[110.37081,-7.42084],[110.37115,-7.42072],[110.37156,-7.42055],[110.37252,-7.42044],[110.37304,-7.42012],[110.37304,-7.41987],[110.37294,-7.41966],[110.37267,-7.41959],[110.37259,-7.41939],[110.37272,-7.41922],[110.37275,-7.41921],[110.37297,-7.41915],[110.37301,-7.41914],[110.37331,-7.41907],[110.37402,-7.4187],[110.37417,-7.41845],[110.37415,-7.41832],[110.37412,-7.41812],[110.37408,-7.41785],[110.37416,-7.4176],[110.37427,-7.41749],[110.37469,-7.41757],[110.37477,-7.41759],[110.37532,-7.41758],[110.37589,-7.41758],[110.37628,-7.41753],[110.37656,-7.41749],[110.3768,-7.41746],[110.3769,-7.41745],[110.37693,-7.41745],[110.37716,-7.41746],[110.37738,-7.41759],[110.37747,-7.41766],[110.37764,-7.41777],[110.37774,-7.41782],[110.37789,-7.4179],[110.37807,-7.41797],[110.37819,-7.41804],[110.37834,-7.41812],[110.37849,-7.41815],[110.37865,-7.41819],[110.3789,-7.41824],[110.37909,-7.41828],[110.37927,-7.41831],[110.3793,-7.41832],[110.37933,-7.41832],[110.37951,-7.41834],[110.37961,-7.41833],[110.37967,-7.41832],[110.37971,-7.41832],[110.37975,-7.4183],[110.37984,-7.41827],[110.38004,-7.41813],[110.38007,-7.41811],[110.38015,-7.41806],[110.38026,-7.41801],[110.3803,-7.41799],[110.3804,-7.41799],[110.38064,-7.41805],[110.38082,-7.41805],[110.38093,-7.418],[110.38098,-7.41797],[110.38115,-7.41791],[110.3812,-7.41789],[110.38121,-7.41788],[110.3815,-7.41785],[110.38163,-7.41786],[110.38175,-7.41786],[110.38193,-7.41787],[110.38231,-7.41783],[110.38232,-7.41783],[110.38246,-7.41794],[110.38251,-7.41809],[110.38262,-7.41835],[110.38283,-7.41879],[110.38287,-7.41899],[110.38293,-7.41927],[110.38298,-7.4194],[110.38328,-7.41937],[110.38368,-7.41925],[110.38385,-7.41919],[110.38409,-7.41911],[110.3843,-7.41913],[110.38443,-7.41918],[110.38445,-7.41919],[110.38462,-7.41925],[110.38497,-7.41948],[110.38533,-7.41961],[110.38564,-7.41976],[110.38571,-7.41996],[110.38581,-7.42023],[110.38582,-7.42049],[110.38582,-7.42054],[110.38581,-7.42068],[110.38577,-7.4209],[110.38567,-7.42113],[110.38561,-7.42117],[110.38548,-7.42124],[110.38533,-7.42133],[110.3851,-7.42145],[110.38509,-7.42149],[110.38506,-7.42158],[110.38499,-7.42176],[110.38493,-7.42193],[110.38487,-7.42206],[110.38461,-7.42219],[110.38445,-7.42228],[110.38423,-7.42231],[110.38399,-7.42235],[110.38384,-7.42239],[110.38377,-7.42243],[110.38368,-7.42249],[110.38351,-7.42266],[110.38333,-7.42285],[110.38296,-7.42314],[110.38277,-7.42327],[110.38254,-7.42345],[110.38251,-7.42347],[110.38222,-7.42369],[110.38197,-7.42383],[110.38184,-7.42386],[110.38173,-7.4241],[110.38173,-7.42422],[110.38175,-7.42438],[110.38176,-7.42439],[110.38187,-7.42448],[110.38197,-7.42456],[110.38242,-7.42459],[110.38263,-7.42466],[110.38283,-7.42475],[110.38299,-7.42484],[110.38317,-7.42489],[110.38334,-7.42486],[110.38363,-7.42485],[110.38393,-7.42488],[110.38412,-7.4249],[110.38424,-7.42489],[110.38434,-7.42483],[110.38446,-7.4247],[110.38458,-7.4246],[110.38468,-7.42452],[110.38476,-7.42452],[110.38495,-7.42459],[110.38504,-7.42467],[110.38508,-7.42469],[110.38518,-7.42475],[110.38529,-7.42475],[110.38536,-7.42471],[110.38539,-7.42467],[110.38548,-7.42453],[110.38555,-7.42448],[110.38565,-7.42448],[110.38575,-7.42455],[110.38593,-7.42465],[110.38609,-7.42473],[110.38616,-7.42476],[110.38629,-7.42475],[110.38641,-7.42465],[110.38645,-7.4246],[110.38654,-7.42453],[110.38658,-7.4245],[110.3867,-7.42451],[110.38683,-7.42454],[110.38692,-7.42459],[110.38705,-7.42466],[110.38712,-7.42469],[110.38721,-7.42467],[110.38738,-7.42461],[110.38772,-7.42454],[110.38808,-7.42451],[110.38843,-7.42441],[110.38868,-7.42427],[110.38881,-7.4242],[110.38889,-7.42415],[110.38925,-7.42396],[110.38958,-7.42384],[110.38981,-7.42376],[110.38997,-7.42373],[110.39001,-7.42373],[110.39021,-7.42375],[110.39034,-7.42378],[110.39044,-7.4238],[110.3905,-7.42388],[110.3906,-7.42401],[110.39076,-7.42411],[110.39103,-7.42415],[110.3912,-7.42413],[110.39121,-7.42413],[110.39139,-7.42406],[110.39152,-7.42405],[110.39179,-7.42406],[110.39213,-7.42401],[110.3932,-7.42401],[110.39347,-7.42406],[110.39397,-7.42425],[110.39443,-7.42444],[110.39458,-7.42451],[110.3946,-7.42452],[110.39461,-7.42466],[110.3948,-7.4247],[110.39484,-7.42473],[110.39492,-7.42478],[110.39521,-7.42489],[110.39547,-7.42497],[110.39597,-7.42511],[110.39651,-7.42523],[110.39659,-7.42527],[110.39705,-7.42545],[110.39736,-7.42558],[110.39779,-7.42563],[110.39829,-7.42569],[110.39895,-7.42569],[110.39931,-7.42567],[110.39945,-7.42567],[110.40021,-7.42568],[110.4004,-7.4257],[110.40052,-7.42572],[110.40076,-7.42585],[110.40115,-7.4261],[110.40151,-7.42613],[110.40196,-7.42613],[110.40251,-7.42637],[110.40293,-7.42665],[110.40368,-7.42721],[110.40381,-7.42731],[110.40347,-7.42756],[110.40346,-7.42757],[110.40338,-7.42764],[110.40295,-7.42802],[110.40294,-7.42802],[110.40294,-7.42803],[110.40266,-7.42846],[110.40265,-7.42848],[110.40242,-7.42878],[110.40226,-7.429],[110.40157,-7.4295],[110.40176,-7.42961],[110.40197,-7.42949],[110.40206,-7.42946],[110.40225,-7.42938],[110.40226,-7.42938],[110.40227,-7.42939],[110.40235,-7.42954],[110.40235,-7.42974],[110.40241,-7.43002],[110.40242,-7.43003],[110.40247,-7.4301],[110.40255,-7.43021],[110.40287,-7.43038],[110.40314,-7.43037],[110.40364,-7.43035],[110.40438,-7.43045],[110.40511,-7.43053],[110.40598,-7.4308],[110.40664,-7.43091],[110.407,-7.43084],[110.40755,-7.43072],[110.40792,-7.43075],[110.40819,-7.43082],[110.40836,-7.43096],[110.40852,-7.43103],[110.40903,-7.43109],[110.40936,-7.43106],[110.40972,-7.43094],[110.41004,-7.43074],[110.41039,-7.43057],[110.41062,-7.43058],[110.41084,-7.43065],[110.41116,-7.43079],[110.41158,-7.43096],[110.41201,-7.43106],[110.41252,-7.43106],[110.41265,-7.43104],[110.41295,-7.431],[110.41318,-7.43091],[110.41323,-7.43089],[110.41326,-7.43088],[110.41342,-7.43085],[110.41353,-7.43083],[110.41381,-7.43083],[110.41402,-7.43076],[110.41411,-7.43065],[110.4142,-7.43061],[110.41448,-7.43068],[110.41481,-7.4309],[110.41482,-7.43091],[110.41488,-7.43111],[110.41498,-7.43136],[110.41506,-7.43145],[110.41527,-7.4317],[110.41546,-7.43186],[110.41592,-7.43259],[110.41638,-7.43322],[110.41691,-7.43337],[110.41748,-7.43357],[110.41829,-7.43414],[110.41926,-7.43471],[110.41963,-7.43491],[110.42017,-7.43521],[110.42131,-7.43549],[110.42192,-7.43575],[110.42252,-7.43629],[110.42354,-7.43693],[110.42482,-7.43813],[110.42571,-7.43866],[110.42775,-7.43959],[110.42784,-7.43962],[110.429,-7.4402],[110.4287,-7.43969],[110.42846,-7.43929],[110.4279,-7.43861],[110.42717,-7.43764],[110.42698,-7.4374],[110.42693,-7.43732],[110.42664,-7.43695],[110.4266,-7.43688],[110.42656,-7.43686],[110.42647,-7.43679],[110.42628,-7.43664],[110.42632,-7.43649],[110.42599,-7.43599],[110.42567,-7.43549],[110.42575,-7.43514],[110.42538,-7.43502],[110.42465,-7.434],[110.42464,-7.434],[110.42441,-7.43345],[110.42441,-7.43333],[110.42442,-7.43292],[110.42442,-7.43291],[110.42445,-7.43226],[110.42437,-7.43173],[110.42432,-7.43121],[110.42432,-7.43039],[110.4243,-7.4301],[110.4242,-7.42971],[110.42376,-7.42918],[110.42374,-7.42917],[110.42361,-7.42909],[110.42319,-7.42884],[110.42318,-7.42884],[110.42317,-7.42883],[110.4229,-7.42858],[110.42285,-7.42821],[110.42255,-7.42799],[110.422,-7.42748],[110.42178,-7.42721],[110.42164,-7.42704],[110.42163,-7.42703],[110.42137,-7.42674],[110.42102,-7.42635],[110.42085,-7.42613],[110.42085,-7.42612],[110.42083,-7.42608],[110.42083,-7.42607],[110.42068,-7.42569],[110.42063,-7.42557],[110.42052,-7.42506],[110.42052,-7.42505],[110.42047,-7.42462],[110.42045,-7.4245],[110.42043,-7.42434],[110.42043,-7.42431],[110.42042,-7.42429],[110.42014,-7.42363],[110.42014,-7.42362],[110.42012,-7.42359],[110.41989,-7.42328],[110.41981,-7.42316],[110.41959,-7.42269],[110.41958,-7.42268],[110.41934,-7.42229],[110.41906,-7.42203],[110.41898,-7.42197],[110.41857,-7.42166],[110.41853,-7.42163],[110.4183,-7.4215],[110.41828,-7.42147],[110.41809,-7.4212],[110.41797,-7.42101],[110.41765,-7.42063],[110.41764,-7.42025],[110.41764,-7.42024],[110.41728,-7.41999],[110.41727,-7.41999],[110.41725,-7.41998],[110.41695,-7.41976],[110.41653,-7.41922],[110.41614,-7.41914],[110.41613,-7.41914],[110.41574,-7.41895],[110.41554,-7.41836],[110.41553,-7.41835],[110.41526,-7.41773],[110.41526,-7.41772],[110.41495,-7.41733],[110.4149,-7.41726],[110.41434,-7.41665],[110.41432,-7.41607],[110.41429,-7.41556],[110.41427,-7.41491],[110.41423,-7.41421],[110.41415,-7.41196],[110.41415,-7.41195],[110.41399,-7.41117],[110.41387,-7.41044],[110.41384,-7.40998],[110.4137,-7.40922],[110.41368,-7.40915],[110.41354,-7.40876],[110.41323,-7.40793],[110.41313,-7.40772],[110.41311,-7.40768],[110.41303,-7.40751],[110.41287,-7.40719],[110.41286,-7.40716],[110.41256,-7.40658],[110.41255,-7.40655],[110.41231,-7.40579],[110.4123,-7.40576],[110.41229,-7.40574],[110.41189,-7.40478],[110.41188,-7.40475],[110.41161,-7.40408],[110.4114,-7.40374],[110.41094,-7.40298],[110.41054,-7.4023],[110.41053,-7.40229],[110.41038,-7.40209],[110.41037,-7.40208],[110.41025,-7.40183],[110.41011,-7.40156],[110.41009,-7.40153],[110.40983,-7.40115],[110.40964,-7.40089],[110.40943,-7.40059],[110.40926,-7.40035],[110.40925,-7.40034],[110.40912,-7.40009],[110.40908,-7.40003],[110.40898,-7.39984],[110.40869,-7.39936],[110.40857,-7.39901],[110.40851,-7.39862],[110.40845,-7.39824],[110.40844,-7.3982],[110.40844,-7.39818],[110.40826,-7.39747],[110.40819,-7.39717],[110.40817,-7.39711],[110.40817,-7.39709],[110.40811,-7.39658],[110.40811,-7.39656],[110.40804,-7.39634],[110.408,-7.39618],[110.40799,-7.39617],[110.40801,-7.39565],[110.408,-7.39564],[110.40792,-7.39546],[110.4078,-7.39518],[110.40773,-7.39503],[110.40769,-7.39493],[110.40761,-7.39477],[110.40745,-7.39441],[110.40739,-7.39428],[110.40724,-7.39419],[110.40706,-7.39407],[110.40701,-7.39404],[110.4069,-7.39397],[110.40675,-7.39389],[110.40663,-7.39382],[110.40655,-7.39372],[110.40642,-7.39353],[110.40639,-7.39345],[110.40637,-7.39341],[110.4063,-7.39325],[110.40627,-7.39318],[110.40626,-7.39316],[110.40621,-7.39304],[110.4062,-7.39301],[110.40618,-7.39296],[110.40618,-7.39295],[110.40608,-7.39256],[110.40602,-7.3923],[110.40601,-7.39224],[110.40597,-7.39211],[110.40602,-7.39174],[110.40603,-7.39168],[110.40604,-7.39165],[110.40605,-7.39158],[110.40611,-7.3912],[110.40593,-7.39084],[110.4059,-7.3908],[110.40589,-7.39078],[110.40582,-7.39069],[110.4056,-7.39037],[110.40559,-7.39036],[110.40559,-7.39035],[110.40554,-7.39025],[110.40535,-7.38984],[110.40533,-7.38979],[110.40529,-7.38953],[110.40532,-7.38938],[110.40537,-7.38908],[110.40538,-7.38901],[110.40538,-7.3888],[110.40561,-7.38795],[110.40564,-7.38778],[110.40571,-7.38739],[110.4057,-7.38726],[110.40569,-7.38686],[110.40569,-7.3867],[110.40562,-7.38629],[110.40562,-7.38608],[110.40572,-7.38568],[110.40575,-7.38564],[110.40584,-7.3855],[110.40585,-7.38531],[110.40585,-7.38528],[110.40589,-7.3852],[110.40614,-7.38465],[110.40614,-7.38457],[110.40613,-7.3837],[110.40613,-7.38364],[110.4061,-7.38323],[110.4061,-7.38319],[110.40607,-7.38262],[110.40605,-7.38236],[110.40589,-7.38199],[110.40589,-7.38197],[110.40587,-7.38192],[110.40578,-7.38173],[110.40557,-7.38124],[110.40546,-7.38098],[110.4056,-7.38069],[110.40552,-7.3803],[110.40554,-7.37968],[110.40554,-7.37966],[110.40553,-7.37964],[110.4055,-7.37957],[110.40521,-7.37887],[110.4052,-7.37886],[110.40498,-7.37847],[110.4053,-7.37546],[110.40479,-7.37523],[110.40421,-7.37496],[110.40421,-7.37481],[110.40423,-7.37411],[110.40415,-7.37376],[110.40404,-7.37324],[110.40403,-7.37323],[110.40378,-7.37248],[110.40377,-7.37243],[110.40344,-7.37104],[110.40341,-7.36867],[110.40342,-7.3686],[110.4035,-7.36819],[110.40352,-7.36806],[110.40361,-7.36759],[110.40381,-7.36656],[110.40381,-7.36655],[110.40342,-7.36521],[110.40337,-7.36502],[110.40336,-7.365],[110.40328,-7.36471],[110.40245,-7.3636],[110.40155,-7.36272],[110.40145,-7.36261],[110.40036,-7.36176],[110.40035,-7.36176],[110.40033,-7.36174],[110.40013,-7.36148],[110.40003,-7.36136],[110.39991,-7.36122],[110.39991,-7.36121],[110.39984,-7.36112],[110.39981,-7.3611],[110.39965,-7.36097],[110.39952,-7.36087],[110.39915,-7.36058],[110.39888,-7.36035],[110.39836,-7.35991],[110.39778,-7.35943],[110.39743,-7.35906],[110.39634,-7.35792],[110.39604,-7.3576],[110.39542,-7.35695],[110.39503,-7.35654],[110.39471,-7.35608],[110.39436,-7.35559],[110.39397,-7.35542],[110.39362,-7.35527],[110.39361,-7.35527],[110.39335,-7.35519],[110.39324,-7.35516],[110.39322,-7.35515],[110.39321,-7.35515],[110.39285,-7.35491],[110.3925,-7.35463],[110.39184,-7.35397],[110.39166,-7.3538],[110.39153,-7.3537],[110.39149,-7.35367],[110.39131,-7.35353],[110.39128,-7.3535],[110.39088,-7.35314],[110.39086,-7.35313],[110.39081,-7.35308],[110.39049,-7.35295],[110.39045,-7.35294],[110.39038,-7.35293],[110.39018,-7.3529],[110.39013,-7.35289],[110.38994,-7.35285],[110.38988,-7.35283],[110.38971,-7.35276],[110.38966,-7.35274],[110.38958,-7.35272],[110.38944,-7.3527],[110.38943,-7.35269],[110.38927,-7.35269],[110.38918,-7.35268],[110.389,-7.35268],[110.38887,-7.35267],[110.38864,-7.35262],[110.38815,-7.35244],[110.388,-7.35238],[110.38768,-7.35239],[110.38762,-7.35239],[110.38739,-7.35241],[110.38718,-7.35242],[110.38717,-7.35241],[110.38683,-7.35239],[110.38679,-7.3524],[110.3866,-7.35244],[110.38655,-7.35245],[110.38651,-7.35247],[110.38629,-7.35256],[110.38615,-7.35258],[110.38597,-7.3526],[110.38582,-7.35259],[110.38579,-7.35258],[110.38544,-7.35254],[110.38521,-7.35253],[110.38517,-7.35253],[110.38509,-7.35252],[110.38481,-7.35262],[110.38462,-7.35273],[110.38456,-7.35277],[110.38439,-7.35302],[110.38437,-7.35306],[110.38425,-7.3531],[110.38419,-7.3531],[110.38404,-7.35308],[110.38383,-7.35308],[110.38382,-7.35309],[110.38345,-7.35334],[110.38301,-7.35364],[110.38284,-7.35371],[110.38275,-7.35375],[110.38254,-7.35383],[110.38237,-7.35402],[110.38222,-7.35412],[110.38217,-7.35414],[110.38211,-7.35416],[110.38196,-7.35416],[110.38185,-7.35412],[110.38175,-7.35408],[110.38159,-7.35406],[110.38154,-7.35406],[110.38154,-7.35405],[110.38134,-7.35401],[110.38122,-7.354],[110.38113,-7.35398],[110.381,-7.35396],[110.38072,-7.35393],[110.38056,-7.35383],[110.38041,-7.35375],[110.38025,-7.35358],[110.37999,-7.35331],[110.37985,-7.3532],[110.37974,-7.35312],[110.3796,-7.35313],[110.37945,-7.35316],[110.3793,-7.35325],[110.37923,-7.3533],[110.37914,-7.35335],[110.37887,-7.35352],[110.37869,-7.35351],[110.37801,-7.35343],[110.37773,-7.35353],[110.37758,-7.35363],[110.37757,-7.35364],[110.37756,-7.35364],[110.37743,-7.35373],[110.37742,-7.35373],[110.37741,-7.35374],[110.37738,-7.35376],[110.37734,-7.3538],[110.37704,-7.35361],[110.37684,-7.35353],[110.37678,-7.35352],[110.37641,-7.35346],[110.37588,-7.35349],[110.3758,-7.35349],[110.37532,-7.35356],[110.375,-7.35362],[110.37492,-7.35364],[110.37484,-7.35367],[110.37462,-7.35374],[110.37443,-7.35383],[110.37424,-7.35393],[110.37417,-7.35396],[110.37413,-7.35398],[110.37411,-7.35403],[110.37405,-7.35414],[110.37403,-7.35429],[110.37404,-7.35445],[110.37407,-7.35483],[110.37405,-7.35495],[110.374,-7.3552],[110.37392,-7.35558],[110.37375,-7.35574],[110.37369,-7.35579],[110.37339,-7.35594],[110.37284,-7.35613],[110.37245,-7.35625],[110.37223,-7.35632],[110.37188,-7.35644],[110.37179,-7.35647],[110.37172,-7.35664],[110.37171,-7.35669],[110.37162,-7.35681],[110.37161,-7.35682],[110.37156,-7.35689],[110.37143,-7.35708],[110.37118,-7.35755],[110.37096,-7.35796],[110.37095,-7.35797],[110.37057,-7.35812],[110.37045,-7.35817],[110.37003,-7.35835],[110.36994,-7.35843],[110.3699,-7.35847],[110.36985,-7.35851],[110.36965,-7.3587],[110.3694,-7.35917],[110.36938,-7.35922],[110.36934,-7.35934],[110.3692,-7.35971],[110.36914,-7.35987],[110.36896,-7.3603],[110.36879,-7.36055],[110.36877,-7.36058],[110.36874,-7.36062],[110.3687,-7.36064],[110.36829,-7.36084],[110.36807,-7.36093],[110.36791,-7.36098],[110.36785,-7.361],[110.36771,-7.36105],[110.36747,-7.36114],[110.36746,-7.36114],[110.36744,-7.36115],[110.3672,-7.36121],[110.36715,-7.36123],[110.36714,-7.36124],[110.36705,-7.36127],[110.367,-7.36129],[110.36692,-7.36132],[110.36688,-7.36134],[110.36683,-7.36138],[110.36683,-7.36139],[110.36676,-7.36146],[110.36674,-7.36147],[110.36673,-7.36148],[110.36656,-7.36162],[110.36642,-7.36186],[110.36634,-7.36201],[110.36631,-7.36209],[110.36632,-7.36216],[110.36632,-7.3622],[110.36629,-7.36222],[110.36626,-7.36223],[110.36617,-7.36227],[110.36612,-7.3623],[110.36607,-7.36242],[110.36605,-7.36245],[110.366,-7.36252],[110.36574,-7.3627],[110.36557,-7.36278],[110.36551,-7.3628],[110.36537,-7.36284],[110.36511,-7.3629],[110.36504,-7.36294],[110.36499,-7.36303],[110.36495,-7.36315],[110.36495,-7.36326],[110.36493,-7.36346],[110.36493,-7.36358],[110.36492,-7.36383],[110.36475,-7.3642],[110.36469,-7.36434],[110.36466,-7.36443],[110.36444,-7.36465],[110.36425,-7.3649],[110.36415,-7.3651],[110.36415,-7.36511],[110.36409,-7.36528],[110.36403,-7.36579],[110.36402,-7.36593],[110.36397,-7.36598],[110.36395,-7.36601],[110.36393,-7.36603],[110.36368,-7.36609],[110.36318,-7.36599],[110.36262,-7.36584],[110.36231,-7.36579],[110.36199,-7.36573],[110.36131,-7.36581],[110.36096,-7.36608],[110.36095,-7.36609],[110.36089,-7.36619],[110.36078,-7.36639],[110.36049,-7.36695],[110.36046,-7.367],[110.36037,-7.36718],[110.36031,-7.36731],[110.36019,-7.36756],[110.36004,-7.36786],[110.35996,-7.36803],[110.35996,-7.36823],[110.36002,-7.36849],[110.36007,-7.36864],[110.36017,-7.36873],[110.36031,-7.36876],[110.36051,-7.36877],[110.36085,-7.36886],[110.36103,-7.36894],[110.36127,-7.36907],[110.3614,-7.36921],[110.3615,-7.36932],[110.36153,-7.36941],[110.36152,-7.36946],[110.36151,-7.3695],[110.36146,-7.36956],[110.36128,-7.36961],[110.36111,-7.36965],[110.36095,-7.36967],[110.36083,-7.36972],[110.36066,-7.36977],[110.3604,-7.36983],[110.36021,-7.3699],[110.36008,-7.36995],[110.36,-7.37003],[110.35997,-7.37016],[110.35998,-7.37035],[110.35998,-7.37036],[110.36003,-7.37056],[110.36022,-7.37086],[110.35982,-7.37095],[110.35949,-7.37102],[110.35946,-7.37102],[110.35939,-7.37103],[110.35918,-7.37105],[110.3591,-7.37105],[110.3587,-7.37109],[110.35849,-7.37174],[110.35844,-7.37203],[110.35841,-7.37224],[110.35829,-7.3724],[110.35827,-7.37241],[110.35797,-7.37255],[110.35781,-7.3726],[110.35771,-7.37263],[110.3575,-7.37269],[110.35705,-7.3728],[110.35626,-7.37293],[110.3562,-7.37294],[110.3559,-7.37347],[110.35586,-7.37355],[110.35583,-7.37359],[110.35572,-7.37376],[110.3556,-7.37413],[110.3556,-7.37414],[110.35559,-7.37416],[110.35562,-7.375],[110.35603,-7.37538],[110.35615,-7.3755],[110.35638,-7.37575],[110.35652,-7.3758],[110.3573,-7.37607],[110.35762,-7.37615],[110.35814,-7.37627],[110.35857,-7.3764],[110.35928,-7.3766],[110.36036,-7.37685],[110.36092,-7.37702],[110.36154,-7.37722],[110.3624,-7.37764],[110.36323,-7.3781],[110.36329,-7.37815],[110.36378,-7.37859],[110.36427,-7.37913],[110.36453,-7.37956],[110.36461,-7.3797],[110.36478,-7.38062],[110.36477,-7.38085],[110.36475,-7.38148],[110.36474,-7.3817],[110.36466,-7.3819],[110.36457,-7.38215],[110.36447,-7.38261],[110.36442,-7.38286],[110.36438,-7.38315],[110.36428,-7.38382],[110.36427,-7.38395],[110.36422,-7.38415],[110.36411,-7.38472],[110.36403,-7.38513],[110.36371,-7.38579],[110.36369,-7.3858],[110.36369,-7.38581],[110.36341,-7.38606],[110.36334,-7.38614],[110.36309,-7.38626],[110.36269,-7.38647],[110.36235,-7.38656],[110.36219,-7.3866],[110.36186,-7.38668],[110.36126,-7.38681],[110.3607,-7.38691],[110.36007,-7.38702],[110.35995,-7.38705],[110.35929,-7.3872],[110.35912,-7.38724],[110.35879,-7.38732],[110.35793,-7.38753],[110.35756,-7.38763],[110.35706,-7.38776],[110.35623,-7.38799],[110.35572,-7.38829],[110.35539,-7.38849],[110.35512,-7.38861],[110.35494,-7.38872],[110.3545,-7.38873],[110.35399,-7.38884],[110.3534,-7.38899],[110.35263,-7.38911],[110.35161,-7.38942],[110.35109,-7.38966],[110.35049,-7.38992],[110.34996,-7.3905],[110.34955,-7.39068],[110.34954,-7.39068],[110.3491,-7.39107],[110.34876,-7.39119],[110.34853,-7.39141],[110.34849,-7.39145],[110.34817,-7.39178],[110.3479,-7.39203],[110.34742,-7.39225],[110.34738,-7.39227],[110.34727,-7.39232],[110.34701,-7.39234],[110.34667,-7.39237],[110.34637,-7.39227],[110.34599,-7.39213],[110.34592,-7.39209],[110.3456,-7.39195],[110.34555,-7.39192],[110.34549,-7.3919],[110.3452,-7.39182],[110.34503,-7.39178],[110.34493,-7.39176],[110.34492,-7.39175],[110.34468,-7.39172],[110.34463,-7.39171],[110.34436,-7.39169],[110.34427,-7.39169],[110.34402,-7.3917],[110.344,-7.39171],[110.34377,-7.39176],[110.34375,-7.39176],[110.34322,-7.39191],[110.34321,-7.39191],[110.3425,-7.39218],[110.34177,-7.39263],[110.34141,-7.39217],[110.34116,-7.39186],[110.3406,-7.39212],[110.34036,-7.39233],[110.34022,-7.39246],[110.34005,-7.39266],[110.34,-7.39283],[110.34014,-7.39286],[110.34019,-7.39294],[110.34014,-7.39307],[110.34007,-7.3932],[110.34003,-7.39341],[110.33996,-7.39362],[110.33983,-7.39367],[110.33971,-7.39377],[110.33969,-7.39391],[110.33961,-7.39478],[110.33962,-7.39523],[110.33962,-7.39573],[110.33964,-7.3959],[110.3396,-7.39618],[110.3396,-7.39629],[110.33965,-7.39636],[110.33979,-7.39657],[110.33991,-7.39676],[110.33996,-7.39709],[110.33997,-7.3972],[110.33999,-7.39736],[110.34004,-7.39754],[110.34011,-7.39769],[110.34021,-7.39778],[110.34028,-7.39783],[110.34029,-7.39784],[110.34052,-7.39791],[110.34079,-7.39799],[110.34101,-7.39811],[110.3411,-7.39831],[110.34114,-7.39851],[110.34126,-7.39864],[110.3414,-7.39878],[110.34146,-7.39892],[110.34144,-7.39903],[110.34146,-7.39923],[110.34146,-7.39949],[110.34149,-7.39963],[110.34156,-7.39982],[110.3415,-7.4],[110.34145,-7.40021],[110.34145,-7.40023],[110.34141,-7.40042],[110.3414,-7.40063],[110.34143,-7.40079],[110.34149,-7.40098],[110.34151,-7.4011],[110.34157,-7.40124],[110.34159,-7.40135],[110.3416,-7.40148],[110.3416,-7.40159],[110.34164,-7.40169],[110.3417,-7.40179],[110.34176,-7.40186],[110.34184,-7.40196],[110.34193,-7.40203],[110.342,-7.40212],[110.342,-7.40221],[110.34198,-7.40236],[110.34193,-7.40251],[110.34197,-7.40265],[110.34199,-7.40276],[110.34199,-7.40284],[110.34194,-7.40295],[110.34191,-7.40303],[110.34189,-7.40312],[110.34186,-7.40327],[110.34186,-7.40333],[110.34187,-7.4034],[110.34187,-7.40351],[110.34186,-7.40359],[110.34181,-7.40367],[110.34171,-7.40382],[110.34159,-7.4039],[110.34158,-7.40391],[110.34148,-7.40395],[110.34127,-7.40399],[110.34101,-7.40399],[110.3409,-7.40395],[110.34079,-7.40386],[110.34065,-7.40365],[110.34057,-7.40349],[110.34051,-7.40338],[110.34045,-7.40334],[110.34033,-7.40333],[110.3402,-7.40333],[110.34012,-7.40326],[110.34004,-7.40317],[110.34002,-7.4031],[110.33998,-7.40301],[110.33986,-7.40289],[110.33975,-7.40286],[110.33966,-7.40289],[110.33958,-7.40289],[110.33945,-7.40283],[110.33926,-7.40304],[110.33929,-7.40319],[110.33934,-7.40324],[110.33944,-7.40327],[110.33949,-7.40329],[110.33954,-7.40332],[110.33957,-7.40337],[110.33958,-7.40344],[110.33957,-7.40359],[110.33953,-7.40371],[110.33947,-7.40379],[110.33943,-7.40386],[110.33939,-7.40391],[110.33939,-7.40398],[110.33943,-7.40406],[110.33946,-7.4041],[110.33952,-7.40433],[110.33952,-7.40453],[110.33949,-7.40488],[110.33944,-7.40522],[110.33939,-7.4053],[110.33922,-7.40562],[110.33919,-7.40595]]]}}]}