{"type":"FeatureCollection","features":[{"type":"Feature","properties":{"KECAMATAN":"Ngluwar"},"geometry":{"type":"Polygon","coordinates":[[[110.24579,-7.639],[110.24585,-7.63946],[110.246,-7.63973],[110.24612,-7.63975],[110.24666,-7.63997],[110.24723,-7.64002],[110.24788,-7.6401],[110.24836,-7.6402],[110.24916,-7.6405],[110.24983,-7.64088],[110.25021,-7.64117],[110.25028,-7.64122],[110.25081,-7.6415],[110.25109,-7.64164],[110.25135,-7.6418],[110.2516,-7.64201],[110.25167,-7.64203],[110.25175,-7.64205],[110.25182,-7.64208],[110.25188,-7.6421],[110.25195,-7.64212],[110.25202,-7.64215],[110.25208,-7.64217],[110.25215,-7.64219],[110.25222,-7.64222],[110.25228,-7.64224],[110.25249,-7.6423],[110.25256,-7.64231],[110.25263,-7.64233],[110.25271,-7.64234],[110.25299,-7.64234],[110.25306,-7.64233],[110.25314,-7.64232],[110.25321,-7.64231],[110.25357,-7.6422],[110.25391,-7.64217],[110.25422,-7.64221],[110.25445,-7.64226],[110.25453,-7.64228],[110.25461,-7.64229],[110.25468,-7.6423],[110.25476,-7.64231],[110.25484,-7.64233],[110.25492,-7.64234],[110.255,-7.64236],[110.25507,-7.64237],[110.25523,-7.64241],[110.2553,-7.64243],[110.25538,-7.64245],[110.25545,-7.64247],[110.25553,-7.6425],[110.2556,-7.64252],[110.25574,-7.64258],[110.25582,-7.64262],[110.25596,-7.64268],[110.25603,-7.64272],[110.2561,-7.64275],[110.25631,-7.64287],[110.25638,-7.6429],[110.25659,-7.64302],[110.25666,-7.64305],[110.2568,-7.64313],[110.25694,-7.64319],[110.25701,-7.64323],[110.25709,-7.64326],[110.25716,-7.64328],[110.25723,-7.64331],[110.25731,-7.64334],[110.25738,-7.64336],[110.2575,-7.64339],[110.25753,-7.6434],[110.25761,-7.64341],[110.25769,-7.64343],[110.25776,-7.64345],[110.25784,-7.64346],[110.25792,-7.64348],[110.258,-7.64349],[110.25807,-7.64351],[110.25823,-7.64355],[110.2583,-7.64357],[110.25838,-7.64359],[110.25845,-7.64361],[110.25853,-7.64364],[110.2586,-7.64366],[110.25868,-7.64369],[110.25882,-7.64375],[110.2589,-7.64378],[110.25911,-7.64387],[110.25919,-7.6439],[110.2594,-7.64399],[110.25948,-7.64402],[110.25962,-7.64408],[110.2597,-7.64411],[110.25977,-7.64414],[110.2605,-7.64444],[110.26052,-7.64445],[110.26121,-7.64474],[110.26128,-7.64478],[110.26136,-7.64481],[110.26144,-7.64485],[110.26151,-7.64489],[110.26159,-7.64493],[110.26166,-7.64497],[110.26174,-7.64501],[110.26188,-7.64509],[110.26196,-7.64513],[110.2621,-7.64521],[110.26218,-7.64525],[110.26225,-7.64529],[110.26227,-7.6453],[110.26232,-7.64534],[110.26246,-7.64542],[110.26254,-7.64547],[110.26268,-7.64555],[110.26275,-7.6456],[110.26282,-7.64564],[110.26289,-7.64569],[110.26296,-7.64573],[110.26304,-7.64578],[110.26311,-7.64582],[110.26318,-7.64587],[110.26325,-7.64591],[110.26333,-7.64595],[110.2634,-7.646],[110.26348,-7.64604],[110.2635,-7.64606],[110.26351,-7.64606],[110.26355,-7.64609],[110.26362,-7.64613],[110.2639,-7.64633],[110.26402,-7.64645],[110.26407,-7.64651],[110.26412,-7.64658],[110.26416,-7.64664],[110.26416,-7.64665],[110.26421,-7.64672],[110.26424,-7.64679],[110.26428,-7.64686],[110.26428,-7.64687],[110.26432,-7.64695],[110.26436,-7.64702],[110.26439,-7.6471],[110.26443,-7.64718],[110.26447,-7.64725],[110.26451,-7.64733],[110.26455,-7.6474],[110.2646,-7.64747],[110.26464,-7.64754],[110.26469,-7.64761],[110.26473,-7.64768],[110.26488,-7.64789],[110.26492,-7.64796],[110.26497,-7.64802],[110.26502,-7.64809],[110.26507,-7.64815],[110.26512,-7.64822],[110.26517,-7.64828],[110.26523,-7.64835],[110.26528,-7.64841],[110.26534,-7.64848],[110.26539,-7.64854],[110.26545,-7.6486],[110.2655,-7.64867],[110.26587,-7.64904],[110.26594,-7.6491],[110.266,-7.64916],[110.26606,-7.64923],[110.26611,-7.6493],[110.26615,-7.64937],[110.26618,-7.64944],[110.26619,-7.64952],[110.26619,-7.64961],[110.26618,-7.64969],[110.26616,-7.64978],[110.26613,-7.64986],[110.26611,-7.64992],[110.2661,-7.64994],[110.26606,-7.65001],[110.26601,-7.65009],[110.26596,-7.65015],[110.26591,-7.65022],[110.26586,-7.65028],[110.2658,-7.65035],[110.26575,-7.65041],[110.26563,-7.65053],[110.26556,-7.65059],[110.26552,-7.65062],[110.26544,-7.6507],[110.26523,-7.65085],[110.26517,-7.6509],[110.26482,-7.65115],[110.26476,-7.6512],[110.2647,-7.65126],[110.26469,-7.65126],[110.26464,-7.65132],[110.26458,-7.65138],[110.26453,-7.65145],[110.26449,-7.65152],[110.26444,-7.65159],[110.2644,-7.65166],[110.26436,-7.65174],[110.26433,-7.65182],[110.26429,-7.65189],[110.26426,-7.65196],[110.26425,-7.65197],[110.26422,-7.65205],[110.26418,-7.65213],[110.26415,-7.6522],[110.26406,-7.65244],[110.264,-7.65268],[110.26398,-7.65277],[110.26397,-7.65285],[110.26397,-7.65294],[110.26396,-7.65302],[110.26396,-7.65319],[110.26397,-7.65327],[110.26398,-7.65334],[110.26398,-7.65336],[110.26399,-7.65344],[110.26401,-7.65352],[110.26403,-7.65361],[110.26407,-7.65377],[110.2641,-7.65385],[110.26413,-7.65392],[110.26422,-7.65416],[110.26423,-7.65418],[110.26425,-7.65424],[110.26428,-7.65432],[110.26432,-7.6544],[110.26434,-7.65448],[110.26437,-7.65456],[110.26439,-7.65464],[110.2644,-7.65465],[110.26442,-7.65472],[110.26444,-7.6548],[110.26445,-7.65488],[110.26447,-7.65497],[110.26448,-7.65505],[110.26444,-7.65543],[110.26443,-7.65588],[110.26433,-7.65615],[110.26406,-7.6565],[110.264,-7.65657],[110.26393,-7.65663],[110.26387,-7.6567],[110.2638,-7.65676],[110.26354,-7.65702],[110.26352,-7.65705],[110.26349,-7.65709],[110.26344,-7.65716],[110.26336,-7.65732],[110.26333,-7.6574],[110.26331,-7.65749],[110.2633,-7.65758],[110.26328,-7.65767],[110.26325,-7.65794],[110.26323,-7.65804],[110.26322,-7.65813],[110.26318,-7.65831],[110.26316,-7.65841],[110.2631,-7.65868],[110.26309,-7.65877],[110.26307,-7.65886],[110.26306,-7.65894],[110.26304,-7.65912],[110.26304,-7.65929],[110.26306,-7.65947],[110.26308,-7.65955],[110.2631,-7.65964],[110.26313,-7.65973],[110.26315,-7.65982],[110.26318,-7.6599],[110.2632,-7.65999],[110.26321,-7.66008],[110.26323,-7.66017],[110.26323,-7.66036],[110.26322,-7.66045],[110.26322,-7.66073],[110.26323,-7.66082],[110.26325,-7.66091],[110.26328,-7.66099],[110.26334,-7.66106],[110.2634,-7.66112],[110.26346,-7.66116],[110.26356,-7.66121],[110.26365,-7.66123],[110.26383,-7.66125],[110.26392,-7.66125],[110.26402,-7.66126],[110.26411,-7.66126],[110.26438,-7.66129],[110.26447,-7.66131],[110.26455,-7.66132],[110.26464,-7.66134],[110.26473,-7.66135],[110.26518,-7.66145],[110.26527,-7.66148],[110.26535,-7.66151],[110.26551,-7.66159],[110.26559,-7.66164],[110.26566,-7.66169],[110.26573,-7.66175],[110.26579,-7.66181],[110.26607,-7.66205],[110.26615,-7.6621],[110.26622,-7.66215],[110.2663,-7.66221],[110.26637,-7.66226],[110.26644,-7.66232],[110.26656,-7.66244],[110.26662,-7.66251],[110.26672,-7.66267],[110.26676,-7.66275],[110.26679,-7.66283],[110.26688,-7.6631],[110.2669,-7.66318],[110.26691,-7.66327],[110.26693,-7.66336],[110.26696,-7.66363],[110.26696,-7.66372],[110.26698,-7.6639],[110.26698,-7.66408],[110.26699,-7.66417],[110.26699,-7.66426],[110.267,-7.66435],[110.267,-7.66453],[110.26699,-7.66462],[110.26699,-7.66471],[110.26698,-7.6648],[110.26696,-7.66489],[110.26695,-7.66498],[110.26692,-7.66507],[110.2669,-7.66516],[110.26687,-7.66524],[110.26684,-7.66533],[110.26668,-7.66565],[110.26663,-7.66573],[110.26659,-7.66581],[110.26654,-7.66589],[110.26651,-7.66593],[110.26649,-7.66596],[110.26645,-7.66604],[110.2664,-7.66612],[110.26632,-7.66628],[110.26629,-7.66636],[110.26625,-7.66645],[110.26609,-7.66677],[110.26599,-7.66693],[110.26594,-7.667],[110.26589,-7.66708],[110.26584,-7.66715],[110.26578,-7.66723],[110.26573,-7.6673],[110.26568,-7.66738],[110.26563,-7.66745],[110.26551,-7.66769],[110.26545,-7.66785],[110.26543,-7.66794],[110.26541,-7.66802],[110.26539,-7.66811],[110.26538,-7.6682],[110.26538,-7.66829],[110.26537,-7.66838],[110.26537,-7.66903],[110.26536,-7.66912],[110.26536,-7.66921],[110.26535,-7.6693],[110.26535,-7.66939],[110.26531,-7.66975],[110.26529,-7.66984],[110.26529,-7.66989],[110.26528,-7.66993],[110.26527,-7.67002],[110.26527,-7.67011],[110.26526,-7.6702],[110.26526,-7.67021],[110.26525,-7.67029],[110.26525,-7.67038],[110.26524,-7.67047],[110.26524,-7.67074],[110.26525,-7.67083],[110.26524,-7.67159],[110.26525,-7.67198],[110.26525,-7.67206],[110.26523,-7.6722],[110.26522,-7.67228],[110.26521,-7.67235],[110.2652,-7.67243],[110.26518,-7.67257],[110.26516,-7.67265],[110.26514,-7.67279],[110.26512,-7.67287],[110.26511,-7.67294],[110.26509,-7.67301],[110.26508,-7.67309],[110.26507,-7.67316],[110.26505,-7.67323],[110.26504,-7.6733],[110.26503,-7.67338],[110.26502,-7.67345],[110.26501,-7.67353],[110.265,-7.6736],[110.265,-7.67367],[110.26499,-7.67375],[110.26499,-7.67405],[110.26498,-7.67412],[110.26498,-7.67435],[110.26497,-7.67442],[110.26497,-7.67449],[110.26496,-7.67457],[110.26494,-7.67471],[110.26493,-7.67479],[110.26492,-7.67486],[110.26486,-7.67507],[110.26485,-7.67515],[110.26481,-7.67529],[110.26479,-7.67537],[110.26477,-7.67544],[110.26476,-7.67551],[110.26474,-7.67559],[110.2647,-7.67573],[110.26467,-7.6758],[110.26465,-7.67587],[110.26462,-7.67594],[110.2645,-7.67612],[110.26445,-7.67618],[110.26435,-7.67628],[110.26417,-7.67643],[110.26412,-7.67648],[110.264,-7.67658],[110.26395,-7.67663],[110.2639,-7.67669],[110.26385,-7.67674],[110.2638,-7.6768],[110.26368,-7.67698],[110.26364,-7.67705],[110.26355,-7.67726],[110.26353,-7.67733],[110.2635,-7.6774],[110.26342,-7.67768],[110.2634,-7.67776],[110.26339,-7.67781],[110.26338,-7.67783],[110.26337,-7.6779],[110.26333,-7.67804],[110.26332,-7.67812],[110.26328,-7.67826],[110.26327,-7.67833],[110.26325,-7.67841],[110.26323,-7.67848],[110.26322,-7.67855],[110.2632,-7.67862],[110.26318,-7.6787],[110.26316,-7.67877],[110.26313,-7.67884],[110.26311,-7.67892],[110.26307,-7.67906],[110.26305,-7.67914],[110.26303,-7.67921],[110.26302,-7.67924],[110.26299,-7.67936],[110.26297,-7.6795],[110.26295,-7.67958],[110.26295,-7.67965],[110.26294,-7.67972],[110.26294,-7.67987],[110.26295,-7.67994],[110.26296,-7.68002],[110.26296,-7.68004],[110.26297,-7.68009],[110.26301,-7.68023],[110.26305,-7.6803],[110.26308,-7.68037],[110.26312,-7.68043],[110.26323,-7.68054],[110.26329,-7.68058],[110.26334,-7.68062],[110.26335,-7.68062],[110.26341,-7.68066],[110.26362,-7.68075],[110.26368,-7.68078],[110.26382,-7.68084],[110.26389,-7.68086],[110.26405,-7.6809],[110.26412,-7.68092],[110.2642,-7.68095],[110.26421,-7.68095],[110.26427,-7.68097],[110.26434,-7.681],[110.26441,-7.68104],[110.26446,-7.68109],[110.2645,-7.68114],[110.26453,-7.68121],[110.26455,-7.68129],[110.26456,-7.68136],[110.26455,-7.68144],[110.26454,-7.68151],[110.26452,-7.68158],[110.26449,-7.68165],[110.26448,-7.68168],[110.26446,-7.68172],[110.2644,-7.68186],[110.26436,-7.68193],[110.26434,-7.682],[110.26431,-7.68207],[110.26428,-7.68215],[110.26425,-7.68222],[110.26423,-7.68229],[110.2642,-7.68237],[110.26417,-7.68244],[110.26413,-7.68251],[110.2641,-7.68257],[110.26402,-7.68269],[110.26392,-7.68279],[110.26386,-7.68283],[110.2638,-7.68286],[110.26366,-7.68292],[110.26359,-7.68294],[110.26351,-7.68296],[110.26337,-7.683],[110.26329,-7.68302],[110.26315,-7.68306],[110.26308,-7.68309],[110.26301,-7.68311],[110.2628,-7.6832],[110.26274,-7.68323],[110.26267,-7.68327],[110.26255,-7.68335],[110.26249,-7.6834],[110.26243,-7.68344],[110.26237,-7.68349],[110.26232,-7.68354],[110.26226,-7.68359],[110.26205,-7.6838],[110.262,-7.68386],[110.26195,-7.68391],[110.26189,-7.68396],[110.26184,-7.68401],[110.26178,-7.68406],[110.26173,-7.68411],[110.26167,-7.68416],[110.26161,-7.6842],[110.26155,-7.68425],[110.2615,-7.6843],[110.26144,-7.68435],[110.26139,-7.6844],[110.26134,-7.68446],[110.26114,-7.68473],[110.26094,-7.68515],[110.26091,-7.6855],[110.26088,-7.68563],[110.26081,-7.68587],[110.26084,-7.68612],[110.26085,-7.68617],[110.26085,-7.68639],[110.26084,-7.68645],[110.26084,-7.68655],[110.26083,-7.68661],[110.26083,-7.68666],[110.26082,-7.68672],[110.26081,-7.68677],[110.26081,-7.68682],[110.2608,-7.68688],[110.26079,-7.68693],[110.26078,-7.68699],[110.26078,-7.68704],[110.26076,-7.68716],[110.26075,-7.68721],[110.26075,-7.68727],[110.26074,-7.68733],[110.26074,-7.6875],[110.26076,-7.6876],[110.2608,-7.6877],[110.26084,-7.68775],[110.26087,-7.68779],[110.26091,-7.68783],[110.26096,-7.68786],[110.261,-7.68789],[110.26105,-7.68792],[110.2611,-7.68794],[110.26116,-7.68796],[110.26121,-7.68797],[110.26126,-7.68799],[110.26132,-7.688],[110.26142,-7.68802],[110.26148,-7.68803],[110.26153,-7.68803],[110.26159,-7.68804],[110.26165,-7.68804],[110.2617,-7.68805],[110.26204,-7.68805],[110.26209,-7.68804],[110.26242,-7.68804],[110.26248,-7.68805],[110.26253,-7.68805],[110.26258,-7.68806],[110.26264,-7.68806],[110.26269,-7.68807],[110.26275,-7.68808],[110.2628,-7.68809],[110.26286,-7.68809],[110.26291,-7.6881],[110.26303,-7.68812],[110.26308,-7.68813],[110.26314,-7.68814],[110.26324,-7.68816],[110.2633,-7.68817],[110.26335,-7.68819],[110.26339,-7.68822],[110.26344,-7.68824],[110.26348,-7.68827],[110.26356,-7.68835],[110.26362,-7.68843],[110.26366,-7.68847],[110.26369,-7.68852],[110.2637,-7.68854],[110.26372,-7.68857],[110.26378,-7.68867],[110.2638,-7.68872],[110.26386,-7.68882],[110.26389,-7.68888],[110.26392,-7.68893],[110.26394,-7.68898],[110.26406,-7.68918],[110.26409,-7.68922],[110.26413,-7.68927],[110.26419,-7.68935],[110.26423,-7.6894],[110.26426,-7.68944],[110.2643,-7.68948],[110.26433,-7.68952],[110.26488,-7.69007],[110.26492,-7.6901],[110.265,-7.69018],[110.26504,-7.69021],[110.26509,-7.69025],[110.26513,-7.69028],[110.26517,-7.69032],[110.2652,-7.69036],[110.26524,-7.6904],[110.26527,-7.69045],[110.2653,-7.69049],[110.26536,-7.69059],[110.26539,-7.69063],[110.26543,-7.69068],[110.26546,-7.69072],[110.26549,-7.69077],[110.26552,-7.69081],[110.26555,-7.69086],[110.26558,-7.6909],[110.26562,-7.69095],[110.26564,-7.691],[110.26567,-7.69104],[110.2657,-7.69109],[110.26574,-7.69119],[110.26576,-7.69125],[110.26578,-7.6913],[110.26579,-7.69135],[110.2658,-7.69141],[110.26581,-7.69146],[110.26581,-7.69152],[110.26582,-7.69157],[110.26582,-7.69207],[110.26583,-7.69212],[110.26583,-7.69229],[110.26584,-7.69234],[110.26584,-7.69245],[110.26585,-7.69251],[110.26585,-7.69284],[110.26586,-7.69289],[110.26586,-7.693],[110.26587,-7.69306],[110.26587,-7.69311],[110.26588,-7.69317],[110.26589,-7.69322],[110.2659,-7.69328],[110.26592,-7.69338],[110.26594,-7.69344],[110.26595,-7.69349],[110.26603,-7.69369],[110.26606,-7.69374],[110.26608,-7.69379],[110.26614,-7.69389],[110.26618,-7.69393],[110.26621,-7.69397],[110.26633,-7.69409],[110.26637,-7.69412],[110.26641,-7.69416],[110.26646,-7.69419],[110.2665,-7.69423],[110.26655,-7.69426],[110.26658,-7.69428],[110.26659,-7.69429],[110.26706,-7.69471],[110.26753,-7.69522],[110.26771,-7.6955],[110.26775,-7.69556],[110.26777,-7.69563],[110.26779,-7.69566],[110.2678,-7.69569],[110.26784,-7.69583],[110.26786,-7.69589],[110.26788,-7.69596],[110.26789,-7.69603],[110.26791,-7.6961],[110.26794,-7.69616],[110.26796,-7.69623],[110.26802,-7.69635],[110.26806,-7.69641],[110.2681,-7.69646],[110.26814,-7.69652],[110.26819,-7.69657],[110.26823,-7.69662],[110.26828,-7.69668],[110.26833,-7.69673],[110.26837,-7.69679],[110.26842,-7.69684],[110.2685,-7.69696],[110.26854,-7.69701],[110.26857,-7.69708],[110.26863,-7.6972],[110.26867,-7.69734],[110.26868,-7.6974],[110.26869,-7.69747],[110.26869,-7.69761],[110.26866,-7.69782],[110.26864,-7.69789],[110.26863,-7.69796],[110.26857,-7.69817],[110.26854,-7.69823],[110.2685,-7.69837],[110.26848,-7.69843],[110.26846,-7.6985],[110.26844,-7.69856],[110.2684,-7.6987],[110.2684,-7.69871],[110.26839,-7.69877],[110.26837,-7.69891],[110.26837,-7.69898],[110.2684,-7.69919],[110.26846,-7.69931],[110.2685,-7.69936],[110.26854,-7.69942],[110.26858,-7.69947],[110.26863,-7.69952],[110.26868,-7.69958],[110.2687,-7.69959],[110.26889,-7.69978],[110.26893,-7.69984],[110.26898,-7.69989],[110.2691,-7.70007],[110.26914,-7.70012],[110.26917,-7.70018],[110.26925,-7.7003],[110.26931,-7.70042],[110.26935,-7.70049],[110.26938,-7.70055],[110.26942,-7.70061],[110.26945,-7.70067],[110.26949,-7.70073],[110.26952,-7.70078],[110.26964,-7.70096],[110.26968,-7.70101],[110.26972,-7.70107],[110.26977,-7.70112],[110.26981,-7.70118],[110.26985,-7.70123],[110.2699,-7.70129],[110.26994,-7.70134],[110.26999,-7.70139],[110.27007,-7.70151],[110.27011,-7.70156],[110.27019,-7.70168],[110.27028,-7.70186],[110.27031,-7.70193],[110.27037,-7.70205],[110.2704,-7.70212],[110.27042,-7.70218],[110.27045,-7.70225],[110.27051,-7.70237],[110.27054,-7.70244],[110.2706,-7.70256],[110.27062,-7.70263],[110.27065,-7.70269],[110.27067,-7.70276],[110.27068,-7.70283],[110.2707,-7.70289],[110.27071,-7.70295],[110.27071,-7.70296],[110.27072,-7.70303],[110.27072,-7.7031],[110.27073,-7.70317],[110.27073,-7.70381],[110.27072,-7.70388],[110.27072,-7.70395],[110.2707,-7.70409],[110.27068,-7.70416],[110.27067,-7.70422],[110.27064,-7.70429],[110.27055,-7.70447],[110.27047,-7.70459],[110.27042,-7.70464],[110.27034,-7.70476],[110.2703,-7.70481],[110.27025,-7.70487],[110.27021,-7.70493],[110.27017,-7.70498],[110.27014,-7.70504],[110.2701,-7.7051],[110.27004,-7.70522],[110.27001,-7.70529],[110.26999,-7.70535],[110.26997,-7.70542],[110.26995,-7.70548],[110.26991,-7.70562],[110.2699,-7.70569],[110.26989,-7.70577],[110.26989,-7.70591],[110.26991,-7.70595],[110.26991,-7.70597],[110.26994,-7.70602],[110.26994,-7.70603],[110.26995,-7.70603],[110.26999,-7.70609],[110.27004,-7.70613],[110.2701,-7.70618],[110.27016,-7.70621],[110.27023,-7.70624],[110.27029,-7.70627],[110.27036,-7.70629],[110.27043,-7.7063],[110.2705,-7.70632],[110.27071,-7.70635],[110.27074,-7.70635],[110.27077,-7.70636],[110.27105,-7.7064],[110.27111,-7.70641],[110.27119,-7.70643],[110.27133,-7.70645],[110.27141,-7.70646],[110.27148,-7.70647],[110.27156,-7.70648],[110.27178,-7.70648],[110.27186,-7.70647],[110.27193,-7.70646],[110.27199,-7.70644],[110.27206,-7.70642],[110.27212,-7.70639],[110.27217,-7.70636],[110.27227,-7.70626],[110.27235,-7.70614],[110.27236,-7.70611],[110.27238,-7.70608],[110.27241,-7.70602],[110.27244,-7.70595],[110.27246,-7.70589],[110.27249,-7.70582],[110.27251,-7.70576],[110.27255,-7.70562],[110.27258,-7.70556],[110.27258,-7.70554],[110.2726,-7.70549],[110.27262,-7.70543],[110.27262,-7.70542],[110.27282,-7.70469],[110.27286,-7.70456],[110.27299,-7.70409],[110.27302,-7.70367],[110.27305,-7.70357],[110.27307,-7.70348],[110.27309,-7.7034],[110.27309,-7.70339],[110.27312,-7.7033],[110.27316,-7.70312],[110.27318,-7.70302],[110.27319,-7.70293],[110.27321,-7.70283],[110.27323,-7.70265],[110.27324,-7.70255],[110.27325,-7.70246],[110.27326,-7.70236],[110.27328,-7.70227],[110.27329,-7.70218],[110.27331,-7.70208],[110.27335,-7.7019],[110.27347,-7.70154],[110.27351,-7.70146],[110.27354,-7.70137],[110.27362,-7.70119],[110.27368,-7.70101],[110.27372,-7.70093],[110.2738,-7.70075],[110.27385,-7.70067],[110.2739,-7.7006],[110.27396,-7.70052],[110.27408,-7.70038],[110.27422,-7.70024],[110.27428,-7.70017],[110.27435,-7.70011],[110.27441,-7.70004],[110.27448,-7.69997],[110.27454,-7.6999],[110.27461,-7.69983],[110.27473,-7.69969],[110.2748,-7.69962],[110.27487,-7.69956],[110.27493,-7.69949],[110.275,-7.69942],[110.27507,-7.69936],[110.27514,-7.69929],[110.27521,-7.69923],[110.27528,-7.69916],[110.27535,-7.6991],[110.27549,-7.69896],[110.27556,-7.6989],[110.27563,-7.69883],[110.27569,-7.69876],[110.27576,-7.69869],[110.27582,-7.69862],[110.27587,-7.69854],[110.27593,-7.69847],[110.27603,-7.69831],[110.27607,-7.69823],[110.27611,-7.69814],[110.27615,-7.69806],[110.27623,-7.69788],[110.27626,-7.69779],[110.2763,-7.69771],[110.27633,-7.69762],[110.27641,-7.69744],[110.27645,-7.69736],[110.2765,-7.69728],[110.27654,-7.69719],[110.27679,-7.69679],[110.27685,-7.69671],[110.2769,-7.69663],[110.27696,-7.69656],[110.27701,-7.69648],[110.27707,-7.69641],[110.27713,-7.69633],[110.2772,-7.69626],[110.27732,-7.69612],[110.27739,-7.69605],[110.27746,-7.69599],[110.27753,-7.69592],[110.27774,-7.69574],[110.27782,-7.69568],[110.2779,-7.69563],[110.27797,-7.69557],[110.27805,-7.69552],[110.27813,-7.69546],[110.27821,-7.69541],[110.27828,-7.69535],[110.27836,-7.69529],[110.27844,-7.69524],[110.27851,-7.69518],[110.27859,-7.69512],[110.2788,-7.69494],[110.27894,-7.6948],[110.27901,-7.69474],[110.27907,-7.69467],[110.27913,-7.69459],[110.27919,-7.69452],[110.27924,-7.69444],[110.2793,-7.69437],[110.27935,-7.69429],[110.27941,-7.69421],[110.27953,-7.69407],[110.27987,-7.69373],[110.27999,-7.69359],[110.28005,-7.69351],[110.2801,-7.69344],[110.28015,-7.69336],[110.28033,-7.6931],[110.28048,-7.69289],[110.28064,-7.69266],[110.28083,-7.69199],[110.28092,-7.69167],[110.28094,-7.6916],[110.28097,-7.69152],[110.28099,-7.69144],[110.28102,-7.69137],[110.28106,-7.69121],[110.28108,-7.69117],[110.28109,-7.69114],[110.28113,-7.69098],[110.28115,-7.69091],[110.28117,-7.69083],[110.2812,-7.69075],[110.28122,-7.69067],[110.28124,-7.6906],[110.28128,-7.69044],[110.28131,-7.69037],[110.28137,-7.69013],[110.28139,-7.69006],[110.28142,-7.68998],[110.28144,-7.6899],[110.28146,-7.68983],[110.28148,-7.68975],[110.28151,-7.68967],[110.28153,-7.6896],[110.28156,-7.68952],[110.28158,-7.68945],[110.28161,-7.68937],[110.28163,-7.68929],[110.28166,-7.68922],[110.28168,-7.68914],[110.28171,-7.68907],[110.28174,-7.68899],[110.2818,-7.68885],[110.28183,-7.68877],[110.28186,-7.6887],[110.2819,-7.68862],[110.28193,-7.68855],[110.28205,-7.68834],[110.2821,-7.68827],[110.28215,-7.68821],[110.28221,-7.68816],[110.28235,-7.68808],[110.28242,-7.68805],[110.2825,-7.68802],[110.28257,-7.68799],[110.28273,-7.68795],[110.28345,-7.68786],[110.28353,-7.68784],[110.28369,-7.68782],[110.28376,-7.6878],[110.28384,-7.68778],[110.28391,-7.68776],[110.28392,-7.68775],[110.284,-7.68773],[110.28407,-7.6877],[110.28415,-7.68767],[110.28422,-7.68763],[110.28429,-7.6876],[110.28436,-7.68756],[110.28443,-7.68751],[110.28449,-7.68747],[110.28456,-7.68742],[110.28462,-7.68737],[110.28479,-7.6872],[110.28489,-7.68708],[110.28495,-7.68702],[110.285,-7.68695],[110.28505,-7.68689],[110.2851,-7.68682],[110.28515,-7.68676],[110.28519,-7.6867],[110.28524,-7.68663],[110.28529,-7.68657],[110.28534,-7.6865],[110.28544,-7.68638],[110.28549,-7.68631],[110.28554,-7.68625],[110.28566,-7.68604],[110.28567,-7.68602],[110.2857,-7.68597],[110.28576,-7.68583],[110.28579,-7.68575],[110.28602,-7.68504],[110.28605,-7.68466],[110.28609,-7.68425],[110.28609,-7.68354],[110.28608,-7.68344],[110.28608,-7.68273],[110.28609,-7.68263],[110.28609,-7.68253],[110.28615,-7.68193],[110.28617,-7.68183],[110.28618,-7.68173],[110.2862,-7.68163],[110.28622,-7.68143],[110.28622,-7.68132],[110.28623,-7.68122],[110.28623,-7.68102],[110.28622,-7.68091],[110.28622,-7.68061],[110.28623,-7.68051],[110.28627,-7.68031],[110.28633,-7.68013],[110.28643,-7.67995],[110.28649,-7.67987],[110.28655,-7.67978],[110.28667,-7.67962],[110.28674,-7.67954],[110.28675,-7.67951],[110.2868,-7.67946],[110.28686,-7.67938],[110.28693,-7.6793],[110.28705,-7.67914],[110.28712,-7.67907],[110.28713,-7.67905],[110.28718,-7.679],[110.28718,-7.67899],[110.28725,-7.67892],[110.28732,-7.67884],[110.28746,-7.6787],[110.28749,-7.67868],[110.2875,-7.67866],[110.28754,-7.67863],[110.28768,-7.67849],[110.28776,-7.67842],[110.28777,-7.67842],[110.28783,-7.67835],[110.28791,-7.67829],[110.28798,-7.67822],[110.28806,-7.67815],[110.2882,-7.67801],[110.28828,-7.67794],[110.28849,-7.67773],[110.28857,-7.67766],[110.28885,-7.67738],[110.28893,-7.67731],[110.289,-7.67723],[110.28928,-7.67695],[110.2893,-7.67694],[110.28935,-7.67687],[110.28949,-7.67673],[110.28956,-7.67665],[110.28963,-7.67658],[110.28977,-7.67642],[110.28978,-7.67641],[110.28983,-7.67635],[110.2899,-7.67627],[110.28994,-7.67621],[110.28996,-7.67619],[110.29008,-7.67603],[110.29014,-7.67594],[110.29019,-7.67586],[110.29025,-7.67577],[110.2903,-7.67569],[110.29035,-7.6756],[110.29039,-7.67551],[110.29044,-7.67542],[110.29048,-7.67532],[110.29052,-7.67515],[110.29062,-7.67477],[110.29065,-7.67465],[110.29075,-7.67407],[110.29076,-7.674],[110.29079,-7.67383],[110.29081,-7.6737],[110.29087,-7.67346],[110.29088,-7.67343],[110.2909,-7.67339],[110.29093,-7.67332],[110.29093,-7.67331],[110.29096,-7.67323],[110.29099,-7.67316],[110.29103,-7.67309],[110.29106,-7.67301],[110.29114,-7.67287],[110.29119,-7.6728],[110.29123,-7.67274],[110.29124,-7.67273],[110.29128,-7.67267],[110.29133,-7.6726],[110.29143,-7.67248],[110.29148,-7.67241],[110.29158,-7.67231],[110.29159,-7.67229],[110.29172,-7.67216],[110.29177,-7.67212],[110.29183,-7.67206],[110.29189,-7.67201],[110.29195,-7.67195],[110.29207,-7.67185],[110.29214,-7.6718],[110.29218,-7.67177],[110.2922,-7.67175],[110.29227,-7.6717],[110.29234,-7.67166],[110.2924,-7.67161],[110.29261,-7.67149],[110.29268,-7.67144],[110.29271,-7.67143],[110.29275,-7.6714],[110.29282,-7.67136],[110.29287,-7.67134],[110.29289,-7.67132],[110.2931,-7.6712],[110.29317,-7.67115],[110.29324,-7.67111],[110.29331,-7.67106],[110.29337,-7.67102],[110.29351,-7.67092],[110.29357,-7.67088],[110.29371,-7.67078],[110.29377,-7.67073],[110.29384,-7.67069],[110.2939,-7.67064],[110.29397,-7.67059],[110.29403,-7.67054],[110.2941,-7.67049],[110.29416,-7.67044],[110.29428,-7.67032],[110.29433,-7.67026],[110.29439,-7.6702],[110.29444,-7.67013],[110.29448,-7.67007],[110.29453,-7.66999],[110.29457,-7.66992],[110.29459,-7.66988],[110.2946,-7.66985],[110.29466,-7.66969],[110.2947,-7.66953],[110.29471,-7.66945],[110.29471,-7.66921],[110.2947,-7.66912],[110.2947,-7.66888],[110.29472,-7.66872],[110.29474,-7.66865],[110.29476,-7.66857],[110.29479,-7.66849],[110.29482,-7.66842],[110.29486,-7.66834],[110.29489,-7.66827],[110.295,-7.66808],[110.29525,-7.66762],[110.29563,-7.66716],[110.29582,-7.66686],[110.29593,-7.66676],[110.29604,-7.66665],[110.29615,-7.66655],[110.29627,-7.66646],[110.29638,-7.66636],[110.2965,-7.66626],[110.29661,-7.66616],[110.29672,-7.66607],[110.29673,-7.66606],[110.29684,-7.66597],[110.29695,-7.66586],[110.29728,-7.66556],[110.2976,-7.66524],[110.2977,-7.66513],[110.29781,-7.66503],[110.29801,-7.66481],[110.29811,-7.66469],[110.29821,-7.66458],[110.2983,-7.66447],[110.2984,-7.66435],[110.2985,-7.66424],[110.29859,-7.66412],[110.29869,-7.66401],[110.29879,-7.66389],[110.29888,-7.66378],[110.29898,-7.66366],[110.29907,-7.66355],[110.29917,-7.66343],[110.29927,-7.66332],[110.29937,-7.6632],[110.29946,-7.66309],[110.29966,-7.66287],[110.29966,-7.66286],[110.29996,-7.66253],[110.30005,-7.66241],[110.30025,-7.66219],[110.30032,-7.66209],[110.30034,-7.66207],[110.30044,-7.66196],[110.30054,-7.66184],[110.30072,-7.6616],[110.30082,-7.66148],[110.30091,-7.66136],[110.30099,-7.66124],[110.30108,-7.66111],[110.30116,-7.66098],[110.3013,-7.66072],[110.30136,-7.66059],[110.30163,-7.65985],[110.30168,-7.65917],[110.30168,-7.65909],[110.30169,-7.65896],[110.30171,-7.65884],[110.30172,-7.65871],[110.30174,-7.65858],[110.30175,-7.65846],[110.30177,-7.65833],[110.30179,-7.65821],[110.30181,-7.65808],[110.30183,-7.65796],[110.30186,-7.65784],[110.30189,-7.65771],[110.30192,-7.65759],[110.30204,-7.65723],[110.30209,-7.65711],[110.30213,-7.65702],[110.30213,-7.65699],[110.30218,-7.65688],[110.30224,-7.65676],[110.30229,-7.65664],[110.30235,-7.65653],[110.30241,-7.65641],[110.30246,-7.65633],[110.30247,-7.6563],[110.30254,-7.65618],[110.30261,-7.65607],[110.30268,-7.65597],[110.30276,-7.65587],[110.30285,-7.65578],[110.30294,-7.6557],[110.30304,-7.65563],[110.30315,-7.65557],[110.30327,-7.65552],[110.30339,-7.65548],[110.30352,-7.65544],[110.30364,-7.65541],[110.30377,-7.65538],[110.30378,-7.65537],[110.3036,-7.6553],[110.30359,-7.6553],[110.30329,-7.65518],[110.30299,-7.65505],[110.30286,-7.65505],[110.3027,-7.65501],[110.30249,-7.65495],[110.30245,-7.65497],[110.30233,-7.65491],[110.30223,-7.65491],[110.30219,-7.65488],[110.30208,-7.65478],[110.30206,-7.65468],[110.30206,-7.65458],[110.30205,-7.65444],[110.302,-7.65427],[110.30195,-7.65415],[110.30186,-7.65406],[110.3018,-7.65399],[110.30177,-7.65398],[110.30167,-7.65395],[110.30161,-7.65392],[110.30152,-7.65387],[110.30144,-7.65385],[110.30139,-7.65381],[110.30135,-7.65381],[110.30126,-7.65375],[110.30118,-7.65372],[110.30115,-7.65368],[110.30107,-7.65368],[110.30095,-7.65372],[110.30081,-7.6536],[110.30078,-7.65356],[110.30069,-7.65351],[110.30077,-7.65347],[110.30069,-7.65338],[110.30058,-7.65327],[110.30065,-7.65316],[110.30056,-7.65306],[110.30015,-7.65287],[110.29996,-7.65274],[110.29991,-7.65275],[110.29972,-7.65262],[110.29963,-7.65275],[110.29941,-7.65261],[110.29888,-7.65243],[110.29828,-7.65243],[110.298,-7.65242],[110.29782,-7.65249],[110.29763,-7.65248],[110.29801,-7.65215],[110.29787,-7.65209],[110.2975,-7.65179],[110.29733,-7.65165],[110.29731,-7.65163],[110.29716,-7.65151],[110.29703,-7.65122],[110.29714,-7.65109],[110.29702,-7.65057],[110.2968,-7.65012],[110.29667,-7.65001],[110.29665,-7.64977],[110.29662,-7.64967],[110.29653,-7.64966],[110.29635,-7.64935],[110.29625,-7.64945],[110.2962,-7.64944],[110.29619,-7.64942],[110.29615,-7.6494],[110.29629,-7.64921],[110.29628,-7.64914],[110.29627,-7.64898],[110.29602,-7.64865],[110.29577,-7.64846],[110.29544,-7.64842],[110.29529,-7.64838],[110.29518,-7.64836],[110.29496,-7.6483],[110.29471,-7.64822],[110.29437,-7.64805],[110.29428,-7.64804],[110.29414,-7.64801],[110.29403,-7.64798],[110.2939,-7.648],[110.29379,-7.64799],[110.29364,-7.64794],[110.29346,-7.6479],[110.29324,-7.64788],[110.29298,-7.64782],[110.29282,-7.64778],[110.29274,-7.64767],[110.2926,-7.64756],[110.29236,-7.6472],[110.29235,-7.64703],[110.2923,-7.64697],[110.29228,-7.64676],[110.29229,-7.64656],[110.29232,-7.6463],[110.29238,-7.64608],[110.29238,-7.64605],[110.29246,-7.646],[110.29253,-7.64597],[110.29263,-7.64593],[110.29277,-7.64587],[110.29283,-7.64583],[110.29287,-7.64579],[110.2929,-7.64575],[110.29291,-7.64572],[110.29292,-7.6455],[110.29293,-7.64543],[110.29295,-7.64533],[110.29297,-7.64526],[110.29297,-7.64524],[110.29299,-7.64518],[110.29302,-7.64514],[110.29306,-7.6451],[110.29311,-7.64507],[110.29318,-7.64506],[110.29345,-7.64506],[110.29366,-7.64507],[110.29378,-7.64507],[110.29386,-7.64505],[110.29395,-7.64502],[110.29404,-7.64497],[110.29412,-7.64493],[110.29421,-7.64488],[110.29422,-7.64487],[110.29429,-7.64484],[110.29437,-7.64482],[110.29442,-7.64481],[110.2944,-7.64415],[110.29429,-7.64403],[110.29413,-7.64384],[110.29412,-7.64383],[110.29388,-7.64376],[110.29356,-7.64348],[110.29341,-7.64335],[110.29319,-7.64361],[110.29309,-7.64367],[110.29309,-7.64368],[110.29275,-7.64346],[110.29269,-7.64343],[110.29274,-7.64338],[110.29312,-7.64299],[110.2927,-7.64253],[110.29267,-7.64255],[110.29259,-7.64262],[110.29219,-7.64293],[110.29213,-7.64298],[110.29203,-7.64305],[110.29195,-7.64312],[110.2919,-7.64315],[110.29166,-7.64334],[110.29143,-7.64354],[110.29127,-7.64367],[110.29109,-7.64382],[110.29101,-7.6439],[110.29084,-7.64369],[110.29078,-7.64343],[110.29065,-7.64323],[110.29057,-7.64309],[110.29032,-7.64269],[110.29024,-7.64259],[110.2902,-7.64256],[110.29017,-7.64254],[110.28998,-7.64242],[110.2897,-7.64225],[110.28915,-7.64191],[110.28911,-7.64188],[110.28873,-7.64153],[110.2887,-7.64149],[110.28869,-7.64145],[110.28867,-7.64141],[110.28867,-7.64133],[110.28868,-7.64127],[110.2887,-7.6412],[110.28871,-7.64116],[110.28873,-7.64106],[110.28875,-7.64101],[110.28878,-7.64096],[110.28881,-7.6409],[110.28891,-7.64074],[110.28896,-7.64065],[110.28897,-7.64064],[110.28898,-7.64062],[110.28899,-7.64059],[110.28899,-7.64056],[110.28898,-7.64053],[110.28892,-7.6404],[110.28889,-7.64033],[110.28887,-7.64029],[110.28885,-7.64026],[110.28883,-7.64024],[110.28881,-7.64018],[110.2888,-7.64016],[110.28879,-7.64007],[110.28877,-7.63995],[110.28875,-7.63989],[110.28875,-7.63986],[110.28873,-7.6398],[110.28869,-7.63974],[110.28864,-7.63973],[110.28862,-7.63973],[110.28855,-7.63976],[110.28854,-7.63977],[110.28849,-7.63985],[110.28847,-7.63996],[110.28843,-7.64034],[110.28842,-7.64035],[110.2884,-7.64036],[110.28834,-7.64041],[110.28809,-7.64041],[110.28763,-7.64046],[110.28755,-7.64034],[110.28737,-7.64034],[110.28715,-7.64032],[110.28692,-7.64042],[110.28664,-7.64064],[110.28649,-7.64058],[110.28632,-7.64048],[110.28631,-7.64014],[110.28629,-7.63996],[110.28603,-7.63978],[110.28586,-7.6397],[110.28556,-7.6397],[110.28537,-7.63969],[110.2852,-7.63977],[110.28479,-7.63973],[110.28456,-7.63963],[110.28445,-7.63967],[110.28431,-7.63977],[110.28411,-7.6397],[110.28403,-7.63982],[110.28399,-7.63994],[110.2839,-7.64002],[110.28395,-7.6402],[110.28384,-7.64038],[110.28378,-7.64045],[110.28349,-7.64035],[110.28308,-7.64022],[110.28275,-7.64022],[110.28246,-7.6402],[110.28219,-7.64015],[110.28202,-7.64016],[110.2818,-7.64013],[110.28166,-7.64025],[110.28158,-7.64026],[110.28144,-7.64019],[110.28127,-7.64008],[110.28112,-7.64018],[110.281,-7.64038],[110.28076,-7.64044],[110.28052,-7.64045],[110.28047,-7.64055],[110.28046,-7.64055],[110.28042,-7.64065],[110.2804,-7.64068],[110.28036,-7.64076],[110.28034,-7.64081],[110.2803,-7.64095],[110.28028,-7.64098],[110.28026,-7.641],[110.28024,-7.64103],[110.2802,-7.64107],[110.28006,-7.64116],[110.28,-7.64118],[110.27995,-7.64119],[110.27984,-7.64119],[110.27979,-7.64117],[110.27971,-7.64113],[110.27968,-7.6411],[110.27965,-7.64104],[110.27961,-7.64097],[110.2796,-7.64095],[110.27959,-7.64095],[110.27956,-7.64093],[110.27951,-7.6409],[110.27945,-7.64089],[110.27928,-7.6409],[110.27921,-7.64091],[110.27915,-7.64093],[110.27914,-7.64094],[110.27913,-7.64094],[110.27909,-7.64096],[110.27904,-7.64101],[110.27899,-7.64107],[110.27898,-7.64111],[110.27897,-7.64111],[110.27896,-7.64113],[110.27893,-7.64122],[110.27892,-7.64127],[110.27884,-7.64134],[110.27879,-7.64133],[110.27875,-7.64132],[110.27862,-7.64129],[110.27854,-7.64132],[110.27847,-7.64137],[110.27835,-7.64145],[110.27827,-7.64146],[110.27817,-7.64148],[110.27804,-7.64153],[110.27799,-7.64148],[110.27773,-7.64145],[110.27765,-7.6415],[110.2775,-7.64145],[110.27745,-7.64151],[110.2772,-7.64139],[110.27705,-7.64131],[110.27696,-7.64119],[110.27695,-7.64119],[110.27685,-7.64106],[110.2769,-7.64095],[110.2769,-7.64094],[110.27697,-7.64084],[110.27702,-7.64082],[110.27713,-7.64079],[110.27714,-7.64079],[110.27717,-7.64077],[110.27721,-7.64074],[110.27726,-7.64069],[110.27728,-7.64068],[110.27735,-7.64061],[110.27746,-7.64051],[110.27749,-7.64049],[110.27752,-7.64046],[110.27754,-7.64043],[110.27758,-7.64039],[110.27761,-7.64035],[110.27766,-7.6403],[110.27767,-7.64028],[110.27773,-7.64019],[110.27773,-7.64018],[110.27774,-7.64017],[110.27783,-7.64003],[110.27787,-7.63999],[110.27798,-7.63987],[110.27804,-7.63982],[110.27807,-7.63979],[110.27811,-7.63976],[110.27813,-7.63973],[110.27819,-7.63963],[110.27819,-7.63957],[110.27818,-7.63952],[110.27816,-7.63944],[110.27816,-7.63941],[110.27815,-7.63934],[110.27815,-7.63926],[110.27818,-7.63903],[110.27818,-7.63888],[110.27817,-7.63885],[110.27818,-7.63873],[110.27819,-7.63864],[110.27821,-7.63855],[110.27823,-7.63848],[110.27827,-7.63838],[110.27829,-7.63835],[110.27839,-7.63808],[110.27844,-7.63801],[110.27847,-7.63794],[110.27849,-7.63789],[110.27849,-7.63785],[110.27846,-7.63755],[110.27845,-7.63747],[110.27845,-7.63735],[110.27844,-7.63733],[110.27843,-7.6373],[110.27833,-7.63727],[110.27832,-7.63726],[110.27822,-7.63711],[110.27818,-7.63706],[110.27817,-7.63704],[110.27816,-7.637],[110.27814,-7.63693],[110.27822,-7.63679],[110.27828,-7.63675],[110.27834,-7.63672],[110.27837,-7.63669],[110.27838,-7.63665],[110.27837,-7.63664],[110.27836,-7.63661],[110.27824,-7.63647],[110.27821,-7.63644],[110.27818,-7.6364],[110.27816,-7.63637],[110.27816,-7.63636],[110.27815,-7.63634],[110.27815,-7.63629],[110.27816,-7.63625],[110.27818,-7.63619],[110.27823,-7.63613],[110.2783,-7.63606],[110.27835,-7.636],[110.2784,-7.63593],[110.27841,-7.63591],[110.27843,-7.6359],[110.27845,-7.6359],[110.27853,-7.63588],[110.27856,-7.63586],[110.27857,-7.63585],[110.27858,-7.63582],[110.2786,-7.63572],[110.27868,-7.63559],[110.27866,-7.63531],[110.27864,-7.63523],[110.27864,-7.63521],[110.27863,-7.63519],[110.27862,-7.63508],[110.27864,-7.63506],[110.27868,-7.63501],[110.2787,-7.63497],[110.27872,-7.63495],[110.27876,-7.63488],[110.27879,-7.63483],[110.2788,-7.6348],[110.27882,-7.63476],[110.27885,-7.63471],[110.27889,-7.63468],[110.27893,-7.63467],[110.27893,-7.63466],[110.27894,-7.63466],[110.27898,-7.63465],[110.27901,-7.63464],[110.27909,-7.63454],[110.27911,-7.63451],[110.27916,-7.63441],[110.2792,-7.63432],[110.27929,-7.6341],[110.27931,-7.63406],[110.27933,-7.63401],[110.27935,-7.63399],[110.27939,-7.63396],[110.27942,-7.63395],[110.27957,-7.63392],[110.27961,-7.63391],[110.27962,-7.63389],[110.27963,-7.63389],[110.27966,-7.63386],[110.27975,-7.63375],[110.2798,-7.63368],[110.27988,-7.63356],[110.27991,-7.6335],[110.27993,-7.63347],[110.27995,-7.63341],[110.27996,-7.63337],[110.27996,-7.63327],[110.27997,-7.63322],[110.27999,-7.63315],[110.28,-7.63303],[110.28,-7.63294],[110.27998,-7.63289],[110.27996,-7.63285],[110.27993,-7.63277],[110.27993,-7.63272],[110.27994,-7.6327],[110.27999,-7.63255],[110.28002,-7.63252],[110.28005,-7.63248],[110.28009,-7.63244],[110.28014,-7.6324],[110.27977,-7.63238],[110.27955,-7.63227],[110.27942,-7.63229],[110.27923,-7.63218],[110.27904,-7.63217],[110.27892,-7.63217],[110.27875,-7.6323],[110.27863,-7.63236],[110.27857,-7.6324],[110.2785,-7.63249],[110.27852,-7.63259],[110.27852,-7.6327],[110.27847,-7.63278],[110.27834,-7.63282],[110.27822,-7.6329],[110.27814,-7.63299],[110.27794,-7.63303],[110.27773,-7.63307],[110.27766,-7.6331],[110.27698,-7.63289],[110.27694,-7.63282],[110.27682,-7.63279],[110.27669,-7.63285],[110.27663,-7.63286],[110.27655,-7.63285],[110.27645,-7.63278],[110.27625,-7.63265],[110.27602,-7.63248],[110.27589,-7.63239],[110.27573,-7.63253],[110.27558,-7.63248],[110.27537,-7.63235],[110.27531,-7.63225],[110.27522,-7.63208],[110.27516,-7.63194],[110.27505,-7.63172],[110.27498,-7.63174],[110.27484,-7.63171],[110.27465,-7.63151],[110.27455,-7.63144],[110.27436,-7.63139],[110.27421,-7.6314],[110.27391,-7.63132],[110.27373,-7.63131],[110.27361,-7.6313],[110.27342,-7.63132],[110.27324,-7.63123],[110.27302,-7.63118],[110.2729,-7.63111],[110.2727,-7.63096],[110.27252,-7.63082],[110.27234,-7.63058],[110.27228,-7.63039],[110.27225,-7.62997],[110.27219,-7.62961],[110.2721,-7.62938],[110.27207,-7.62923],[110.27204,-7.62904],[110.27209,-7.62874],[110.2721,-7.62864],[110.27205,-7.62853],[110.27201,-7.62846],[110.27201,-7.62847],[110.27195,-7.62849],[110.27189,-7.62849],[110.27186,-7.6285],[110.27181,-7.62849],[110.27178,-7.62849],[110.27175,-7.62848],[110.27169,-7.62848],[110.27165,-7.62849],[110.27163,-7.62849],[110.27161,-7.62851],[110.27158,-7.6286],[110.27153,-7.6287],[110.27153,-7.62874],[110.27151,-7.6288],[110.2715,-7.62885],[110.27142,-7.62897],[110.27138,-7.62901],[110.27135,-7.62903],[110.2713,-7.62906],[110.27126,-7.62909],[110.27118,-7.62907],[110.27093,-7.62902],[110.27078,-7.62895],[110.27065,-7.62889],[110.27055,-7.62867],[110.27044,-7.6285],[110.26997,-7.62821],[110.26994,-7.62816],[110.26993,-7.62811],[110.26993,-7.62795],[110.26992,-7.62792],[110.26992,-7.62789],[110.26991,-7.62787],[110.26989,-7.62784],[110.26988,-7.62781],[110.26982,-7.62773],[110.2697,-7.62761],[110.26963,-7.62755],[110.26963,-7.62754],[110.26959,-7.6275],[110.26943,-7.62735],[110.26942,-7.62735],[110.26913,-7.62709],[110.26912,-7.62709],[110.26911,-7.62707],[110.2691,-7.62706],[110.26885,-7.62688],[110.26877,-7.62682],[110.26872,-7.62678],[110.26871,-7.62678],[110.26862,-7.62672],[110.26861,-7.62672],[110.26859,-7.62671],[110.26843,-7.62662],[110.26831,-7.62654],[110.2683,-7.62654],[110.26828,-7.62652],[110.26827,-7.62652],[110.26825,-7.6265],[110.26823,-7.62646],[110.26822,-7.62641],[110.26821,-7.62639],[110.26804,-7.62639],[110.26798,-7.62637],[110.26794,-7.62636],[110.26792,-7.62635],[110.26789,-7.62632],[110.26753,-7.6261],[110.26726,-7.62595],[110.26723,-7.62593],[110.26717,-7.6259],[110.26714,-7.62588],[110.26696,-7.62575],[110.26693,-7.62572],[110.26685,-7.6256],[110.26673,-7.62541],[110.26669,-7.62533],[110.26668,-7.62532],[110.26659,-7.62516],[110.2665,-7.62501],[110.26615,-7.62506],[110.26603,-7.62516],[110.26596,-7.62517],[110.26577,-7.6252],[110.26555,-7.62524],[110.26531,-7.62534],[110.26517,-7.62561],[110.26515,-7.62576],[110.26513,-7.62595],[110.26518,-7.62608],[110.2651,-7.62607],[110.26509,-7.62602],[110.26506,-7.62591],[110.26504,-7.62582],[110.26484,-7.62585],[110.26481,-7.62579],[110.26478,-7.62569],[110.26471,-7.62558],[110.26445,-7.62549],[110.26431,-7.62546],[110.26405,-7.62536],[110.26388,-7.62526],[110.26379,-7.62521],[110.2637,-7.62518],[110.2635,-7.6251],[110.26326,-7.625],[110.26291,-7.62488],[110.2627,-7.62477],[110.26254,-7.62462],[110.26242,-7.62454],[110.26227,-7.62456],[110.26205,-7.62458],[110.26163,-7.62451],[110.26152,-7.6244],[110.26147,-7.62433],[110.26138,-7.62417],[110.2612,-7.62399],[110.26104,-7.62386],[110.26088,-7.62379],[110.26079,-7.62375],[110.26066,-7.62363],[110.26039,-7.62349],[110.26035,-7.62345],[110.26024,-7.62336],[110.26,-7.62362],[110.25932,-7.62422],[110.25873,-7.62483],[110.25834,-7.62529],[110.25822,-7.62544],[110.25819,-7.62547],[110.2578,-7.62594],[110.25759,-7.62628],[110.25756,-7.62676],[110.25749,-7.62734],[110.25745,-7.62801],[110.25741,-7.62851],[110.25737,-7.62855],[110.25734,-7.62857],[110.25715,-7.62907],[110.25699,-7.62937],[110.25684,-7.62966],[110.25646,-7.63039],[110.2563,-7.63063],[110.25616,-7.63081],[110.2561,-7.63083],[110.25608,-7.63084],[110.25603,-7.63085],[110.25592,-7.63089],[110.25578,-7.63093],[110.25568,-7.63099],[110.25558,-7.63106],[110.25554,-7.6311],[110.25547,-7.63116],[110.25542,-7.63125],[110.2554,-7.63131],[110.25524,-7.63129],[110.25521,-7.63135],[110.25512,-7.63158],[110.25502,-7.6317],[110.25487,-7.63192],[110.2548,-7.63199],[110.25471,-7.63209],[110.25464,-7.63219],[110.25449,-7.63235],[110.25443,-7.63245],[110.25439,-7.63258],[110.25434,-7.63273],[110.2542,-7.63301],[110.25417,-7.63315],[110.25413,-7.63324],[110.25406,-7.63336],[110.25391,-7.63334],[110.25369,-7.63332],[110.25363,-7.63331],[110.25369,-7.633],[110.2536,-7.63289],[110.25348,-7.63288],[110.25329,-7.63285],[110.25316,-7.63282],[110.25305,-7.63273],[110.25299,-7.63263],[110.25298,-7.63258],[110.25283,-7.63261],[110.25267,-7.63264],[110.25253,-7.63276],[110.25241,-7.63285],[110.25224,-7.63295],[110.25206,-7.63295],[110.25194,-7.63298],[110.25188,-7.63303],[110.25177,-7.63298],[110.25166,-7.63294],[110.25154,-7.63296],[110.25144,-7.63297],[110.25139,-7.6329],[110.25132,-7.63285],[110.25127,-7.63282],[110.25116,-7.63272],[110.25095,-7.63263],[110.25084,-7.6326],[110.25071,-7.63259],[110.25068,-7.63255],[110.25062,-7.63252],[110.25052,-7.63243],[110.25049,-7.63257],[110.25049,-7.6327],[110.25046,-7.63281],[110.25046,-7.6329],[110.25031,-7.63292],[110.25003,-7.63292],[110.24992,-7.63298],[110.24986,-7.63305],[110.24979,-7.63315],[110.24971,-7.63327],[110.24966,-7.6334],[110.24962,-7.63357],[110.24956,-7.63369],[110.24955,-7.63378],[110.2495,-7.63389],[110.24944,-7.63396],[110.24937,-7.634],[110.24916,-7.63413],[110.24909,-7.63422],[110.24908,-7.63426],[110.24906,-7.63431],[110.24895,-7.6346],[110.2489,-7.63467],[110.24883,-7.63476],[110.24877,-7.63489],[110.24866,-7.63511],[110.24842,-7.63527],[110.24817,-7.63536],[110.248,-7.63571],[110.24765,-7.6361],[110.2469,-7.63672],[110.2464,-7.6371],[110.24628,-7.63727],[110.24618,-7.63749],[110.24615,-7.63758],[110.24598,-7.63802],[110.2459,-7.6382],[110.24586,-7.63846],[110.24583,-7.6387],[110.24581,-7.63881],[110.24579,-7.639]]]}}]}