{"type":"FeatureCollection","features":[{"type":"Feature","properties":{"KECAMATAN":"Pakis"},"geometry":{"type":"Polygon","coordinates":[[[110.29394,-7.46938],[110.29396,-7.46937],[110.29412,-7.46931],[110.29423,-7.46928],[110.29437,-7.46925],[110.29444,-7.46922],[110.29457,-7.46913],[110.29462,-7.4691],[110.29483,-7.46896],[110.29492,-7.46885],[110.29497,-7.46875],[110.295,-7.46858],[110.29507,-7.4684],[110.29513,-7.4683],[110.29529,-7.46824],[110.29548,-7.46821],[110.29561,-7.46819],[110.29588,-7.46817],[110.29617,-7.46816],[110.29632,-7.4681],[110.29641,-7.46806],[110.29691,-7.46776],[110.29726,-7.46747],[110.29772,-7.4671],[110.29807,-7.46679],[110.29825,-7.46663],[110.29858,-7.4663],[110.29861,-7.46629],[110.29891,-7.46606],[110.29895,-7.46602],[110.29926,-7.46593],[110.29974,-7.46578],[110.30013,-7.46564],[110.30058,-7.46544],[110.30075,-7.46541],[110.30096,-7.46538],[110.30121,-7.46541],[110.30142,-7.46544],[110.30157,-7.46545],[110.30166,-7.46541],[110.30197,-7.46525],[110.30201,-7.46523],[110.30215,-7.46517],[110.30221,-7.46514],[110.30229,-7.46512],[110.3025,-7.46505],[110.30286,-7.4649],[110.30292,-7.46484],[110.30312,-7.46461],[110.30328,-7.4644],[110.30338,-7.46424],[110.30344,-7.46409],[110.30356,-7.46391],[110.30369,-7.46381],[110.30412,-7.46378],[110.30437,-7.46373],[110.3045,-7.46371],[110.30461,-7.46369],[110.30464,-7.46369],[110.30493,-7.46363],[110.30523,-7.46359],[110.30544,-7.46352],[110.30546,-7.46352],[110.30551,-7.46348],[110.30576,-7.4633],[110.30585,-7.46325],[110.30595,-7.46319],[110.30619,-7.46309],[110.30626,-7.46307],[110.30646,-7.46305],[110.30672,-7.46305],[110.30687,-7.46308],[110.30709,-7.46314],[110.30727,-7.4632],[110.30752,-7.4632],[110.30778,-7.46315],[110.3083,-7.46302],[110.30851,-7.46306],[110.30868,-7.46312],[110.30883,-7.46319],[110.30899,-7.46325],[110.30919,-7.46327],[110.30932,-7.46327],[110.30937,-7.46328],[110.3097,-7.46325],[110.30979,-7.46323],[110.30993,-7.46321],[110.31013,-7.46314],[110.31029,-7.46307],[110.31045,-7.46301],[110.31076,-7.46291],[110.31122,-7.46265],[110.31159,-7.46246],[110.31163,-7.46244],[110.31182,-7.46233],[110.31199,-7.46225],[110.31214,-7.46218],[110.31225,-7.46215],[110.31232,-7.46213],[110.3127,-7.462],[110.31297,-7.46188],[110.31314,-7.4618],[110.31329,-7.46167],[110.3135,-7.46158],[110.31373,-7.46155],[110.31389,-7.46157],[110.31431,-7.46164],[110.31435,-7.46165],[110.31484,-7.46163],[110.3149,-7.46164],[110.31507,-7.46165],[110.31509,-7.46166],[110.31523,-7.46171],[110.31539,-7.46181],[110.31542,-7.46185],[110.3155,-7.46193],[110.3156,-7.46201],[110.31572,-7.46205],[110.31592,-7.46208],[110.31622,-7.46211],[110.31643,-7.46212],[110.31652,-7.46212],[110.3167,-7.4621],[110.31702,-7.46203],[110.31726,-7.46199],[110.31742,-7.46192],[110.3176,-7.46183],[110.31777,-7.46175],[110.31801,-7.46161],[110.31805,-7.46159],[110.3183,-7.46149],[110.31851,-7.46144],[110.31868,-7.46143],[110.31883,-7.46145],[110.31896,-7.46146],[110.31903,-7.46147],[110.31929,-7.46158],[110.3193,-7.46158],[110.31957,-7.46163],[110.31973,-7.46164],[110.31984,-7.46163],[110.31994,-7.46161],[110.31997,-7.4616],[110.32011,-7.46156],[110.32024,-7.46151],[110.32035,-7.46143],[110.32048,-7.46134],[110.32058,-7.46127],[110.32076,-7.46112],[110.32086,-7.461],[110.32102,-7.46082],[110.32118,-7.4607],[110.32133,-7.46062],[110.3215,-7.46055],[110.32168,-7.46049],[110.32193,-7.46044],[110.32215,-7.46042],[110.32232,-7.46039],[110.32251,-7.46036],[110.32255,-7.46035],[110.3227,-7.46028],[110.32271,-7.46027],[110.32294,-7.46008],[110.32311,-7.4599],[110.32327,-7.4597],[110.32339,-7.45953],[110.32364,-7.4593],[110.32378,-7.45919],[110.32423,-7.45893],[110.32442,-7.45883],[110.32459,-7.45876],[110.32471,-7.45871],[110.32477,-7.45868],[110.32495,-7.4586],[110.32512,-7.45852],[110.3253,-7.45844],[110.32559,-7.45841],[110.3258,-7.45838],[110.32596,-7.45831],[110.32614,-7.45822],[110.32631,-7.45811],[110.32647,-7.45806],[110.32663,-7.45805],[110.32679,-7.45807],[110.32725,-7.45841],[110.32738,-7.45874],[110.3274,-7.45877],[110.32742,-7.45879],[110.32766,-7.45909],[110.32783,-7.45931],[110.32806,-7.45956],[110.32826,-7.45972],[110.32835,-7.45991],[110.32833,-7.46003],[110.32828,-7.46011],[110.32817,-7.46014],[110.32816,-7.46014],[110.32805,-7.46017],[110.32794,-7.46023],[110.3279,-7.46031],[110.32787,-7.46045],[110.32787,-7.46054],[110.32785,-7.46065],[110.32781,-7.4607],[110.32763,-7.46077],[110.32746,-7.46087],[110.3274,-7.46092],[110.32737,-7.46094],[110.32731,-7.46102],[110.32726,-7.46113],[110.32726,-7.46114],[110.32725,-7.4612],[110.32725,-7.46128],[110.32729,-7.46137],[110.32733,-7.46157],[110.32732,-7.46183],[110.32726,-7.46203],[110.32722,-7.46214],[110.32716,-7.46221],[110.32703,-7.46226],[110.32692,-7.46227],[110.32682,-7.46227],[110.32668,-7.46228],[110.32662,-7.4623],[110.32657,-7.46236],[110.32655,-7.46244],[110.32655,-7.46252],[110.32654,-7.4626],[110.32653,-7.46269],[110.32652,-7.46276],[110.32652,-7.46278],[110.32637,-7.46291],[110.32661,-7.46325],[110.32659,-7.46332],[110.32643,-7.46349],[110.32632,-7.46361],[110.32625,-7.46373],[110.32617,-7.46384],[110.32607,-7.46395],[110.32562,-7.46426],[110.32548,-7.46433],[110.32535,-7.46436],[110.32525,-7.46439],[110.32517,-7.46442],[110.32507,-7.46447],[110.325,-7.46458],[110.32491,-7.46476],[110.32459,-7.46516],[110.3245,-7.46528],[110.32407,-7.46588],[110.32397,-7.46607],[110.32393,-7.46619],[110.32396,-7.46629],[110.32397,-7.46661],[110.32396,-7.46667],[110.32383,-7.46678],[110.32364,-7.46677],[110.32349,-7.46669],[110.32337,-7.46663],[110.32322,-7.46662],[110.32316,-7.46665],[110.32311,-7.4667],[110.32303,-7.46677],[110.32297,-7.46698],[110.3229,-7.46708],[110.32279,-7.46721],[110.3227,-7.46732],[110.32241,-7.46753],[110.32228,-7.46777],[110.32224,-7.46788],[110.32216,-7.46814],[110.32214,-7.46823],[110.32206,-7.46845],[110.32197,-7.46855],[110.32185,-7.46859],[110.32175,-7.4686],[110.32165,-7.4686],[110.32151,-7.46859],[110.32148,-7.4686],[110.32134,-7.46866],[110.32126,-7.46873],[110.3212,-7.46881],[110.321,-7.46901],[110.32079,-7.46919],[110.32067,-7.46923],[110.32047,-7.46928],[110.32035,-7.46935],[110.32021,-7.46945],[110.3202,-7.46945],[110.32016,-7.46948],[110.32002,-7.46962],[110.31997,-7.46975],[110.31997,-7.46985],[110.31999,-7.46992],[110.31999,-7.46993],[110.32002,-7.47003],[110.32001,-7.47014],[110.31999,-7.47022],[110.31995,-7.47029],[110.31991,-7.47034],[110.31979,-7.47041],[110.31968,-7.47046],[110.31956,-7.47052],[110.31941,-7.47056],[110.31928,-7.47062],[110.31923,-7.47066],[110.31916,-7.47073],[110.31911,-7.47081],[110.31906,-7.4709],[110.31902,-7.47097],[110.31898,-7.47113],[110.31897,-7.47119],[110.31894,-7.47135],[110.31892,-7.47146],[110.31888,-7.47152],[110.31878,-7.4716],[110.31869,-7.47163],[110.3186,-7.47167],[110.31836,-7.47175],[110.31831,-7.47179],[110.31826,-7.47182],[110.31821,-7.47194],[110.31821,-7.47203],[110.31822,-7.4721],[110.31827,-7.47231],[110.31829,-7.47237],[110.3183,-7.47246],[110.31824,-7.47258],[110.31813,-7.47264],[110.31808,-7.47266],[110.31803,-7.47267],[110.31792,-7.4727],[110.31776,-7.47276],[110.31766,-7.47278],[110.31757,-7.47277],[110.31749,-7.47276],[110.31741,-7.47273],[110.31737,-7.47271],[110.31725,-7.47259],[110.31721,-7.47254],[110.31714,-7.4725],[110.31705,-7.47247],[110.31687,-7.47247],[110.31677,-7.47252],[110.31674,-7.47258],[110.31674,-7.47259],[110.31672,-7.47266],[110.31669,-7.47293],[110.31672,-7.47318],[110.31667,-7.47332],[110.31666,-7.47341],[110.31658,-7.47354],[110.31651,-7.47358],[110.3164,-7.4736],[110.31617,-7.47359],[110.31602,-7.47359],[110.31587,-7.4736],[110.31567,-7.47365],[110.31552,-7.47372],[110.31542,-7.47377],[110.31537,-7.47383],[110.31533,-7.4739],[110.3153,-7.47394],[110.31528,-7.47397],[110.31523,-7.47402],[110.31509,-7.47401],[110.31505,-7.47398],[110.31499,-7.47392],[110.31496,-7.47386],[110.31486,-7.4737],[110.3148,-7.47361],[110.31475,-7.47356],[110.3146,-7.47356],[110.31454,-7.47358],[110.31448,-7.47362],[110.31446,-7.4737],[110.31442,-7.47383],[110.31428,-7.47421],[110.31424,-7.4743],[110.31399,-7.47457],[110.31373,-7.47479],[110.31359,-7.47489],[110.31347,-7.47491],[110.3134,-7.47491],[110.31333,-7.4749],[110.31325,-7.47488],[110.31315,-7.4748],[110.31302,-7.4747],[110.31296,-7.47467],[110.31285,-7.47459],[110.31279,-7.47457],[110.31269,-7.47458],[110.31263,-7.4746],[110.31254,-7.47465],[110.3125,-7.47471],[110.31241,-7.47489],[110.31239,-7.47498],[110.31241,-7.47512],[110.31243,-7.47515],[110.31247,-7.47523],[110.3125,-7.47535],[110.31251,-7.47547],[110.31248,-7.47562],[110.31235,-7.4758],[110.31224,-7.47589],[110.31217,-7.47594],[110.31206,-7.476],[110.31191,-7.4762],[110.31187,-7.47627],[110.31185,-7.47646],[110.31183,-7.4765],[110.31182,-7.47654],[110.31177,-7.47657],[110.31177,-7.47658],[110.31172,-7.47659],[110.31162,-7.47658],[110.31147,-7.47653],[110.31141,-7.47655],[110.31139,-7.47657],[110.31136,-7.47668],[110.31129,-7.47691],[110.31117,-7.47711],[110.31113,-7.47719],[110.31111,-7.47722],[110.31105,-7.47729],[110.31096,-7.47735],[110.31084,-7.4774],[110.31071,-7.47744],[110.31057,-7.47752],[110.31039,-7.47764],[110.31028,-7.47771],[110.31009,-7.47774],[110.30994,-7.47777],[110.30984,-7.47772],[110.30961,-7.47758],[110.30961,-7.47759],[110.30962,-7.47766],[110.30966,-7.47774],[110.30971,-7.47779],[110.30973,-7.47783],[110.30973,-7.4779],[110.30982,-7.47797],[110.30992,-7.47801],[110.31006,-7.478],[110.31018,-7.47797],[110.31026,-7.47794],[110.31039,-7.47792],[110.31052,-7.47792],[110.31061,-7.47794],[110.31078,-7.47796],[110.31091,-7.47799],[110.31115,-7.47804],[110.31128,-7.47811],[110.31142,-7.47817],[110.31154,-7.47824],[110.31161,-7.47829],[110.31178,-7.47847],[110.31183,-7.47858],[110.31188,-7.47873],[110.31204,-7.47894],[110.31217,-7.47905],[110.3123,-7.47914],[110.31231,-7.47914],[110.31249,-7.47916],[110.31269,-7.47916],[110.31287,-7.47914],[110.313,-7.47908],[110.31308,-7.47898],[110.31314,-7.47887],[110.31318,-7.47867],[110.3132,-7.47853],[110.31321,-7.47849],[110.31321,-7.47839],[110.31322,-7.47828],[110.31336,-7.47813],[110.3135,-7.4781],[110.31369,-7.47815],[110.31383,-7.47821],[110.31396,-7.47829],[110.31412,-7.4784],[110.31431,-7.4785],[110.31442,-7.47854],[110.31459,-7.47858],[110.31461,-7.47857],[110.31468,-7.47857],[110.31473,-7.47851],[110.31476,-7.47837],[110.31479,-7.47822],[110.31481,-7.4781],[110.31486,-7.47801],[110.3149,-7.478],[110.31495,-7.47798],[110.3151,-7.47801],[110.31524,-7.47809],[110.31532,-7.47815],[110.31537,-7.47819],[110.31562,-7.4783],[110.31579,-7.47829],[110.31591,-7.47824],[110.31592,-7.47812],[110.31593,-7.47802],[110.31593,-7.47787],[110.31596,-7.47777],[110.31602,-7.47771],[110.31618,-7.47765],[110.31632,-7.47764],[110.31646,-7.47767],[110.31653,-7.47773],[110.31659,-7.47784],[110.31663,-7.47794],[110.31665,-7.47803],[110.31668,-7.47823],[110.31668,-7.47829],[110.31669,-7.4783],[110.31683,-7.47849],[110.31689,-7.47862],[110.31699,-7.4787],[110.31709,-7.47873],[110.31716,-7.47868],[110.31719,-7.47858],[110.31725,-7.47836],[110.31729,-7.47825],[110.31741,-7.47813],[110.31746,-7.47805],[110.31755,-7.47799],[110.31759,-7.47796],[110.31769,-7.47793],[110.31771,-7.47792],[110.3178,-7.4779],[110.31796,-7.47792],[110.31806,-7.47796],[110.31816,-7.47799],[110.31822,-7.47799],[110.31838,-7.47794],[110.31858,-7.4779],[110.31873,-7.47786],[110.31893,-7.47786],[110.31902,-7.47792],[110.31911,-7.47801],[110.31919,-7.47822],[110.31925,-7.47834],[110.31933,-7.47846],[110.31941,-7.47852],[110.31955,-7.47852],[110.31978,-7.47846],[110.31995,-7.47832],[110.32,-7.47829],[110.32012,-7.47805],[110.32012,-7.47785],[110.32017,-7.47771],[110.3202,-7.47764],[110.32021,-7.47759],[110.32029,-7.4775],[110.32034,-7.47745],[110.32051,-7.47736],[110.32071,-7.47734],[110.32082,-7.47735],[110.32086,-7.47742],[110.32086,-7.47764],[110.32087,-7.47774],[110.32091,-7.47784],[110.32096,-7.47798],[110.32105,-7.47805],[110.32119,-7.47811],[110.32133,-7.47816],[110.32148,-7.47818],[110.32155,-7.47819],[110.32164,-7.47814],[110.32166,-7.47805],[110.32166,-7.47796],[110.3216,-7.47784],[110.32159,-7.47783],[110.32151,-7.4777],[110.32146,-7.47755],[110.32142,-7.4774],[110.3214,-7.47726],[110.3214,-7.47713],[110.32143,-7.47703],[110.32158,-7.47697],[110.32169,-7.47705],[110.3218,-7.47718],[110.32187,-7.47722],[110.32198,-7.47725],[110.32212,-7.47726],[110.32223,-7.47718],[110.32236,-7.47709],[110.32235,-7.477],[110.32233,-7.47696],[110.32227,-7.47686],[110.3222,-7.47674],[110.32213,-7.47656],[110.32208,-7.47644],[110.32208,-7.47634],[110.32212,-7.47621],[110.32229,-7.47601],[110.32254,-7.47583],[110.32306,-7.47552],[110.32347,-7.47529],[110.32356,-7.47525],[110.32371,-7.47525],[110.32386,-7.47531],[110.32398,-7.47542],[110.32404,-7.47551],[110.32413,-7.47551],[110.32424,-7.47548],[110.32441,-7.4754],[110.3246,-7.47529],[110.32492,-7.47514],[110.32511,-7.47508],[110.32521,-7.47508],[110.32532,-7.47514],[110.32542,-7.4752],[110.32557,-7.47533],[110.32567,-7.47537],[110.3258,-7.4754],[110.32589,-7.47538],[110.32603,-7.47531],[110.32618,-7.47519],[110.32627,-7.47513],[110.32635,-7.47508],[110.32644,-7.47506],[110.32656,-7.4751],[110.32666,-7.47515],[110.32683,-7.47539],[110.32688,-7.47545],[110.32688,-7.47562],[110.32683,-7.47604],[110.32702,-7.4767],[110.32701,-7.47687],[110.32689,-7.47715],[110.32675,-7.47755],[110.32665,-7.47773],[110.32666,-7.47811],[110.32662,-7.47849],[110.32665,-7.4787],[110.32665,-7.47882],[110.32664,-7.47891],[110.3266,-7.479],[110.32652,-7.47908],[110.32632,-7.47923],[110.32617,-7.47931],[110.3261,-7.47938],[110.32607,-7.4794],[110.32603,-7.47943],[110.32598,-7.47958],[110.32597,-7.47966],[110.32596,-7.47982],[110.32588,-7.47987],[110.32572,-7.47983],[110.32563,-7.47978],[110.32557,-7.47973],[110.3255,-7.47968],[110.32541,-7.47962],[110.3253,-7.47957],[110.32515,-7.47954],[110.32503,-7.47953],[110.32494,-7.47958],[110.32484,-7.47964],[110.32473,-7.47971],[110.32463,-7.47973],[110.32451,-7.47975],[110.32435,-7.47975],[110.32422,-7.47973],[110.32401,-7.47969],[110.32387,-7.47962],[110.32374,-7.47958],[110.32361,-7.47953],[110.32344,-7.47948],[110.32342,-7.47948],[110.32335,-7.47946],[110.3232,-7.47945],[110.32303,-7.47944],[110.32288,-7.47943],[110.32277,-7.47943],[110.32244,-7.47944],[110.32235,-7.47945],[110.32225,-7.47947],[110.32191,-7.47947],[110.32182,-7.47951],[110.32179,-7.47957],[110.3218,-7.47965],[110.32183,-7.47986],[110.32184,-7.47994],[110.32184,-7.48002],[110.32181,-7.48006],[110.32175,-7.48008],[110.3216,-7.48008],[110.32151,-7.48007],[110.32142,-7.48005],[110.32131,-7.48004],[110.32121,-7.48003],[110.32112,-7.48003],[110.32102,-7.48006],[110.32088,-7.48015],[110.32082,-7.48022],[110.32078,-7.48024],[110.32072,-7.48026],[110.32066,-7.48027],[110.32058,-7.48026],[110.32051,-7.48024],[110.32045,-7.4802],[110.32038,-7.48017],[110.32032,-7.48014],[110.32027,-7.48013],[110.32017,-7.48014],[110.32,-7.48017],[110.31984,-7.48024],[110.31977,-7.48033],[110.31967,-7.48061],[110.31964,-7.48071],[110.31959,-7.48073],[110.3195,-7.48074],[110.31943,-7.48071],[110.31937,-7.48065],[110.31934,-7.4806],[110.31932,-7.48052],[110.31932,-7.48045],[110.31933,-7.48036],[110.31933,-7.48028],[110.3193,-7.48023],[110.31927,-7.4802],[110.31911,-7.48021],[110.31899,-7.48024],[110.31888,-7.48027],[110.31866,-7.48035],[110.31865,-7.48036],[110.31857,-7.4804],[110.31847,-7.48047],[110.31836,-7.48053],[110.31807,-7.4806],[110.31797,-7.48063],[110.31782,-7.48068],[110.31726,-7.48094],[110.31711,-7.48101],[110.31704,-7.48102],[110.31701,-7.48101],[110.31685,-7.48097],[110.31675,-7.48091],[110.31667,-7.48084],[110.31663,-7.48078],[110.31657,-7.48071],[110.31652,-7.48064],[110.31642,-7.48055],[110.31628,-7.48053],[110.31612,-7.48051],[110.31586,-7.48052],[110.31578,-7.48052],[110.31566,-7.48056],[110.31556,-7.48063],[110.31547,-7.4807],[110.31535,-7.48076],[110.31524,-7.48082],[110.31516,-7.48084],[110.31506,-7.48088],[110.31482,-7.48099],[110.31465,-7.48107],[110.31463,-7.4811],[110.3146,-7.48113],[110.31458,-7.48117],[110.31464,-7.48141],[110.31473,-7.48151],[110.31479,-7.4816],[110.31487,-7.48168],[110.315,-7.4818],[110.31506,-7.48188],[110.31507,-7.48204],[110.31506,-7.48217],[110.31506,-7.48284],[110.31508,-7.48295],[110.31513,-7.48334],[110.31512,-7.48354],[110.31506,-7.48367],[110.31497,-7.48374],[110.31483,-7.48378],[110.31476,-7.48381],[110.31472,-7.48387],[110.31468,-7.48394],[110.31468,-7.4841],[110.3147,-7.48437],[110.31472,-7.48494],[110.31473,-7.48502],[110.31473,-7.48504],[110.31476,-7.48513],[110.31484,-7.48518],[110.31489,-7.4852],[110.3153,-7.48528],[110.31576,-7.48525],[110.31603,-7.48526],[110.31654,-7.48531],[110.31682,-7.4854],[110.31708,-7.48551],[110.31749,-7.4857],[110.31764,-7.48577],[110.31767,-7.48579],[110.31778,-7.48591],[110.31795,-7.4861],[110.31822,-7.48642],[110.31849,-7.48672],[110.31869,-7.48705],[110.31879,-7.4872],[110.31917,-7.48752],[110.31953,-7.48782],[110.32005,-7.48832],[110.32018,-7.4884],[110.32034,-7.48848],[110.32052,-7.48858],[110.32064,-7.48867],[110.3208,-7.48877],[110.32088,-7.48879],[110.32094,-7.48881],[110.32099,-7.48888],[110.32105,-7.48896],[110.32109,-7.48901],[110.32111,-7.48905],[110.32115,-7.4891],[110.32118,-7.48913],[110.32127,-7.48916],[110.32132,-7.48915],[110.32142,-7.4891],[110.32148,-7.48902],[110.32154,-7.48896],[110.32159,-7.48892],[110.32179,-7.48887],[110.32191,-7.48887],[110.322,-7.48888],[110.32206,-7.48889],[110.32219,-7.4889],[110.3223,-7.48889],[110.32259,-7.48864],[110.32265,-7.48855],[110.32271,-7.48847],[110.32282,-7.48836],[110.32289,-7.48819],[110.32292,-7.48806],[110.3228,-7.48794],[110.32274,-7.48787],[110.32275,-7.4878],[110.32279,-7.48776],[110.32288,-7.48774],[110.32289,-7.48774],[110.32304,-7.48772],[110.32322,-7.4876],[110.32335,-7.48721],[110.32339,-7.48711],[110.32342,-7.48705],[110.32345,-7.487],[110.32345,-7.48694],[110.32347,-7.4869],[110.32355,-7.48687],[110.32359,-7.48688],[110.32361,-7.48694],[110.32364,-7.48696],[110.32366,-7.48698],[110.32375,-7.48704],[110.32378,-7.48705],[110.32379,-7.48704],[110.32383,-7.48703],[110.32384,-7.48701],[110.32396,-7.48686],[110.32401,-7.48679],[110.32403,-7.48678],[110.32411,-7.48676],[110.3242,-7.48676],[110.32432,-7.48678],[110.32442,-7.48683],[110.32448,-7.48687],[110.32457,-7.48695],[110.32468,-7.48703],[110.32477,-7.48703],[110.32493,-7.48699],[110.32496,-7.48697],[110.32505,-7.4869],[110.32521,-7.48682],[110.32536,-7.48672],[110.32546,-7.48666],[110.32548,-7.48666],[110.32554,-7.48664],[110.32558,-7.48663],[110.32574,-7.48661],[110.32586,-7.48658],[110.32602,-7.48658],[110.32621,-7.48655],[110.32627,-7.48655],[110.32644,-7.48646],[110.32649,-7.48642],[110.32651,-7.4864],[110.32656,-7.4863],[110.32663,-7.48619],[110.3268,-7.486],[110.32685,-7.48595],[110.3269,-7.48589],[110.32699,-7.48583],[110.32706,-7.48581],[110.32714,-7.48581],[110.32721,-7.48582],[110.32731,-7.48586],[110.32744,-7.4859],[110.32752,-7.48592],[110.32783,-7.48596],[110.32793,-7.48598],[110.32813,-7.48598],[110.32822,-7.48597],[110.32825,-7.48594],[110.32828,-7.4859],[110.32832,-7.48587],[110.32843,-7.48585],[110.32859,-7.4859],[110.32869,-7.48601],[110.32873,-7.48613],[110.32875,-7.48621],[110.32882,-7.48627],[110.32888,-7.48633],[110.32893,-7.48639],[110.32903,-7.4865],[110.32909,-7.48659],[110.32913,-7.48671],[110.32915,-7.48682],[110.32917,-7.48695],[110.32917,-7.48699],[110.32896,-7.48733],[110.32895,-7.48737],[110.32891,-7.48747],[110.3289,-7.48756],[110.32889,-7.48763],[110.32877,-7.48779],[110.32891,-7.48834],[110.32895,-7.48858],[110.32896,-7.48877],[110.32897,-7.48891],[110.32903,-7.4891],[110.32909,-7.48926],[110.32917,-7.48949],[110.32932,-7.48972],[110.3288,-7.4901],[110.32868,-7.49019],[110.32883,-7.49037],[110.3289,-7.4905],[110.32896,-7.49068],[110.32905,-7.49089],[110.32918,-7.49117],[110.32924,-7.49134],[110.32937,-7.49164],[110.32948,-7.49202],[110.3294,-7.49214],[110.32957,-7.49238],[110.32966,-7.49253],[110.32975,-7.49263],[110.32994,-7.49273],[110.33014,-7.49289],[110.33036,-7.49307],[110.33045,-7.49313],[110.33093,-7.49329],[110.33115,-7.49322],[110.33132,-7.49315],[110.33153,-7.49308],[110.33173,-7.49303],[110.33187,-7.49299],[110.33202,-7.49295],[110.33217,-7.4929],[110.33217,-7.49289],[110.33219,-7.49282],[110.33222,-7.49276],[110.33227,-7.4927],[110.33229,-7.49268],[110.33234,-7.49268],[110.33237,-7.49269],[110.33244,-7.49271],[110.33248,-7.49272],[110.33254,-7.49272],[110.33256,-7.4927],[110.33266,-7.49263],[110.33279,-7.49255],[110.33286,-7.49249],[110.33297,-7.49232],[110.33307,-7.49222],[110.33319,-7.49209],[110.33328,-7.49197],[110.33348,-7.49186],[110.33348,-7.49185],[110.33358,-7.49168],[110.33367,-7.49157],[110.33371,-7.4915],[110.33378,-7.49142],[110.33383,-7.49139],[110.33397,-7.49131],[110.33403,-7.49129],[110.33408,-7.49126],[110.33413,-7.49124],[110.33419,-7.49119],[110.33422,-7.49114],[110.33424,-7.49111],[110.3343,-7.49109],[110.33436,-7.49111],[110.33441,-7.49112],[110.33462,-7.49103],[110.33471,-7.49099],[110.33477,-7.49093],[110.33485,-7.49088],[110.33496,-7.49084],[110.33511,-7.49084],[110.33518,-7.49087],[110.33545,-7.49091],[110.33555,-7.49092],[110.33566,-7.49097],[110.3358,-7.49127],[110.3358,-7.49134],[110.33576,-7.49156],[110.33574,-7.49171],[110.33577,-7.4918],[110.33578,-7.49191],[110.33579,-7.4921],[110.3358,-7.49222],[110.33575,-7.49232],[110.33586,-7.49249],[110.33594,-7.49266],[110.33601,-7.49284],[110.33613,-7.49293],[110.33626,-7.49302],[110.33639,-7.49313],[110.33677,-7.49363],[110.33692,-7.49369],[110.33702,-7.49378],[110.3371,-7.49388],[110.33722,-7.49394],[110.33734,-7.49392],[110.33739,-7.49392],[110.33747,-7.49389],[110.33752,-7.49387],[110.33785,-7.4937],[110.33807,-7.49363],[110.33821,-7.49363],[110.33828,-7.49367],[110.33836,-7.49373],[110.33848,-7.49375],[110.33859,-7.49371],[110.33866,-7.49365],[110.33878,-7.49352],[110.33884,-7.49345],[110.33892,-7.49345],[110.33898,-7.49352],[110.33918,-7.49376],[110.33928,-7.49378],[110.33934,-7.49376],[110.33936,-7.49375],[110.3394,-7.4937],[110.33942,-7.49357],[110.33942,-7.49354],[110.33943,-7.49344],[110.33946,-7.4934],[110.33954,-7.49338],[110.33961,-7.49342],[110.33969,-7.49349],[110.33983,-7.49352],[110.33993,-7.49347],[110.34006,-7.49332],[110.34017,-7.49324],[110.34024,-7.49321],[110.34042,-7.49328],[110.34056,-7.49345],[110.34066,-7.49353],[110.3412,-7.49367],[110.34148,-7.49372],[110.34167,-7.49371],[110.3418,-7.49365],[110.34202,-7.49341],[110.34221,-7.49311],[110.34231,-7.49293],[110.34245,-7.49278],[110.34267,-7.49271],[110.34282,-7.49269],[110.3429,-7.49272],[110.34326,-7.49304],[110.34349,-7.49316],[110.34368,-7.49317],[110.34371,-7.49316],[110.34384,-7.49309],[110.34393,-7.49297],[110.34395,-7.4929],[110.344,-7.4928],[110.34408,-7.4928],[110.34434,-7.49285],[110.3446,-7.49283],[110.34479,-7.49277],[110.34491,-7.49266],[110.34492,-7.49255],[110.34492,-7.49242],[110.34493,-7.49241],[110.34501,-7.49229],[110.34516,-7.49228],[110.34529,-7.49232],[110.34538,-7.49229],[110.3454,-7.49221],[110.34545,-7.49191],[110.34555,-7.49173],[110.34561,-7.49171],[110.34573,-7.49177],[110.34582,-7.49187],[110.34595,-7.49186],[110.34607,-7.4918],[110.34609,-7.49177],[110.34613,-7.49172],[110.34627,-7.49158],[110.34641,-7.49138],[110.34652,-7.49137],[110.3466,-7.49144],[110.34677,-7.49172],[110.34698,-7.4919],[110.34716,-7.49191],[110.34722,-7.49182],[110.34724,-7.49163],[110.34722,-7.49145],[110.34721,-7.49139],[110.34717,-7.49119],[110.34717,-7.49107],[110.34728,-7.49096],[110.34744,-7.49085],[110.34767,-7.49076],[110.34778,-7.49074],[110.3479,-7.49075],[110.34798,-7.49082],[110.34813,-7.49091],[110.34829,-7.49094],[110.34847,-7.49094],[110.34858,-7.4909],[110.34868,-7.49077],[110.34882,-7.49051],[110.34889,-7.49036],[110.34901,-7.48994],[110.34912,-7.48966],[110.34933,-7.48934],[110.34967,-7.48876],[110.35027,-7.48821],[110.35031,-7.48818],[110.35053,-7.48805],[110.35057,-7.48803],[110.35059,-7.48803],[110.35074,-7.48801],[110.35081,-7.48801],[110.3509,-7.48802],[110.3511,-7.48815],[110.35129,-7.48825],[110.35144,-7.48823],[110.35148,-7.48817],[110.35149,-7.48815],[110.35151,-7.48802],[110.35152,-7.48789],[110.35154,-7.48784],[110.35167,-7.48734],[110.3517,-7.48722],[110.35211,-7.48632],[110.35242,-7.48594],[110.35284,-7.48556],[110.35308,-7.48543],[110.35319,-7.48523],[110.35321,-7.48499],[110.35324,-7.48459],[110.35333,-7.48428],[110.35351,-7.4841],[110.35369,-7.48401],[110.35372,-7.48388],[110.35372,-7.48378],[110.35376,-7.4837],[110.35382,-7.48366],[110.35391,-7.48367],[110.354,-7.48372],[110.35413,-7.48372],[110.3542,-7.48365],[110.35426,-7.48352],[110.35429,-7.48345],[110.35441,-7.48343],[110.35443,-7.48346],[110.35448,-7.48351],[110.35452,-7.48365],[110.35459,-7.4838],[110.35464,-7.48383],[110.35469,-7.48382],[110.35477,-7.48375],[110.35482,-7.48365],[110.35484,-7.48355],[110.355,-7.48306],[110.35508,-7.48286],[110.3551,-7.48285],[110.35531,-7.4827],[110.35541,-7.4827],[110.35551,-7.48268],[110.35552,-7.48259],[110.35549,-7.48236],[110.35549,-7.48214],[110.35551,-7.48207],[110.35553,-7.48202],[110.35587,-7.48165],[110.35606,-7.4815],[110.35622,-7.48142],[110.35623,-7.48142],[110.3565,-7.48135],[110.35656,-7.48133],[110.35664,-7.48129],[110.35675,-7.4813],[110.35701,-7.48136],[110.35704,-7.48137],[110.35733,-7.48146],[110.35741,-7.48157],[110.35741,-7.48167],[110.35735,-7.48179],[110.35723,-7.48184],[110.35696,-7.48201],[110.35687,-7.48213],[110.35686,-7.48222],[110.35688,-7.48231],[110.35699,-7.48257],[110.35715,-7.48271],[110.35733,-7.48277],[110.35745,-7.48274],[110.35749,-7.4827],[110.35754,-7.48255],[110.35758,-7.4824],[110.35766,-7.48224],[110.35775,-7.4822],[110.35799,-7.48211],[110.3581,-7.48201],[110.35815,-7.48192],[110.35818,-7.48177],[110.3582,-7.4816],[110.3583,-7.48153],[110.35842,-7.4815],[110.35845,-7.48149],[110.35879,-7.48149],[110.35898,-7.4815],[110.359,-7.4815],[110.35928,-7.48161],[110.35947,-7.48166],[110.35959,-7.48175],[110.35964,-7.48186],[110.35964,-7.48198],[110.35961,-7.48217],[110.35955,-7.48231],[110.35945,-7.48238],[110.35942,-7.4824],[110.35925,-7.48253],[110.35916,-7.48265],[110.35915,-7.48271],[110.35919,-7.48272],[110.35948,-7.48275],[110.35957,-7.48278],[110.35968,-7.48287],[110.35975,-7.48301],[110.35986,-7.4831],[110.35999,-7.48311],[110.36011,-7.4831],[110.3602,-7.48305],[110.36024,-7.483],[110.36027,-7.48293],[110.36027,-7.48289],[110.36025,-7.48266],[110.36025,-7.48256],[110.36028,-7.48241],[110.36037,-7.48231],[110.36043,-7.48229],[110.3605,-7.4823],[110.36058,-7.48234],[110.36062,-7.48241],[110.36069,-7.48265],[110.36075,-7.48287],[110.36086,-7.48312],[110.36108,-7.48323],[110.36122,-7.48323],[110.36136,-7.48318],[110.36145,-7.48303],[110.36161,-7.48271],[110.36179,-7.48245],[110.36181,-7.48242],[110.36202,-7.48223],[110.36221,-7.48216],[110.36234,-7.48217],[110.36265,-7.4823],[110.36297,-7.48234],[110.3632,-7.48233],[110.36322,-7.48233],[110.36334,-7.48229],[110.36346,-7.48222],[110.36351,-7.48217],[110.36358,-7.48212],[110.3637,-7.48199],[110.36398,-7.48194],[110.36416,-7.48147],[110.36419,-7.48117],[110.36439,-7.48081],[110.36453,-7.48053],[110.36461,-7.48027],[110.36474,-7.48003],[110.36496,-7.47982],[110.36548,-7.47967],[110.36604,-7.47951],[110.36619,-7.47943],[110.36656,-7.4802],[110.36669,-7.48015],[110.36687,-7.48006],[110.36696,-7.48001],[110.36699,-7.48],[110.36702,-7.48002],[110.36749,-7.48014],[110.36753,-7.4801],[110.36762,-7.48002],[110.36772,-7.47995],[110.36777,-7.4798],[110.3678,-7.47968],[110.36785,-7.47963],[110.36798,-7.47952],[110.36822,-7.47925],[110.36831,-7.47921],[110.3685,-7.47913],[110.36857,-7.47905],[110.36868,-7.479],[110.36883,-7.47893],[110.36889,-7.4789],[110.36897,-7.47879],[110.369,-7.47873],[110.36987,-7.47815],[110.36994,-7.47816],[110.37,-7.4782],[110.37006,-7.47822],[110.37012,-7.47819],[110.3703,-7.47811],[110.37072,-7.47793],[110.37078,-7.47787],[110.37081,-7.47777],[110.37081,-7.47771],[110.37078,-7.47756],[110.37081,-7.47749],[110.37104,-7.47728],[110.37108,-7.47722],[110.37117,-7.47717],[110.37136,-7.47709],[110.3714,-7.47707],[110.37143,-7.47701],[110.37147,-7.47698],[110.37155,-7.47694],[110.37181,-7.4768],[110.37186,-7.47675],[110.37194,-7.47652],[110.37211,-7.47601],[110.37215,-7.47585],[110.3722,-7.47577],[110.37224,-7.47572],[110.37229,-7.47565],[110.37243,-7.4755],[110.37248,-7.47545],[110.37246,-7.47543],[110.37249,-7.47539],[110.37254,-7.47525],[110.37259,-7.47513],[110.37265,-7.47501],[110.37276,-7.47507],[110.37281,-7.47503],[110.37288,-7.47499],[110.37293,-7.47495],[110.37294,-7.47491],[110.373,-7.4748],[110.37304,-7.47473],[110.37312,-7.4745],[110.37315,-7.47439],[110.37318,-7.47433],[110.37325,-7.47429],[110.37329,-7.47427],[110.37335,-7.47425],[110.37344,-7.4742],[110.37348,-7.47416],[110.37352,-7.47411],[110.37356,-7.47407],[110.3736,-7.47404],[110.37365,-7.47401],[110.37384,-7.47399],[110.37393,-7.47399],[110.374,-7.47395],[110.37402,-7.47394],[110.37408,-7.4739],[110.3741,-7.47384],[110.37413,-7.47378],[110.37416,-7.47369],[110.37419,-7.47362],[110.37424,-7.47356],[110.37427,-7.4735],[110.37432,-7.47343],[110.37447,-7.47327],[110.37451,-7.47324],[110.37465,-7.47312],[110.37483,-7.47286],[110.375,-7.47268],[110.37516,-7.47247],[110.37529,-7.47232],[110.37581,-7.47195],[110.37622,-7.47161],[110.37639,-7.47146],[110.3765,-7.47139],[110.37665,-7.47136],[110.37677,-7.47135],[110.37701,-7.47139],[110.37717,-7.47141],[110.37728,-7.47145],[110.37742,-7.47151],[110.37749,-7.47153],[110.37757,-7.47153],[110.37769,-7.4715],[110.37781,-7.47145],[110.37793,-7.47144],[110.37814,-7.47145],[110.37827,-7.47146],[110.37831,-7.47146],[110.37866,-7.47154],[110.3788,-7.47154],[110.37891,-7.47153],[110.37898,-7.47149],[110.37906,-7.47146],[110.37914,-7.47142],[110.37923,-7.47138],[110.37932,-7.47137],[110.37941,-7.47135],[110.3796,-7.47135],[110.37977,-7.47132],[110.37988,-7.47128],[110.38,-7.47122],[110.38008,-7.47119],[110.38041,-7.47119],[110.38058,-7.47113],[110.38067,-7.47108],[110.38073,-7.47105],[110.38085,-7.47101],[110.38093,-7.47099],[110.38096,-7.47095],[110.38097,-7.4709],[110.38098,-7.47084],[110.38099,-7.47083],[110.38099,-7.47081],[110.38104,-7.47078],[110.38109,-7.47076],[110.38118,-7.47072],[110.3815,-7.47061],[110.3819,-7.47051],[110.3824,-7.47038],[110.38269,-7.47029],[110.38292,-7.4702],[110.38307,-7.47018],[110.38324,-7.47018],[110.38335,-7.47021],[110.3835,-7.47023],[110.38358,-7.47024],[110.38363,-7.47025],[110.38376,-7.47025],[110.38389,-7.47024],[110.38404,-7.47021],[110.38418,-7.47019],[110.38433,-7.47017],[110.38444,-7.47015],[110.38454,-7.47012],[110.38483,-7.47005],[110.38495,-7.47002],[110.38502,-7.47001],[110.38508,-7.47003],[110.38509,-7.47003],[110.38513,-7.47007],[110.38517,-7.47012],[110.38521,-7.47015],[110.38531,-7.47017],[110.38542,-7.47015],[110.38547,-7.47013],[110.3856,-7.47006],[110.38565,-7.47001],[110.38569,-7.46992],[110.38572,-7.46985],[110.38574,-7.46977],[110.38577,-7.46971],[110.38586,-7.4696],[110.38606,-7.46944],[110.38643,-7.46914],[110.38691,-7.46867],[110.387,-7.4686],[110.38711,-7.46849],[110.38721,-7.46835],[110.38735,-7.46823],[110.38743,-7.46815],[110.38757,-7.46802],[110.38766,-7.46797],[110.38772,-7.46794],[110.38782,-7.4679],[110.38786,-7.46788],[110.38794,-7.46785],[110.38797,-7.46784],[110.38806,-7.46784],[110.38811,-7.46783],[110.38815,-7.46781],[110.38827,-7.46773],[110.38836,-7.46769],[110.38842,-7.46768],[110.38856,-7.46764],[110.38865,-7.46764],[110.38877,-7.46763],[110.38886,-7.46759],[110.38895,-7.46756],[110.389,-7.46755],[110.38908,-7.46752],[110.38912,-7.46753],[110.38929,-7.46753],[110.38941,-7.46751],[110.3895,-7.46748],[110.38956,-7.46744],[110.38961,-7.46741],[110.38971,-7.46733],[110.38977,-7.46728],[110.38991,-7.46718],[110.39009,-7.46707],[110.39022,-7.467],[110.3903,-7.46694],[110.39036,-7.46687],[110.39041,-7.46683],[110.39047,-7.46679],[110.39052,-7.46674],[110.39057,-7.46671],[110.39064,-7.46667],[110.39069,-7.46663],[110.39085,-7.46656],[110.39101,-7.46648],[110.3911,-7.46643],[110.39122,-7.46635],[110.39134,-7.46631],[110.39144,-7.46628],[110.3915,-7.46626],[110.39157,-7.46622],[110.39163,-7.46618],[110.39167,-7.46615],[110.39174,-7.46609],[110.39181,-7.46607],[110.39184,-7.46606],[110.39194,-7.46601],[110.39205,-7.46596],[110.39226,-7.4658],[110.39233,-7.46574],[110.39246,-7.46563],[110.39254,-7.46553],[110.39256,-7.4655],[110.39265,-7.46544],[110.39282,-7.4653],[110.39303,-7.46509],[110.39315,-7.46496],[110.39318,-7.46491],[110.39322,-7.46485],[110.39332,-7.46478],[110.3934,-7.46471],[110.39356,-7.46456],[110.39371,-7.46443],[110.39389,-7.46425],[110.39399,-7.46414],[110.39407,-7.46403],[110.39413,-7.464],[110.39419,-7.46396],[110.39424,-7.46393],[110.39433,-7.46385],[110.3944,-7.46382],[110.39443,-7.46381],[110.39451,-7.46379],[110.39463,-7.46379],[110.39471,-7.46377],[110.39476,-7.46372],[110.39481,-7.46366],[110.39494,-7.46362],[110.39521,-7.46356],[110.39537,-7.46352],[110.3955,-7.46346],[110.39558,-7.46339],[110.39567,-7.46322],[110.3957,-7.46315],[110.39572,-7.46308],[110.39572,-7.46297],[110.39573,-7.46292],[110.39574,-7.46289],[110.39578,-7.46286],[110.39583,-7.46285],[110.39593,-7.46282],[110.39601,-7.4628],[110.39608,-7.46278],[110.39619,-7.46274],[110.39626,-7.46271],[110.39641,-7.46265],[110.39658,-7.46255],[110.39668,-7.4625],[110.39677,-7.46243],[110.39678,-7.46242],[110.39694,-7.46238],[110.39702,-7.46235],[110.39712,-7.4623],[110.39731,-7.46222],[110.39749,-7.46212],[110.39764,-7.46204],[110.39786,-7.46195],[110.39798,-7.46189],[110.3981,-7.4618],[110.39821,-7.46171],[110.39834,-7.46162],[110.39849,-7.46155],[110.39863,-7.4615],[110.39875,-7.46147],[110.39886,-7.46144],[110.39901,-7.46143],[110.39918,-7.46139],[110.39955,-7.4613],[110.40007,-7.46123],[110.40131,-7.46099],[110.40188,-7.46082],[110.40216,-7.46077],[110.40255,-7.46069],[110.4028,-7.46064],[110.403,-7.46059],[110.4032,-7.46055],[110.40341,-7.46052],[110.40367,-7.46054],[110.40403,-7.46058],[110.40464,-7.46056],[110.40491,-7.46058],[110.40513,-7.46059],[110.40527,-7.46053],[110.40537,-7.46025],[110.40539,-7.46022],[110.40545,-7.45994],[110.40555,-7.45956],[110.40562,-7.45931],[110.40564,-7.45925],[110.40571,-7.45909],[110.40586,-7.4589],[110.40599,-7.45877],[110.40619,-7.45867],[110.40637,-7.45865],[110.40655,-7.45865],[110.40682,-7.45863],[110.40704,-7.45858],[110.40719,-7.45848],[110.40729,-7.45843],[110.40738,-7.45838],[110.40749,-7.45834],[110.40768,-7.45828],[110.40796,-7.45825],[110.40819,-7.45823],[110.40841,-7.45818],[110.40878,-7.45805],[110.40902,-7.45794],[110.40912,-7.45785],[110.40925,-7.45775],[110.40947,-7.45768],[110.40976,-7.45757],[110.40988,-7.45742],[110.40995,-7.45725],[110.41004,-7.45699],[110.41029,-7.45679],[110.41035,-7.45673],[110.41055,-7.45666],[110.41089,-7.45652],[110.41144,-7.4563],[110.41207,-7.45605],[110.41295,-7.45584],[110.41372,-7.45552],[110.41431,-7.45531],[110.41667,-7.45444],[110.41812,-7.45424],[110.41907,-7.45415],[110.41982,-7.45401],[110.42006,-7.45387],[110.42041,-7.45358],[110.42087,-7.45334],[110.42126,-7.45311],[110.42161,-7.45289],[110.42192,-7.45274],[110.42221,-7.45269],[110.42261,-7.45269],[110.42292,-7.45271],[110.42319,-7.45273],[110.42353,-7.4527],[110.42401,-7.45262],[110.4246,-7.45259],[110.42506,-7.45253],[110.42672,-7.45216],[110.4274,-7.45186],[110.42775,-7.4518],[110.42808,-7.45174],[110.42847,-7.45166],[110.42893,-7.45157],[110.4297,-7.45155],[110.42989,-7.45155],[110.43013,-7.45144],[110.43051,-7.45123],[110.43066,-7.45115],[110.43105,-7.45116],[110.43114,-7.45116],[110.43145,-7.45117],[110.4318,-7.45116],[110.43206,-7.45115],[110.43263,-7.45109],[110.43301,-7.45107],[110.43307,-7.45106],[110.43324,-7.45104],[110.43344,-7.451],[110.4336,-7.45095],[110.43395,-7.45085],[110.43426,-7.45078],[110.4346,-7.45072],[110.43464,-7.4507],[110.43503,-7.45051],[110.43525,-7.4504],[110.43524,-7.45039],[110.43524,-7.45038],[110.43509,-7.45015],[110.43499,-7.44999],[110.43499,-7.44998],[110.43497,-7.44995],[110.4349,-7.4498],[110.43465,-7.44929],[110.4346,-7.4492],[110.43445,-7.44892],[110.43429,-7.44864],[110.43423,-7.44845],[110.43394,-7.44794],[110.43385,-7.44781],[110.43381,-7.44774],[110.43356,-7.44743],[110.43353,-7.44739],[110.43331,-7.44712],[110.43294,-7.44673],[110.43248,-7.44635],[110.4322,-7.44602],[110.43205,-7.4459],[110.43196,-7.44583],[110.43185,-7.44565],[110.43185,-7.44564],[110.43184,-7.44562],[110.43168,-7.44535],[110.43157,-7.44519],[110.43146,-7.44502],[110.43135,-7.44481],[110.43129,-7.44468],[110.43104,-7.44414],[110.431,-7.44406],[110.43093,-7.44391],[110.43091,-7.44388],[110.4308,-7.44368],[110.43068,-7.44346],[110.43061,-7.44332],[110.43054,-7.44319],[110.43041,-7.44292],[110.43032,-7.44272],[110.43021,-7.44245],[110.43019,-7.44237],[110.43009,-7.44204],[110.43008,-7.442],[110.43006,-7.44195],[110.42988,-7.44133],[110.42987,-7.44132],[110.4297,-7.44089],[110.42938,-7.44057],[110.42901,-7.44021],[110.429,-7.4402],[110.42784,-7.43962],[110.42775,-7.43959],[110.42571,-7.43866],[110.42482,-7.43813],[110.42354,-7.43693],[110.42252,-7.43629],[110.42192,-7.43575],[110.42131,-7.43549],[110.42017,-7.43521],[110.41963,-7.43491],[110.41926,-7.43471],[110.41829,-7.43414],[110.41748,-7.43357],[110.41691,-7.43337],[110.41638,-7.43322],[110.41592,-7.43259],[110.41546,-7.43186],[110.41527,-7.4317],[110.41506,-7.43145],[110.41498,-7.43136],[110.41488,-7.43111],[110.41482,-7.43091],[110.41481,-7.4309],[110.41448,-7.43068],[110.4142,-7.43061],[110.41411,-7.43065],[110.41402,-7.43076],[110.41381,-7.43083],[110.41353,-7.43083],[110.41342,-7.43085],[110.41326,-7.43088],[110.41323,-7.43089],[110.41318,-7.43091],[110.41295,-7.431],[110.41265,-7.43104],[110.41252,-7.43106],[110.41201,-7.43106],[110.41158,-7.43096],[110.41116,-7.43079],[110.41084,-7.43065],[110.41062,-7.43058],[110.41039,-7.43057],[110.41004,-7.43074],[110.40972,-7.43094],[110.40936,-7.43106],[110.40903,-7.43109],[110.40852,-7.43103],[110.40836,-7.43096],[110.40819,-7.43082],[110.40792,-7.43075],[110.40755,-7.43072],[110.407,-7.43084],[110.40664,-7.43091],[110.40598,-7.4308],[110.40511,-7.43053],[110.40438,-7.43045],[110.40364,-7.43035],[110.40314,-7.43037],[110.40287,-7.43038],[110.40255,-7.43021],[110.40247,-7.4301],[110.40242,-7.43003],[110.40241,-7.43002],[110.40235,-7.42974],[110.40235,-7.42954],[110.40227,-7.42939],[110.40226,-7.42938],[110.40225,-7.42938],[110.40206,-7.42946],[110.40197,-7.42949],[110.40176,-7.42961],[110.40157,-7.4295],[110.40226,-7.429],[110.40242,-7.42878],[110.40265,-7.42848],[110.40266,-7.42846],[110.40294,-7.42803],[110.40294,-7.42802],[110.40295,-7.42802],[110.40338,-7.42764],[110.40346,-7.42757],[110.40347,-7.42756],[110.40381,-7.42731],[110.40368,-7.42721],[110.40293,-7.42665],[110.40251,-7.42637],[110.40196,-7.42613],[110.40151,-7.42613],[110.40115,-7.4261],[110.40076,-7.42585],[110.40052,-7.42572],[110.4004,-7.4257],[110.40021,-7.42568],[110.39945,-7.42567],[110.39931,-7.42567],[110.39895,-7.42569],[110.39829,-7.42569],[110.39779,-7.42563],[110.39736,-7.42558],[110.39705,-7.42545],[110.39659,-7.42527],[110.39651,-7.42523],[110.39597,-7.42511],[110.39547,-7.42497],[110.39521,-7.42489],[110.39492,-7.42478],[110.39484,-7.42473],[110.3948,-7.4247],[110.39461,-7.42466],[110.3946,-7.42452],[110.39458,-7.42451],[110.39443,-7.42444],[110.39397,-7.42425],[110.39347,-7.42406],[110.3932,-7.42401],[110.39213,-7.42401],[110.39179,-7.42406],[110.39152,-7.42405],[110.39139,-7.42406],[110.39121,-7.42413],[110.3912,-7.42413],[110.39103,-7.42415],[110.39076,-7.42411],[110.3906,-7.42401],[110.3905,-7.42388],[110.39044,-7.4238],[110.39034,-7.42378],[110.39021,-7.42375],[110.39001,-7.42373],[110.38997,-7.42373],[110.38981,-7.42376],[110.38958,-7.42384],[110.38925,-7.42396],[110.38889,-7.42415],[110.38881,-7.4242],[110.38868,-7.42427],[110.38843,-7.42441],[110.38808,-7.42451],[110.38772,-7.42454],[110.38738,-7.42461],[110.38721,-7.42467],[110.38712,-7.42469],[110.38705,-7.42466],[110.38692,-7.42459],[110.38683,-7.42454],[110.3867,-7.42451],[110.38658,-7.4245],[110.38654,-7.42453],[110.38645,-7.4246],[110.38641,-7.42465],[110.38629,-7.42475],[110.38616,-7.42476],[110.38609,-7.42473],[110.38593,-7.42465],[110.38575,-7.42455],[110.38565,-7.42448],[110.38555,-7.42448],[110.38548,-7.42453],[110.38539,-7.42467],[110.38536,-7.42471],[110.38529,-7.42475],[110.38518,-7.42475],[110.38508,-7.42469],[110.38504,-7.42467],[110.38495,-7.42459],[110.38476,-7.42452],[110.38468,-7.42452],[110.38458,-7.4246],[110.38446,-7.4247],[110.38434,-7.42483],[110.38424,-7.42489],[110.38412,-7.4249],[110.38393,-7.42488],[110.38363,-7.42485],[110.38334,-7.42486],[110.38317,-7.42489],[110.38299,-7.42484],[110.38283,-7.42475],[110.38263,-7.42466],[110.38242,-7.42459],[110.38197,-7.42456],[110.38187,-7.42448],[110.38176,-7.42439],[110.38175,-7.42438],[110.38173,-7.42422],[110.38173,-7.4241],[110.38184,-7.42386],[110.38197,-7.42383],[110.38222,-7.42369],[110.38251,-7.42347],[110.38254,-7.42345],[110.38277,-7.42327],[110.38296,-7.42314],[110.38333,-7.42285],[110.38351,-7.42266],[110.38368,-7.42249],[110.38377,-7.42243],[110.38384,-7.42239],[110.38399,-7.42235],[110.38423,-7.42231],[110.38445,-7.42228],[110.38461,-7.42219],[110.38487,-7.42206],[110.38493,-7.42193],[110.38499,-7.42176],[110.38506,-7.42158],[110.38509,-7.42149],[110.3851,-7.42145],[110.38533,-7.42133],[110.38548,-7.42124],[110.38561,-7.42117],[110.38567,-7.42113],[110.38577,-7.4209],[110.38581,-7.42068],[110.38582,-7.42054],[110.38582,-7.42049],[110.38581,-7.42023],[110.38571,-7.41996],[110.38564,-7.41976],[110.38533,-7.41961],[110.38497,-7.41948],[110.38462,-7.41925],[110.38445,-7.41919],[110.38443,-7.41918],[110.3843,-7.41913],[110.38409,-7.41911],[110.38385,-7.41919],[110.38368,-7.41925],[110.38328,-7.41937],[110.38298,-7.4194],[110.38293,-7.41927],[110.38287,-7.41899],[110.38283,-7.41879],[110.38262,-7.41835],[110.38251,-7.41809],[110.38246,-7.41794],[110.38232,-7.41783],[110.38231,-7.41783],[110.38193,-7.41787],[110.38175,-7.41786],[110.38163,-7.41786],[110.3815,-7.41785],[110.38121,-7.41788],[110.3812,-7.41789],[110.38115,-7.41791],[110.38098,-7.41797],[110.38093,-7.418],[110.38082,-7.41805],[110.38064,-7.41805],[110.3804,-7.41799],[110.3803,-7.41799],[110.38026,-7.41801],[110.38015,-7.41806],[110.38007,-7.41811],[110.38004,-7.41813],[110.37984,-7.41827],[110.37975,-7.4183],[110.37971,-7.41832],[110.37967,-7.41832],[110.37961,-7.41833],[110.37951,-7.41834],[110.37933,-7.41832],[110.3793,-7.41832],[110.37927,-7.41831],[110.37909,-7.41828],[110.3789,-7.41824],[110.37865,-7.41819],[110.37849,-7.41815],[110.37834,-7.41812],[110.37819,-7.41804],[110.37807,-7.41797],[110.37789,-7.4179],[110.37774,-7.41782],[110.37764,-7.41777],[110.37747,-7.41766],[110.37738,-7.41759],[110.37716,-7.41746],[110.37693,-7.41745],[110.3769,-7.41745],[110.3768,-7.41746],[110.37656,-7.41749],[110.37628,-7.41753],[110.37589,-7.41758],[110.37532,-7.41758],[110.37477,-7.41759],[110.37469,-7.41757],[110.37427,-7.41749],[110.37416,-7.4176],[110.37408,-7.41785],[110.37412,-7.41812],[110.37415,-7.41832],[110.37417,-7.41845],[110.37402,-7.4187],[110.37331,-7.41907],[110.37301,-7.41914],[110.37297,-7.41915],[110.37275,-7.41921],[110.37272,-7.41922],[110.37259,-7.41939],[110.37267,-7.41959],[110.37294,-7.41966],[110.37304,-7.41987],[110.37304,-7.42012],[110.37252,-7.42044],[110.37156,-7.42055],[110.37115,-7.42072],[110.37081,-7.42084],[110.37062,-7.42087],[110.37056,-7.42088],[110.37044,-7.42089],[110.37013,-7.42087],[110.36978,-7.4208],[110.36942,-7.42076],[110.36927,-7.42073],[110.369,-7.42073],[110.36871,-7.4208],[110.36859,-7.42087],[110.36824,-7.42098],[110.36781,-7.42112],[110.36766,-7.42116],[110.36744,-7.42121],[110.36732,-7.42124],[110.36729,-7.42125],[110.36717,-7.42123],[110.36685,-7.42114],[110.36658,-7.42111],[110.36643,-7.42111],[110.36627,-7.42112],[110.36612,-7.42113],[110.366,-7.42116],[110.36586,-7.42119],[110.36549,-7.42138],[110.36532,-7.42147],[110.36518,-7.42153],[110.36506,-7.42159],[110.36492,-7.42165],[110.36462,-7.42168],[110.36437,-7.42168],[110.36421,-7.42167],[110.36399,-7.42164],[110.36382,-7.42128],[110.36366,-7.42127],[110.36313,-7.42126],[110.36277,-7.42125],[110.36251,-7.42123],[110.36223,-7.4212],[110.36211,-7.42119],[110.36196,-7.42117],[110.36166,-7.42116],[110.36138,-7.42116],[110.36135,-7.42117],[110.3612,-7.42118],[110.36105,-7.4212],[110.36087,-7.42121],[110.36053,-7.42124],[110.36052,-7.42125],[110.36048,-7.42118],[110.3604,-7.4211],[110.36036,-7.42107],[110.36027,-7.42101],[110.36016,-7.42095],[110.35997,-7.42087],[110.35981,-7.42083],[110.35971,-7.4208],[110.35961,-7.42079],[110.35953,-7.4208],[110.35937,-7.42084],[110.35923,-7.42089],[110.35906,-7.42091],[110.35895,-7.42093],[110.35874,-7.42095],[110.35846,-7.42099],[110.35823,-7.42105],[110.35821,-7.42105],[110.35819,-7.4211],[110.35816,-7.42116],[110.35811,-7.42124],[110.35797,-7.4214],[110.35793,-7.42146],[110.35787,-7.4215],[110.35768,-7.42153],[110.35733,-7.42151],[110.3572,-7.4215],[110.35703,-7.42151],[110.35668,-7.42159],[110.35665,-7.42162],[110.35649,-7.42174],[110.35628,-7.42196],[110.35569,-7.42251],[110.3552,-7.42284],[110.35463,-7.42301],[110.35406,-7.42299],[110.35384,-7.42297],[110.35338,-7.42293],[110.35338,-7.42292],[110.35266,-7.4229],[110.35258,-7.4229],[110.35224,-7.42291],[110.35185,-7.42307],[110.35183,-7.42308],[110.3515,-7.42327],[110.35146,-7.42329],[110.35095,-7.4236],[110.35091,-7.42362],[110.35038,-7.42391],[110.34988,-7.424],[110.349,-7.42405],[110.34886,-7.42406],[110.34871,-7.42408],[110.34803,-7.42417],[110.34801,-7.42417],[110.34735,-7.42432],[110.34698,-7.42445],[110.34683,-7.42453],[110.34671,-7.42459],[110.3467,-7.42459],[110.34582,-7.42511],[110.34544,-7.42524],[110.34505,-7.42532],[110.34463,-7.42537],[110.34416,-7.42557],[110.34373,-7.42572],[110.34371,-7.42573],[110.34357,-7.42578],[110.34344,-7.42582],[110.34307,-7.42582],[110.34204,-7.42565],[110.34134,-7.42562],[110.34132,-7.42562],[110.34086,-7.42565],[110.34082,-7.42565],[110.34015,-7.42574],[110.33944,-7.42591],[110.33905,-7.426],[110.33853,-7.42619],[110.33852,-7.42619],[110.33852,-7.4262],[110.33812,-7.42648],[110.33809,-7.4265],[110.33761,-7.42676],[110.33706,-7.42699],[110.33662,-7.42714],[110.33623,-7.42721],[110.33572,-7.42721],[110.33567,-7.4272],[110.33505,-7.42711],[110.33504,-7.42711],[110.33449,-7.42709],[110.33424,-7.42719],[110.33422,-7.4272],[110.33395,-7.42747],[110.33386,-7.42768],[110.33337,-7.42827],[110.33337,-7.42828],[110.33311,-7.42868],[110.33262,-7.42936],[110.33237,-7.4296],[110.3318,-7.43002],[110.33178,-7.43003],[110.33152,-7.43015],[110.33117,-7.43035],[110.33112,-7.4304],[110.33082,-7.43066],[110.33066,-7.43079],[110.33051,-7.43094],[110.33038,-7.43103],[110.33019,-7.43104],[110.33004,-7.43103],[110.32967,-7.43094],[110.32913,-7.431],[110.32886,-7.4311],[110.32838,-7.43116],[110.32777,-7.43121],[110.3273,-7.4313],[110.32698,-7.43128],[110.32646,-7.43114],[110.32632,-7.43098],[110.32631,-7.43098],[110.32618,-7.43072],[110.32609,-7.43059],[110.32587,-7.4305],[110.32554,-7.43056],[110.32525,-7.43075],[110.32503,-7.43092],[110.3248,-7.43119],[110.32454,-7.43124],[110.32419,-7.4312],[110.32346,-7.43096],[110.3229,-7.43081],[110.32196,-7.43065],[110.32112,-7.43065],[110.32031,-7.43079],[110.32007,-7.43095],[110.32002,-7.43118],[110.31999,-7.43148],[110.31981,-7.43163],[110.31976,-7.43164],[110.31955,-7.43168],[110.31917,-7.4317],[110.31839,-7.4317],[110.31747,-7.43186],[110.31746,-7.43186],[110.31745,-7.43206],[110.31746,-7.43223],[110.31752,-7.43251],[110.31743,-7.43294],[110.31757,-7.43299],[110.31784,-7.43308],[110.31773,-7.43329],[110.31766,-7.43343],[110.3176,-7.43353],[110.31755,-7.43363],[110.31755,-7.43373],[110.31751,-7.43382],[110.31747,-7.43389],[110.31745,-7.43395],[110.31741,-7.43409],[110.31741,-7.43415],[110.31749,-7.43418],[110.31767,-7.43444],[110.31785,-7.43469],[110.31793,-7.43474],[110.31802,-7.43477],[110.31802,-7.43492],[110.31812,-7.43496],[110.31812,-7.43508],[110.31809,-7.43514],[110.31802,-7.43519],[110.31797,-7.43554],[110.3184,-7.43562],[110.31876,-7.43581],[110.31911,-7.43605],[110.31907,-7.4363],[110.31938,-7.43661],[110.31922,-7.43709],[110.31911,-7.4373],[110.31919,-7.43769],[110.31919,-7.43806],[110.31925,-7.43845],[110.31902,-7.43845],[110.31881,-7.43848],[110.31855,-7.43847],[110.31839,-7.43854],[110.31827,-7.43861],[110.31816,-7.43859],[110.31788,-7.43854],[110.31785,-7.43866],[110.31778,-7.43877],[110.31752,-7.4387],[110.31741,-7.43852],[110.31714,-7.43853],[110.31708,-7.4386],[110.31706,-7.43877],[110.31703,-7.43882],[110.31703,-7.43889],[110.31697,-7.43899],[110.31692,-7.43906],[110.31685,-7.43913],[110.31684,-7.43919],[110.31685,-7.43925],[110.31683,-7.43937],[110.31688,-7.43954],[110.31695,-7.43966],[110.31689,-7.43969],[110.31675,-7.43965],[110.31678,-7.43989],[110.31671,-7.44004],[110.31675,-7.44006],[110.31682,-7.44008],[110.31687,-7.44012],[110.3169,-7.44022],[110.3169,-7.44035],[110.31695,-7.44034],[110.31696,-7.44039],[110.31696,-7.44047],[110.31692,-7.44052],[110.31689,-7.44055],[110.3169,-7.44058],[110.31689,-7.4407],[110.31691,-7.44072],[110.31691,-7.44084],[110.3171,-7.44111],[110.31759,-7.44123],[110.31777,-7.44153],[110.3175,-7.44164],[110.31739,-7.4417],[110.31731,-7.44174],[110.3173,-7.44174],[110.31711,-7.44179],[110.31689,-7.44178],[110.3167,-7.44186],[110.31646,-7.44199],[110.31633,-7.44219],[110.31628,-7.44229],[110.31609,-7.44241],[110.31608,-7.44242],[110.31592,-7.44249],[110.31571,-7.44262],[110.31567,-7.44262],[110.3154,-7.44266],[110.31498,-7.44265],[110.31479,-7.44268],[110.31467,-7.44272],[110.31439,-7.44295],[110.31427,-7.4431],[110.314,-7.44322],[110.31376,-7.4432],[110.31359,-7.44308],[110.31347,-7.443],[110.31347,-7.44305],[110.31346,-7.44313],[110.31343,-7.4432],[110.31339,-7.44326],[110.31331,-7.44332],[110.31323,-7.44339],[110.31316,-7.44346],[110.31315,-7.44353],[110.31311,-7.44366],[110.3131,-7.4438],[110.31311,-7.44398],[110.31314,-7.44409],[110.31319,-7.44429],[110.31319,-7.4443],[110.31333,-7.44443],[110.31349,-7.4445],[110.31394,-7.44468],[110.31404,-7.44469],[110.3143,-7.44473],[110.31484,-7.44482],[110.31523,-7.44488],[110.31557,-7.44493],[110.31562,-7.44493],[110.3158,-7.44491],[110.31634,-7.44487],[110.31693,-7.44577],[110.31705,-7.44601],[110.31704,-7.44613],[110.31707,-7.44624],[110.31716,-7.44635],[110.31732,-7.44633],[110.31739,-7.44637],[110.31753,-7.44652],[110.31758,-7.44668],[110.3175,-7.44687],[110.31716,-7.44718],[110.31682,-7.44719],[110.31643,-7.44692],[110.31611,-7.44676],[110.31583,-7.44676],[110.31544,-7.44671],[110.3151,-7.44664],[110.31495,-7.44667],[110.31494,-7.44667],[110.31485,-7.44669],[110.31465,-7.44673],[110.31434,-7.44679],[110.31392,-7.44677],[110.31364,-7.4467],[110.31347,-7.44665],[110.31346,-7.44665],[110.31323,-7.44651],[110.31306,-7.44642],[110.31267,-7.44621],[110.31245,-7.44643],[110.31244,-7.44643],[110.31214,-7.44677],[110.31169,-7.44695],[110.3113,-7.4472],[110.31119,-7.44737],[110.3111,-7.4477],[110.31106,-7.44792],[110.31105,-7.44804],[110.31102,-7.44832],[110.3109,-7.44866],[110.31057,-7.44861],[110.31032,-7.44871],[110.31019,-7.44866],[110.31008,-7.44862],[110.30996,-7.4486],[110.30971,-7.44851],[110.30967,-7.44849],[110.30956,-7.44844],[110.30933,-7.44872],[110.30871,-7.44922],[110.30812,-7.44948],[110.30781,-7.44962],[110.30717,-7.45051],[110.30713,-7.45055],[110.30704,-7.45063],[110.3068,-7.45081],[110.30672,-7.45091],[110.30596,-7.45047],[110.30594,-7.45046],[110.30591,-7.45051],[110.30582,-7.4506],[110.30519,-7.45105],[110.30516,-7.45108],[110.30468,-7.45168],[110.3045,-7.45193],[110.3043,-7.45226],[110.30418,-7.45251],[110.30396,-7.45282],[110.30386,-7.45296],[110.30375,-7.45319],[110.30371,-7.45327],[110.30363,-7.4534],[110.30357,-7.45352],[110.30329,-7.45415],[110.30326,-7.45416],[110.30276,-7.45438],[110.30276,-7.45521],[110.30259,-7.45551],[110.3023,-7.45573],[110.30199,-7.45589],[110.30197,-7.45591],[110.30176,-7.45608],[110.30175,-7.45609],[110.30151,-7.45628],[110.3014,-7.45645],[110.30118,-7.45667],[110.30097,-7.45667],[110.30073,-7.45652],[110.30036,-7.45644],[110.30034,-7.45643],[110.2999,-7.45629],[110.29989,-7.45628],[110.29953,-7.45614],[110.29919,-7.45606],[110.29905,-7.45603],[110.29888,-7.45712],[110.29888,-7.45738],[110.29896,-7.45927],[110.29836,-7.45929],[110.2983,-7.45928],[110.29787,-7.45921],[110.29767,-7.45925],[110.29765,-7.45925],[110.29731,-7.45934],[110.29656,-7.4595],[110.29601,-7.45953],[110.29588,-7.46175],[110.29618,-7.46188],[110.29638,-7.46202],[110.29647,-7.46233],[110.29674,-7.46222],[110.29713,-7.46341],[110.29723,-7.46477],[110.29719,-7.46521],[110.29715,-7.46523],[110.29674,-7.46552],[110.29645,-7.46576],[110.29614,-7.46612],[110.29601,-7.46629],[110.2957,-7.46725],[110.29567,-7.46729],[110.29561,-7.46736],[110.29528,-7.46765],[110.29525,-7.46768],[110.29497,-7.46793],[110.29484,-7.46804],[110.29479,-7.4681],[110.29458,-7.4683],[110.29454,-7.46833],[110.29428,-7.46864],[110.29399,-7.46898],[110.29397,-7.46929],[110.29394,-7.46938]]]}}]}