{"type":"FeatureCollection","features":[{"type":"Feature","properties":{"KECAMATAN":"Salaman"},"geometry":{"type":"Polygon","coordinates":[[[110.05588,-7.57033],[110.05589,-7.57035],[110.05647,-7.57094],[110.05647,-7.57095],[110.05642,-7.5714],[110.05642,-7.57147],[110.05641,-7.57157],[110.05638,-7.57203],[110.05644,-7.57262],[110.05673,-7.57276],[110.05709,-7.57292],[110.05794,-7.57357],[110.05848,-7.57385],[110.05862,-7.57393],[110.05883,-7.57407],[110.05894,-7.57414],[110.05899,-7.57421],[110.05903,-7.57428],[110.05936,-7.5748],[110.0597,-7.57549],[110.05972,-7.57547],[110.06016,-7.57516],[110.06016,-7.57515],[110.06051,-7.57457],[110.06054,-7.57453],[110.06071,-7.57428],[110.0608,-7.57386],[110.06087,-7.57355],[110.06117,-7.57328],[110.06117,-7.57327],[110.06154,-7.57324],[110.06182,-7.57301],[110.06202,-7.57265],[110.06203,-7.57264],[110.06218,-7.57235],[110.06219,-7.57231],[110.0622,-7.5723],[110.06252,-7.57211],[110.06276,-7.5724],[110.06277,-7.57241],[110.06292,-7.57272],[110.06299,-7.57286],[110.063,-7.57287],[110.06323,-7.57309],[110.06326,-7.57312],[110.06366,-7.57332],[110.06442,-7.57331],[110.06443,-7.57331],[110.06443,-7.5733],[110.06464,-7.57311],[110.06473,-7.57303],[110.06473,-7.57297],[110.06478,-7.57262],[110.0649,-7.57208],[110.06493,-7.57201],[110.06504,-7.5717],[110.06505,-7.57169],[110.06527,-7.5713],[110.06564,-7.57105],[110.06569,-7.57101],[110.06586,-7.57103],[110.06644,-7.5711],[110.06646,-7.57111],[110.06693,-7.57117],[110.06699,-7.57117],[110.06743,-7.57111],[110.06746,-7.57111],[110.06748,-7.5711],[110.06782,-7.57098],[110.06783,-7.57098],[110.06854,-7.57114],[110.06859,-7.57115],[110.0691,-7.57122],[110.06973,-7.57143],[110.07017,-7.57165],[110.0702,-7.57167],[110.07028,-7.57169],[110.07089,-7.5719],[110.07123,-7.57203],[110.07136,-7.57208],[110.07187,-7.57231],[110.07235,-7.57255],[110.07238,-7.57257],[110.07263,-7.57279],[110.07292,-7.57295],[110.07307,-7.57303],[110.07337,-7.57335],[110.07349,-7.57365],[110.07349,-7.57366],[110.07359,-7.57404],[110.07377,-7.57494],[110.07384,-7.57511],[110.07396,-7.57534],[110.07409,-7.57564],[110.07421,-7.57602],[110.07433,-7.57642],[110.07467,-7.57647],[110.07567,-7.57447],[110.07587,-7.57408],[110.07701,-7.57181],[110.07735,-7.57114],[110.07975,-7.56906],[110.08108,-7.56901],[110.08226,-7.56842],[110.08345,-7.56784],[110.08553,-7.56681],[110.08883,-7.56646],[110.08989,-7.56635],[110.09152,-7.56558],[110.09308,-7.5658],[110.09417,-7.56569],[110.09572,-7.56685],[110.09839,-7.56726],[110.09865,-7.56744],[110.09866,-7.56745],[110.09867,-7.56745],[110.10074,-7.56894],[110.10083,-7.569],[110.10169,-7.56961],[110.10173,-7.5697],[110.10173,-7.56971],[110.10277,-7.57192],[110.10291,-7.57223],[110.10267,-7.57258],[110.10169,-7.574],[110.1014,-7.57441],[110.10044,-7.57581],[110.10062,-7.57601],[110.10068,-7.57608],[110.10099,-7.57639],[110.10136,-7.57661],[110.10157,-7.57673],[110.10165,-7.57678],[110.10186,-7.577],[110.10187,-7.57703],[110.10195,-7.57944],[110.10193,-7.57997],[110.10191,-7.58056],[110.10188,-7.58138],[110.10186,-7.58221],[110.10188,-7.58333],[110.10189,-7.58424],[110.10193,-7.58445],[110.10245,-7.58697],[110.10234,-7.5878],[110.10279,-7.5888],[110.1029,-7.58902],[110.10291,-7.58921],[110.10292,-7.58927],[110.10292,-7.58929],[110.10282,-7.58972],[110.10281,-7.58976],[110.10283,-7.58983],[110.10294,-7.59022],[110.10303,-7.59055],[110.10304,-7.59056],[110.10332,-7.59087],[110.10355,-7.59111],[110.10355,-7.59112],[110.10357,-7.59112],[110.10403,-7.59115],[110.10419,-7.59116],[110.10433,-7.59121],[110.10482,-7.59137],[110.10536,-7.59114],[110.10553,-7.59107],[110.10579,-7.59116],[110.1058,-7.59116],[110.10581,-7.59117],[110.10583,-7.59118],[110.10586,-7.5912],[110.10586,-7.59121],[110.10673,-7.59189],[110.10678,-7.59193],[110.10683,-7.59196],[110.10722,-7.59225],[110.10727,-7.59228],[110.10735,-7.59246],[110.10736,-7.59254],[110.10736,-7.59257],[110.10737,-7.59266],[110.10737,-7.59267],[110.10739,-7.59292],[110.10741,-7.59313],[110.10767,-7.5934],[110.10781,-7.5936],[110.10783,-7.59362],[110.10852,-7.5946],[110.10888,-7.59501],[110.10919,-7.59522],[110.10957,-7.5955],[110.10983,-7.59575],[110.10993,-7.59614],[110.11007,-7.59654],[110.1101,-7.59662],[110.11029,-7.59705],[110.11034,-7.5973],[110.11037,-7.59743],[110.11047,-7.59781],[110.11052,-7.59791],[110.11063,-7.59811],[110.11083,-7.59853],[110.11085,-7.59857],[110.11105,-7.59902],[110.11131,-7.5996],[110.1114,-7.59965],[110.11186,-7.59993],[110.11249,-7.60062],[110.11264,-7.60089],[110.11284,-7.60124],[110.11285,-7.60127],[110.11343,-7.60127],[110.11499,-7.60219],[110.11528,-7.60242],[110.11588,-7.60302],[110.11591,-7.60306],[110.11597,-7.60334],[110.11598,-7.6034],[110.11632,-7.60513],[110.11847,-7.60785],[110.12031,-7.60864],[110.12031,-7.60865],[110.12046,-7.60921],[110.12047,-7.60979],[110.1205,-7.61008],[110.12053,-7.61032],[110.12075,-7.61074],[110.12096,-7.61109],[110.12108,-7.61127],[110.12118,-7.61154],[110.12128,-7.61179],[110.12145,-7.61233],[110.12149,-7.6129],[110.12149,-7.61296],[110.12142,-7.6136],[110.12141,-7.61365],[110.12135,-7.61441],[110.12135,-7.61444],[110.12134,-7.61447],[110.12134,-7.61464],[110.12133,-7.6148],[110.12131,-7.61539],[110.12131,-7.6154],[110.12129,-7.6158],[110.12129,-7.61646],[110.1213,-7.61649],[110.12134,-7.61662],[110.12155,-7.61728],[110.12167,-7.6178],[110.12173,-7.61809],[110.12187,-7.61869],[110.12197,-7.61898],[110.12225,-7.61977],[110.12225,-7.61978],[110.12231,-7.61997],[110.12231,-7.61999],[110.12251,-7.62062],[110.12206,-7.62154],[110.12173,-7.62189],[110.12159,-7.62211],[110.12153,-7.62221],[110.12144,-7.62242],[110.12138,-7.62255],[110.12138,-7.62256],[110.12132,-7.62306],[110.12134,-7.62333],[110.12136,-7.62353],[110.12153,-7.62389],[110.12154,-7.62391],[110.12187,-7.62432],[110.12203,-7.62441],[110.12223,-7.62451],[110.12224,-7.62451],[110.12249,-7.62478],[110.12267,-7.62498],[110.12337,-7.62575],[110.12337,-7.62576],[110.12366,-7.62602],[110.12386,-7.62635],[110.12392,-7.62672],[110.12392,-7.62673],[110.12378,-7.62705],[110.12378,-7.62708],[110.12395,-7.62749],[110.12428,-7.62782],[110.12429,-7.62782],[110.12439,-7.62816],[110.12441,-7.62821],[110.12466,-7.62848],[110.12482,-7.62859],[110.12499,-7.62871],[110.12505,-7.62883],[110.12525,-7.62927],[110.12527,-7.62931],[110.12511,-7.62958],[110.12527,-7.62997],[110.12527,-7.63028],[110.12528,-7.63043],[110.1253,-7.63063],[110.12534,-7.63083],[110.12543,-7.63093],[110.12559,-7.63108],[110.12587,-7.63136],[110.12629,-7.6314],[110.12671,-7.63163],[110.12674,-7.63165],[110.1275,-7.63209],[110.12786,-7.63221],[110.12824,-7.63249],[110.12828,-7.63254],[110.12857,-7.63291],[110.12863,-7.633],[110.12864,-7.633],[110.12904,-7.6334],[110.12964,-7.63357],[110.13047,-7.63373],[110.1309,-7.63393],[110.13135,-7.63418],[110.1318,-7.63447],[110.13274,-7.63541],[110.13307,-7.63567],[110.13307,-7.63568],[110.13308,-7.63569],[110.13328,-7.63638],[110.13339,-7.637],[110.13353,-7.63744],[110.13375,-7.63776],[110.13388,-7.63794],[110.13421,-7.63823],[110.13427,-7.63829],[110.13468,-7.63843],[110.13492,-7.63851],[110.13541,-7.63885],[110.13588,-7.63942],[110.13678,-7.64032],[110.13741,-7.64113],[110.13746,-7.6412],[110.13821,-7.64222],[110.13839,-7.64246],[110.13916,-7.64381],[110.13955,-7.64437],[110.13984,-7.64463],[110.14048,-7.64467],[110.14061,-7.64458],[110.14105,-7.6443],[110.1419,-7.64441],[110.14242,-7.64477],[110.14296,-7.64515],[110.14305,-7.6462],[110.14309,-7.64623],[110.14321,-7.64635],[110.14327,-7.64642],[110.14332,-7.64649],[110.14337,-7.64655],[110.14342,-7.64663],[110.14352,-7.64677],[110.14356,-7.64685],[110.1436,-7.64692],[110.14368,-7.64708],[110.14372,-7.64715],[110.1438,-7.64731],[110.14383,-7.64739],[110.14387,-7.64747],[110.14388,-7.64751],[110.1439,-7.64756],[110.14396,-7.64772],[110.14398,-7.6478],[110.14401,-7.64789],[110.14405,-7.64805],[110.14406,-7.64814],[110.14408,-7.64822],[110.14409,-7.64831],[110.1441,-7.64839],[110.14411,-7.64848],[110.14411,-7.64891],[110.1441,-7.64899],[110.1441,-7.64952],[110.14411,-7.64961],[110.14419,-7.64996],[110.14427,-7.65026],[110.14428,-7.65031],[110.14429,-7.65037],[110.14435,-7.65043],[110.14442,-7.65051],[110.14444,-7.65054],[110.14445,-7.65054],[110.14453,-7.65057],[110.14477,-7.65067],[110.14516,-7.65067],[110.14527,-7.65066],[110.14539,-7.65065],[110.1455,-7.65063],[110.14561,-7.65062],[110.14583,-7.65058],[110.14594,-7.65057],[110.14606,-7.65056],[110.14617,-7.65054],[110.14628,-7.65053],[110.14664,-7.6505],[110.14676,-7.65048],[110.14688,-7.65047],[110.14724,-7.65041],[110.14735,-7.65037],[110.14746,-7.65034],[110.14756,-7.65029],[110.14765,-7.65024],[110.14774,-7.65018],[110.1479,-7.65002],[110.14796,-7.64993],[110.14808,-7.64973],[110.14811,-7.64969],[110.14814,-7.64963],[110.14821,-7.64953],[110.14827,-7.64944],[110.14835,-7.64935],[110.14842,-7.64926],[110.1485,-7.64917],[110.14874,-7.64893],[110.14882,-7.64884],[110.14889,-7.64876],[110.14896,-7.64867],[110.14902,-7.64858],[110.14914,-7.64838],[110.14929,-7.64808],[110.14935,-7.64798],[110.1494,-7.64787],[110.14952,-7.64767],[110.14966,-7.64749],[110.14974,-7.6474],[110.14983,-7.64733],[110.14992,-7.64725],[110.15001,-7.64719],[110.15011,-7.64714],[110.15021,-7.6471],[110.15032,-7.64706],[110.15054,-7.64702],[110.15066,-7.647],[110.15077,-7.64699],[110.15101,-7.64697],[110.15113,-7.64697],[110.15125,-7.64696],[110.15136,-7.64696],[110.15148,-7.64695],[110.1516,-7.64695],[110.15182,-7.64693],[110.15194,-7.64692],[110.15216,-7.6469],[110.15228,-7.64689],[110.15239,-7.64688],[110.1525,-7.64686],[110.15262,-7.64685],[110.15273,-7.64684],[110.15284,-7.64682],[110.15296,-7.64681],[110.15307,-7.6468],[110.15319,-7.64679],[110.1533,-7.64677],[110.1534,-7.64677],[110.15342,-7.64676],[110.15353,-7.64676],[110.15365,-7.64675],[110.15376,-7.64675],[110.15388,-7.64674],[110.15399,-7.64675],[110.15411,-7.64675],[110.15433,-7.64677],[110.15445,-7.64679],[110.15467,-7.64683],[110.15489,-7.64689],[110.15492,-7.64689],[110.155,-7.64692],[110.15512,-7.64694],[110.15523,-7.64697],[110.15534,-7.64699],[110.15545,-7.647],[110.15557,-7.64701],[110.15568,-7.64702],[110.15603,-7.64702],[110.15614,-7.64701],[110.15626,-7.647],[110.15637,-7.64699],[110.15685,-7.64699],[110.15753,-7.64693],[110.15789,-7.6469],[110.15809,-7.64689],[110.1581,-7.64585],[110.15812,-7.6453],[110.15763,-7.64467],[110.15794,-7.64433],[110.15798,-7.64388],[110.15833,-7.64357],[110.15871,-7.64312],[110.15882,-7.64285],[110.1589,-7.64045],[110.15907,-7.63981],[110.15987,-7.63901],[110.16008,-7.63878],[110.16023,-7.63865],[110.16031,-7.6386],[110.1604,-7.6386],[110.1605,-7.63861],[110.16056,-7.63865],[110.16067,-7.63871],[110.161,-7.63882],[110.16174,-7.63869],[110.16178,-7.63869],[110.16181,-7.63864],[110.16182,-7.6386],[110.16183,-7.63859],[110.16183,-7.63853],[110.16184,-7.63848],[110.16185,-7.63844],[110.16186,-7.63844],[110.16191,-7.63834],[110.162,-7.6382],[110.16201,-7.63816],[110.16206,-7.63804],[110.1621,-7.6379],[110.16213,-7.63777],[110.16214,-7.63773],[110.16214,-7.63765],[110.16217,-7.63761],[110.16219,-7.63758],[110.16228,-7.63748],[110.16232,-7.63745],[110.1624,-7.63738],[110.16241,-7.63736],[110.16244,-7.63731],[110.16244,-7.63726],[110.16245,-7.63723],[110.16244,-7.63722],[110.16244,-7.63712],[110.16241,-7.63704],[110.16241,-7.63701],[110.16239,-7.63693],[110.16238,-7.63691],[110.16238,-7.63689],[110.1624,-7.63688],[110.16249,-7.63684],[110.16255,-7.63682],[110.16265,-7.6368],[110.16268,-7.63679],[110.16273,-7.63679],[110.16273,-7.63665],[110.16275,-7.6366],[110.16276,-7.63656],[110.1628,-7.63645],[110.16281,-7.63644],[110.16288,-7.63638],[110.16289,-7.63638],[110.16296,-7.63635],[110.16304,-7.63632],[110.16318,-7.63626],[110.16319,-7.63625],[110.1632,-7.63625],[110.1632,-7.63624],[110.16323,-7.63622],[110.16332,-7.63613],[110.16335,-7.63609],[110.16337,-7.63604],[110.16337,-7.63581],[110.16338,-7.63577],[110.16339,-7.63572],[110.16343,-7.6356],[110.16344,-7.63554],[110.16345,-7.63543],[110.16345,-7.63529],[110.16341,-7.63513],[110.1634,-7.63512],[110.16338,-7.63502],[110.16339,-7.63494],[110.16339,-7.6349],[110.1634,-7.63488],[110.16344,-7.63479],[110.16346,-7.63473],[110.16347,-7.63468],[110.16347,-7.63466],[110.16346,-7.63461],[110.16343,-7.63441],[110.1634,-7.63427],[110.16337,-7.63414],[110.16336,-7.6341],[110.16334,-7.63404],[110.16331,-7.63392],[110.16328,-7.63387],[110.16318,-7.63372],[110.16317,-7.63371],[110.16309,-7.63357],[110.16303,-7.63352],[110.163,-7.63349],[110.163,-7.63348],[110.16299,-7.63347],[110.16299,-7.63346],[110.16295,-7.6333],[110.16293,-7.63321],[110.16291,-7.63313],[110.16288,-7.63309],[110.16287,-7.63307],[110.16273,-7.63293],[110.16271,-7.63289],[110.16262,-7.63277],[110.16261,-7.63275],[110.16259,-7.6327],[110.16259,-7.63254],[110.16255,-7.63239],[110.16255,-7.63238],[110.16249,-7.63215],[110.16249,-7.63199],[110.16255,-7.63178],[110.16256,-7.63176],[110.16259,-7.63165],[110.16261,-7.63158],[110.16261,-7.63149],[110.1626,-7.63143],[110.16257,-7.63137],[110.16248,-7.63125],[110.16242,-7.63111],[110.16238,-7.631],[110.16232,-7.63088],[110.16232,-7.63086],[110.1623,-7.63086],[110.1623,-7.63085],[110.16146,-7.63058],[110.16093,-7.63043],[110.16063,-7.63035],[110.16006,-7.62989],[110.15977,-7.6294],[110.15957,-7.62907],[110.15949,-7.62833],[110.15869,-7.62781],[110.15758,-7.62652],[110.15642,-7.6257],[110.15479,-7.62451],[110.15353,-7.62362],[110.15365,-7.62308],[110.15382,-7.62269],[110.15404,-7.6224],[110.15417,-7.62223],[110.15438,-7.622],[110.15544,-7.62085],[110.15546,-7.62082],[110.15582,-7.62041],[110.15584,-7.62039],[110.15625,-7.61988],[110.1565,-7.61953],[110.15683,-7.61907],[110.15686,-7.61902],[110.15688,-7.61899],[110.15723,-7.61837],[110.15739,-7.61799],[110.15745,-7.61754],[110.15741,-7.61717],[110.15732,-7.617],[110.15707,-7.61674],[110.15672,-7.61651],[110.15615,-7.61625],[110.15595,-7.61609],[110.15593,-7.61604],[110.15582,-7.6157],[110.15581,-7.61551],[110.15579,-7.61522],[110.1557,-7.61487],[110.15532,-7.61393],[110.15523,-7.61371],[110.15515,-7.61334],[110.15511,-7.61314],[110.15508,-7.61278],[110.15503,-7.61247],[110.15502,-7.61242],[110.15498,-7.6121],[110.15502,-7.61181],[110.15506,-7.6116],[110.15508,-7.61107],[110.15508,-7.61105],[110.15513,-7.6104],[110.15516,-7.60999],[110.15515,-7.60984],[110.15514,-7.60962],[110.15514,-7.60955],[110.15513,-7.60935],[110.15513,-7.60932],[110.15515,-7.60901],[110.15517,-7.60873],[110.15519,-7.60853],[110.15525,-7.60822],[110.15535,-7.60777],[110.15536,-7.60752],[110.15536,-7.6074],[110.15538,-7.60702],[110.15539,-7.60665],[110.15539,-7.60654],[110.1554,-7.60625],[110.1554,-7.60622],[110.15534,-7.60531],[110.15533,-7.60473],[110.15515,-7.60402],[110.15502,-7.60372],[110.15481,-7.60342],[110.15456,-7.60333],[110.15443,-7.60327],[110.15433,-7.60312],[110.1542,-7.60299],[110.15407,-7.60296],[110.15379,-7.6029],[110.15369,-7.60282],[110.15348,-7.60251],[110.15214,-7.60079],[110.15184,-7.60042],[110.15136,-7.59975],[110.15103,-7.59924],[110.15103,-7.59923],[110.15069,-7.59848],[110.15052,-7.59794],[110.15041,-7.59733],[110.1504,-7.5973],[110.15043,-7.59729],[110.15049,-7.59726],[110.15093,-7.597],[110.15175,-7.59662],[110.15265,-7.59629],[110.15277,-7.59625],[110.15288,-7.59621],[110.15489,-7.59549],[110.15538,-7.59531],[110.15541,-7.59531],[110.15577,-7.59522],[110.15634,-7.595],[110.15879,-7.59359],[110.15866,-7.59219],[110.1586,-7.59152],[110.15853,-7.5908],[110.15852,-7.59069],[110.15871,-7.59078],[110.15886,-7.59084],[110.15896,-7.59091],[110.15909,-7.5907],[110.15887,-7.59056],[110.15857,-7.5904],[110.15848,-7.59037],[110.15842,-7.59023],[110.15819,-7.59014],[110.15797,-7.59009],[110.15771,-7.58998],[110.1576,-7.5899],[110.15751,-7.58984],[110.15749,-7.58981],[110.15744,-7.58977],[110.1574,-7.58974],[110.15723,-7.58955],[110.15712,-7.5894],[110.15709,-7.58922],[110.15714,-7.58891],[110.15718,-7.58868],[110.15683,-7.58863],[110.15683,-7.5885],[110.15682,-7.58849],[110.15692,-7.58834],[110.15708,-7.58817],[110.15713,-7.58817],[110.15728,-7.58806],[110.1574,-7.58791],[110.15746,-7.5878],[110.15762,-7.58772],[110.15773,-7.58763],[110.15781,-7.58748],[110.15789,-7.58738],[110.15803,-7.58729],[110.15812,-7.58724],[110.1582,-7.5872],[110.15827,-7.58725],[110.15828,-7.58725],[110.15837,-7.58731],[110.15839,-7.58731],[110.15875,-7.58744],[110.15899,-7.58754],[110.15893,-7.58774],[110.15886,-7.58806],[110.15884,-7.58813],[110.15875,-7.58836],[110.15869,-7.58851],[110.15873,-7.58853],[110.15884,-7.5886],[110.15894,-7.58863],[110.15897,-7.58859],[110.15902,-7.58856],[110.15905,-7.58853],[110.15914,-7.58827],[110.15919,-7.58814],[110.15929,-7.58793],[110.15938,-7.58773],[110.15941,-7.58766],[110.15942,-7.58751],[110.15943,-7.58748],[110.15948,-7.58739],[110.15958,-7.58725],[110.15958,-7.58722],[110.15956,-7.58717],[110.15956,-7.58712],[110.15955,-7.58708],[110.15954,-7.58707],[110.15949,-7.58701],[110.15942,-7.58694],[110.15932,-7.58686],[110.15926,-7.58677],[110.15919,-7.58664],[110.15913,-7.58659],[110.15911,-7.5865],[110.15911,-7.58649],[110.15923,-7.58642],[110.15928,-7.58638],[110.15932,-7.58633],[110.15936,-7.58627],[110.15938,-7.58625],[110.15946,-7.58619],[110.15961,-7.58614],[110.15983,-7.58608],[110.15986,-7.58608],[110.16008,-7.58605],[110.16022,-7.58606],[110.1604,-7.58614],[110.16051,-7.58621],[110.16063,-7.58628],[110.16072,-7.58639],[110.16108,-7.58675],[110.16113,-7.58658],[110.16115,-7.58647],[110.16118,-7.58622],[110.16116,-7.58607],[110.16119,-7.58589],[110.1612,-7.58586],[110.1613,-7.58589],[110.16141,-7.58592],[110.16146,-7.58593],[110.16149,-7.58585],[110.16153,-7.58572],[110.16134,-7.58567],[110.16125,-7.58564],[110.16125,-7.58562],[110.16132,-7.58539],[110.16145,-7.5854],[110.16166,-7.58543],[110.16174,-7.58545],[110.16181,-7.58528],[110.16184,-7.58517],[110.16184,-7.58514],[110.16181,-7.58511],[110.16173,-7.58505],[110.16162,-7.58501],[110.16147,-7.58498],[110.16138,-7.58496],[110.16139,-7.58486],[110.16145,-7.58438],[110.16128,-7.58433],[110.16123,-7.58429],[110.16121,-7.58428],[110.16098,-7.58409],[110.16087,-7.584],[110.1607,-7.58387],[110.16061,-7.58382],[110.16031,-7.58365],[110.15998,-7.58347],[110.15984,-7.58339],[110.15978,-7.58333],[110.15977,-7.58331],[110.15964,-7.58318],[110.15964,-7.58317],[110.15959,-7.58302],[110.15957,-7.58297],[110.15962,-7.58278],[110.15974,-7.5825],[110.15977,-7.58242],[110.15985,-7.58224],[110.15995,-7.58177],[110.16,-7.58172],[110.16011,-7.5816],[110.16012,-7.58155],[110.16011,-7.5815],[110.16011,-7.58147],[110.16005,-7.58141],[110.16004,-7.58138],[110.16005,-7.58131],[110.16009,-7.58109],[110.16008,-7.58102],[110.16006,-7.58097],[110.16003,-7.58089],[110.16004,-7.58079],[110.16009,-7.58064],[110.16023,-7.58038],[110.16036,-7.5802],[110.16045,-7.58001],[110.16052,-7.57977],[110.1605,-7.57958],[110.16049,-7.57943],[110.16044,-7.57926],[110.16036,-7.57906],[110.16029,-7.57892],[110.16023,-7.57886],[110.16019,-7.57879],[110.16018,-7.57869],[110.1602,-7.57861],[110.16022,-7.57848],[110.16039,-7.578],[110.16053,-7.57774],[110.16061,-7.57764],[110.16071,-7.57761],[110.16092,-7.57752],[110.16107,-7.57743],[110.16113,-7.57739],[110.1612,-7.57728],[110.16132,-7.57707],[110.16138,-7.57694],[110.16139,-7.57684],[110.16138,-7.57635],[110.16134,-7.57603],[110.16133,-7.57581],[110.16163,-7.57576],[110.16225,-7.57576],[110.16225,-7.57574],[110.16235,-7.57471],[110.16242,-7.5741],[110.16245,-7.57406],[110.16246,-7.57396],[110.16241,-7.57395],[110.16246,-7.57366],[110.16299,-7.57371],[110.16311,-7.57374],[110.16321,-7.57377],[110.1633,-7.57379],[110.16348,-7.5738],[110.16366,-7.57386],[110.16365,-7.57372],[110.16361,-7.57371],[110.16363,-7.57351],[110.16375,-7.57352],[110.16375,-7.57342],[110.16395,-7.57327],[110.16407,-7.57317],[110.16384,-7.57304],[110.16383,-7.57301],[110.16383,-7.57297],[110.16385,-7.57291],[110.16387,-7.57283],[110.16387,-7.57279],[110.16386,-7.57276],[110.1638,-7.57275],[110.16373,-7.57282],[110.16371,-7.57286],[110.16338,-7.57264],[110.16319,-7.57254],[110.16276,-7.57233],[110.1627,-7.57242],[110.16254,-7.57231],[110.16232,-7.57224],[110.16204,-7.57218],[110.16173,-7.57212],[110.16176,-7.57196],[110.16181,-7.57178],[110.16186,-7.57165],[110.16187,-7.57161],[110.16189,-7.57158],[110.16191,-7.57156],[110.16198,-7.57155],[110.16203,-7.57151],[110.16209,-7.57144],[110.16212,-7.5714],[110.16213,-7.57128],[110.16215,-7.57118],[110.1622,-7.5711],[110.16224,-7.57103],[110.16243,-7.57092],[110.16256,-7.57084],[110.16266,-7.57071],[110.16275,-7.57055],[110.16281,-7.57045],[110.16285,-7.5703],[110.16285,-7.57026],[110.16284,-7.5702],[110.1628,-7.57007],[110.16269,-7.56987],[110.16253,-7.56964],[110.16238,-7.56935],[110.16237,-7.56934],[110.16232,-7.56918],[110.16231,-7.56913],[110.16231,-7.56906],[110.16232,-7.569],[110.16237,-7.56893],[110.16248,-7.5688],[110.16262,-7.56863],[110.1627,-7.56852],[110.16277,-7.56833],[110.16278,-7.56829],[110.16284,-7.56796],[110.16287,-7.56788],[110.16295,-7.56765],[110.16306,-7.56738],[110.16308,-7.56735],[110.16315,-7.56711],[110.16316,-7.56707],[110.16317,-7.56697],[110.16316,-7.56686],[110.16315,-7.5668],[110.16314,-7.5668],[110.16313,-7.56673],[110.16311,-7.56661],[110.16312,-7.56655],[110.16314,-7.5665],[110.16315,-7.56649],[110.16318,-7.56642],[110.16318,-7.56633],[110.16317,-7.56629],[110.16313,-7.56615],[110.16314,-7.56612],[110.16314,-7.56609],[110.16316,-7.56606],[110.16319,-7.56602],[110.16325,-7.56597],[110.16328,-7.5659],[110.16329,-7.56579],[110.16329,-7.56552],[110.1632,-7.56549],[110.16297,-7.56536],[110.16287,-7.56531],[110.16281,-7.56526],[110.16268,-7.56516],[110.16252,-7.56498],[110.1625,-7.56496],[110.16241,-7.56484],[110.16239,-7.56482],[110.16235,-7.56475],[110.16228,-7.56463],[110.16225,-7.56457],[110.16218,-7.56448],[110.16216,-7.56446],[110.16213,-7.56444],[110.16206,-7.56441],[110.16197,-7.56439],[110.16191,-7.56439],[110.16173,-7.56437],[110.1614,-7.56431],[110.16121,-7.56427],[110.16089,-7.5642],[110.16087,-7.5642],[110.16039,-7.56408],[110.16017,-7.56402],[110.16011,-7.56405],[110.15979,-7.56419],[110.1597,-7.56435],[110.15968,-7.56439],[110.15959,-7.56446],[110.15946,-7.56457],[110.1593,-7.56447],[110.15919,-7.56445],[110.15918,-7.56439],[110.15921,-7.5642],[110.15923,-7.5641],[110.15923,-7.56405],[110.1592,-7.56401],[110.15909,-7.56389],[110.15916,-7.56373],[110.15889,-7.56367],[110.1588,-7.56364],[110.15871,-7.56355],[110.15865,-7.56346],[110.15848,-7.56333],[110.15828,-7.5633],[110.15804,-7.56328],[110.15788,-7.56326],[110.15763,-7.56318],[110.15739,-7.56308],[110.15713,-7.56298],[110.15696,-7.56288],[110.15681,-7.56276],[110.15669,-7.56266],[110.1566,-7.56263],[110.15653,-7.56263],[110.15645,-7.56265],[110.15638,-7.56268],[110.15624,-7.56275],[110.15605,-7.56288],[110.15598,-7.56291],[110.1559,-7.56295],[110.15581,-7.56299],[110.15571,-7.56302],[110.15568,-7.56303],[110.15549,-7.56307],[110.15533,-7.56313],[110.1553,-7.56315],[110.15529,-7.56317],[110.15529,-7.56324],[110.15532,-7.56329],[110.15532,-7.5633],[110.15542,-7.56341],[110.15551,-7.56349],[110.15562,-7.5636],[110.15571,-7.56371],[110.15582,-7.56388],[110.15592,-7.56403],[110.15603,-7.56421],[110.15607,-7.56429],[110.15608,-7.56432],[110.15611,-7.56438],[110.15614,-7.56449],[110.15615,-7.56453],[110.15615,-7.56463],[110.15614,-7.56468],[110.15614,-7.56471],[110.15612,-7.56475],[110.15608,-7.56479],[110.15606,-7.56482],[110.15605,-7.56482],[110.15602,-7.56484],[110.15586,-7.56493],[110.15585,-7.56493],[110.15574,-7.56518],[110.15568,-7.56524],[110.15564,-7.56527],[110.15554,-7.56531],[110.15544,-7.56536],[110.15535,-7.56539],[110.15525,-7.56539],[110.15515,-7.56536],[110.15511,-7.56536],[110.1551,-7.56537],[110.15507,-7.56542],[110.15506,-7.56544],[110.15505,-7.56549],[110.15503,-7.56554],[110.15502,-7.56556],[110.15495,-7.56556],[110.15491,-7.56555],[110.15489,-7.56555],[110.15488,-7.56558],[110.15488,-7.56563],[110.15489,-7.56569],[110.15491,-7.56575],[110.15494,-7.56581],[110.15494,-7.56583],[110.1549,-7.56586],[110.15483,-7.56588],[110.15477,-7.56587],[110.15469,-7.56586],[110.15466,-7.56583],[110.15465,-7.56581],[110.15466,-7.56579],[110.15469,-7.56578],[110.1547,-7.56574],[110.15469,-7.56573],[110.15445,-7.56573],[110.1543,-7.56568],[110.15415,-7.56562],[110.15402,-7.5656],[110.15398,-7.5656],[110.15395,-7.56561],[110.1539,-7.56563],[110.15383,-7.56563],[110.1537,-7.56564],[110.15359,-7.56565],[110.1535,-7.56579],[110.15334,-7.56597],[110.15319,-7.56606],[110.15274,-7.56607],[110.15226,-7.56608],[110.152,-7.56607],[110.15148,-7.56604],[110.15113,-7.56599],[110.15077,-7.56675],[110.15076,-7.56676],[110.15044,-7.56652],[110.15037,-7.56648],[110.15005,-7.56694],[110.14981,-7.56734],[110.14959,-7.56763],[110.14953,-7.56771],[110.14919,-7.56754],[110.14903,-7.56779],[110.14891,-7.568],[110.14879,-7.56808],[110.14876,-7.568],[110.14875,-7.568],[110.14867,-7.56798],[110.14862,-7.56796],[110.14859,-7.56793],[110.14854,-7.56786],[110.14851,-7.56775],[110.14853,-7.56765],[110.1485,-7.56741],[110.14852,-7.56725],[110.14849,-7.56702],[110.14845,-7.56675],[110.14847,-7.56657],[110.14853,-7.56635],[110.14852,-7.56635],[110.14846,-7.56629],[110.14845,-7.56624],[110.14845,-7.56616],[110.14843,-7.56606],[110.14841,-7.56601],[110.14837,-7.56596],[110.14831,-7.56592],[110.14823,-7.56602],[110.14819,-7.56605],[110.14813,-7.56608],[110.14805,-7.5661],[110.148,-7.5661],[110.14799,-7.56607],[110.14791,-7.5661],[110.1479,-7.56612],[110.1479,-7.56622],[110.14774,-7.56628],[110.14762,-7.56629],[110.14747,-7.56629],[110.14745,-7.56621],[110.14745,-7.56611],[110.14747,-7.56605],[110.14748,-7.56587],[110.14749,-7.5658],[110.14748,-7.56573],[110.14744,-7.5657],[110.14737,-7.56568],[110.1473,-7.56567],[110.1472,-7.56573],[110.14717,-7.56579],[110.14711,-7.5659],[110.14709,-7.56599],[110.14674,-7.56581],[110.14682,-7.56566],[110.1469,-7.5656],[110.14691,-7.56555],[110.14693,-7.56548],[110.14693,-7.56544],[110.14696,-7.56524],[110.14696,-7.56519],[110.14695,-7.56515],[110.14702,-7.56508],[110.14703,-7.56504],[110.14701,-7.565],[110.14697,-7.56497],[110.14707,-7.56477],[110.14711,-7.56459],[110.1471,-7.56426],[110.14706,-7.56401],[110.14687,-7.56388],[110.14687,-7.56375],[110.14688,-7.56363],[110.1469,-7.56354],[110.14692,-7.56348],[110.14692,-7.56339],[110.14682,-7.56338],[110.1467,-7.56346],[110.14662,-7.5635],[110.14651,-7.56351],[110.14635,-7.56347],[110.14621,-7.56327],[110.14592,-7.56341],[110.14562,-7.56353],[110.14543,-7.56362],[110.14528,-7.56365],[110.1452,-7.56363],[110.14516,-7.56358],[110.14513,-7.56352],[110.14509,-7.56339],[110.14508,-7.56328],[110.14509,-7.5632],[110.14512,-7.56308],[110.14514,-7.56303],[110.14505,-7.56289],[110.14501,-7.56277],[110.14485,-7.56278],[110.14488,-7.56284],[110.14489,-7.56289],[110.14489,-7.56298],[110.14487,-7.56302],[110.14483,-7.56308],[110.14468,-7.56305],[110.14467,-7.56315],[110.14436,-7.56298],[110.14435,-7.56298],[110.1443,-7.56325],[110.14429,-7.5633],[110.1443,-7.56349],[110.14431,-7.5636],[110.14425,-7.56377],[110.14422,-7.56383],[110.1441,-7.56417],[110.1441,-7.56425],[110.14409,-7.56433],[110.14397,-7.56444],[110.14389,-7.56447],[110.14382,-7.56449],[110.14373,-7.56448],[110.14359,-7.56441],[110.14352,-7.56427],[110.14346,-7.56428],[110.1434,-7.56427],[110.1433,-7.56406],[110.14317,-7.56409],[110.14312,-7.56403],[110.14283,-7.56403],[110.14277,-7.56402],[110.14242,-7.56411],[110.14239,-7.56402],[110.14237,-7.56397],[110.14235,-7.56391],[110.14234,-7.5639],[110.14231,-7.56383],[110.14227,-7.56376],[110.14221,-7.56367],[110.14215,-7.56359],[110.14214,-7.56358],[110.14209,-7.56352],[110.14206,-7.56348],[110.14197,-7.56339],[110.14178,-7.56321],[110.14156,-7.563],[110.14142,-7.56287],[110.14137,-7.56282],[110.14123,-7.56266],[110.14107,-7.56245],[110.141,-7.56236],[110.14098,-7.56233],[110.14092,-7.56225],[110.14086,-7.56216],[110.14084,-7.5621],[110.14082,-7.56205],[110.14081,-7.56203],[110.1408,-7.56196],[110.14081,-7.56191],[110.14083,-7.56187],[110.14085,-7.56185],[110.14091,-7.56182],[110.14098,-7.56179],[110.14112,-7.56174],[110.14119,-7.5617],[110.14123,-7.56167],[110.14127,-7.56161],[110.1413,-7.56155],[110.14135,-7.56146],[110.14144,-7.56129],[110.14145,-7.56126],[110.14148,-7.56118],[110.1415,-7.56109],[110.14151,-7.56099],[110.14151,-7.56094],[110.14149,-7.56086],[110.14145,-7.56078],[110.1414,-7.5607],[110.14136,-7.56061],[110.14134,-7.56057],[110.14132,-7.56049],[110.14129,-7.56035],[110.14128,-7.56031],[110.14126,-7.56018],[110.14125,-7.5601],[110.14127,-7.56004],[110.1413,-7.56003],[110.14132,-7.56002],[110.14146,-7.56002],[110.14151,-7.56003],[110.14155,-7.56004],[110.1416,-7.56008],[110.14162,-7.56009],[110.14173,-7.5602],[110.1418,-7.5603],[110.14188,-7.56035],[110.14196,-7.56035],[110.14199,-7.56034],[110.14201,-7.56032],[110.14203,-7.56029],[110.14205,-7.56025],[110.14205,-7.56022],[110.14206,-7.56014],[110.14207,-7.56008],[110.14207,-7.55986],[110.14205,-7.55978],[110.14197,-7.55954],[110.14194,-7.55947],[110.14193,-7.55945],[110.14192,-7.55941],[110.14189,-7.55933],[110.14188,-7.5593],[110.14185,-7.55918],[110.14185,-7.55914],[110.14186,-7.55905],[110.14187,-7.559],[110.14192,-7.55893],[110.14187,-7.5586],[110.14185,-7.5585],[110.14184,-7.55844],[110.14182,-7.55834],[110.14181,-7.55832],[110.1418,-7.55822],[110.1418,-7.55809],[110.14149,-7.55828],[110.14113,-7.55844],[110.14105,-7.55847],[110.14096,-7.5585],[110.14087,-7.55851],[110.14072,-7.55852],[110.14055,-7.55854],[110.14039,-7.55857],[110.14014,-7.5587],[110.14007,-7.55874],[110.13997,-7.55878],[110.13982,-7.55878],[110.13975,-7.55876],[110.13968,-7.55876],[110.13961,-7.5588],[110.13952,-7.55887],[110.13943,-7.55893],[110.13932,-7.55896],[110.13923,-7.55896],[110.13904,-7.55894],[110.13884,-7.55894],[110.13873,-7.55896],[110.13841,-7.55902],[110.13836,-7.55903],[110.13815,-7.55909],[110.1381,-7.55907],[110.13799,-7.55897],[110.13787,-7.55883],[110.13756,-7.55862],[110.13724,-7.5584],[110.13684,-7.55797],[110.13675,-7.55782],[110.1366,-7.55755],[110.13654,-7.55741],[110.1365,-7.55735],[110.1364,-7.55728],[110.13641,-7.55725],[110.13645,-7.55678],[110.13644,-7.55638],[110.13657,-7.55513],[110.13643,-7.55409],[110.13619,-7.55357],[110.13544,-7.55253],[110.13543,-7.55252],[110.13587,-7.55231],[110.13601,-7.55219],[110.13577,-7.55169],[110.13556,-7.55133],[110.13542,-7.55124],[110.13533,-7.55121],[110.13529,-7.55121],[110.13511,-7.55125],[110.13484,-7.55132],[110.13436,-7.55003],[110.13417,-7.54933],[110.13402,-7.54893],[110.13374,-7.54762],[110.13372,-7.54701],[110.1337,-7.54648],[110.13363,-7.54615],[110.13417,-7.54521],[110.13413,-7.54361],[110.13495,-7.54127],[110.13518,-7.53965],[110.13539,-7.53816],[110.13492,-7.53826],[110.13447,-7.53816],[110.13495,-7.53665],[110.13493,-7.53663],[110.13448,-7.53588],[110.13441,-7.53585],[110.13435,-7.53576],[110.13427,-7.53561],[110.13419,-7.53547],[110.13418,-7.53536],[110.13415,-7.53511],[110.13415,-7.53483],[110.1341,-7.53403],[110.13403,-7.53365],[110.13385,-7.53314],[110.13379,-7.53304],[110.13369,-7.5329],[110.13355,-7.53275],[110.13348,-7.53268],[110.13359,-7.53247],[110.1336,-7.53247],[110.13379,-7.53225],[110.13383,-7.5322],[110.13383,-7.53217],[110.13384,-7.5321],[110.13382,-7.53202],[110.13381,-7.53202],[110.13377,-7.53197],[110.13372,-7.53194],[110.13357,-7.53187],[110.13353,-7.5318],[110.13352,-7.53166],[110.1335,-7.53142],[110.1335,-7.53113],[110.13349,-7.53089],[110.13348,-7.53081],[110.13348,-7.53077],[110.13347,-7.53064],[110.13347,-7.53063],[110.13348,-7.53057],[110.1335,-7.53035],[110.1335,-7.53032],[110.13351,-7.53019],[110.13352,-7.53017],[110.13359,-7.52996],[110.13368,-7.52959],[110.13377,-7.52921],[110.13381,-7.52894],[110.13379,-7.5288],[110.13376,-7.52868],[110.1337,-7.52859],[110.13367,-7.5284],[110.13362,-7.52813],[110.13357,-7.52802],[110.13344,-7.52778],[110.13328,-7.52756],[110.13318,-7.52742],[110.13302,-7.52728],[110.133,-7.52726],[110.13277,-7.52706],[110.13252,-7.52681],[110.13241,-7.52669],[110.13241,-7.52668],[110.13236,-7.52662],[110.13233,-7.52654],[110.1323,-7.52644],[110.13228,-7.52629],[110.13229,-7.52612],[110.13233,-7.52596],[110.13234,-7.52594],[110.13244,-7.52576],[110.13247,-7.52571],[110.1327,-7.5253],[110.13276,-7.52521],[110.13313,-7.52464],[110.13324,-7.52448],[110.13331,-7.52436],[110.13357,-7.52396],[110.1336,-7.52392],[110.13348,-7.52393],[110.13294,-7.52399],[110.1325,-7.52405],[110.13197,-7.52406],[110.13144,-7.52406],[110.13102,-7.52403],[110.13073,-7.52403],[110.1306,-7.52405],[110.13056,-7.52406],[110.13055,-7.52404],[110.13054,-7.524],[110.13056,-7.52396],[110.13055,-7.52391],[110.13055,-7.52388],[110.13051,-7.5238],[110.13041,-7.52382],[110.13034,-7.52387],[110.13031,-7.52389],[110.13014,-7.52397],[110.13011,-7.52392],[110.13006,-7.52389],[110.12996,-7.52385],[110.12985,-7.52383],[110.12977,-7.52379],[110.12975,-7.52377],[110.12973,-7.52372],[110.12971,-7.52365],[110.1297,-7.52362],[110.12965,-7.52355],[110.12953,-7.52349],[110.12936,-7.52347],[110.12921,-7.52343],[110.12913,-7.52341],[110.12904,-7.52339],[110.12889,-7.52335],[110.12873,-7.52326],[110.12858,-7.52319],[110.12836,-7.52308],[110.12814,-7.52298],[110.12761,-7.52277],[110.12759,-7.52276],[110.12733,-7.52266],[110.12722,-7.52258],[110.12698,-7.52242],[110.1268,-7.52233],[110.12671,-7.52229],[110.12655,-7.52222],[110.12639,-7.52218],[110.12621,-7.52207],[110.1261,-7.52199],[110.12584,-7.52188],[110.12582,-7.52187],[110.12577,-7.52186],[110.12567,-7.52185],[110.12562,-7.52186],[110.12549,-7.52189],[110.12545,-7.52193],[110.1254,-7.52197],[110.12536,-7.52202],[110.12531,-7.52209],[110.12525,-7.52218],[110.12523,-7.5222],[110.12519,-7.52232],[110.12515,-7.52231],[110.12503,-7.5223],[110.12485,-7.52228],[110.12442,-7.52225],[110.12439,-7.52225],[110.1243,-7.52222],[110.12404,-7.52216],[110.12389,-7.52209],[110.12383,-7.52204],[110.12365,-7.5219],[110.12356,-7.52184],[110.12318,-7.52187],[110.12261,-7.5217],[110.1226,-7.52169],[110.12166,-7.52104],[110.12128,-7.52089],[110.12092,-7.5208],[110.12065,-7.52075],[110.12032,-7.52067],[110.12004,-7.52064],[110.12002,-7.52064],[110.11952,-7.5206],[110.11919,-7.52048],[110.119,-7.52043],[110.11879,-7.52038],[110.1184,-7.52033],[110.1184,-7.52034],[110.11847,-7.5208],[110.11847,-7.52091],[110.11846,-7.52106],[110.11846,-7.52123],[110.11843,-7.52138],[110.11842,-7.52142],[110.1184,-7.52173],[110.11835,-7.52184],[110.11827,-7.5221],[110.11826,-7.52212],[110.11818,-7.52233],[110.11808,-7.52267],[110.11803,-7.52279],[110.11799,-7.52284],[110.11792,-7.5229],[110.11781,-7.52299],[110.11767,-7.52311],[110.11761,-7.52319],[110.11753,-7.52335],[110.11752,-7.52335],[110.11746,-7.52342],[110.11739,-7.52349],[110.11734,-7.52355],[110.11732,-7.52362],[110.11732,-7.52371],[110.11734,-7.5238],[110.11738,-7.52388],[110.11744,-7.52401],[110.11745,-7.52402],[110.11747,-7.52413],[110.11746,-7.52423],[110.11745,-7.52424],[110.11742,-7.52431],[110.11738,-7.52439],[110.11734,-7.52443],[110.11721,-7.52451],[110.11707,-7.52458],[110.11702,-7.52464],[110.11698,-7.5247],[110.11695,-7.52478],[110.11693,-7.52481],[110.11691,-7.52487],[110.11685,-7.52494],[110.11684,-7.52496],[110.11673,-7.52512],[110.11667,-7.52526],[110.11661,-7.52534],[110.1165,-7.5254],[110.11643,-7.52542],[110.11639,-7.52546],[110.11637,-7.52556],[110.1164,-7.52564],[110.11647,-7.52574],[110.11649,-7.52577],[110.11651,-7.52582],[110.11651,-7.52588],[110.11649,-7.52592],[110.11641,-7.52602],[110.11634,-7.52614],[110.11617,-7.5263],[110.11614,-7.52634],[110.11603,-7.5264],[110.11596,-7.52643],[110.11587,-7.52648],[110.11583,-7.52655],[110.11576,-7.52671],[110.11567,-7.52693],[110.11566,-7.527],[110.11566,-7.52703],[110.11568,-7.52705],[110.11575,-7.5271],[110.11579,-7.52714],[110.1158,-7.52718],[110.11579,-7.52724],[110.11578,-7.52732],[110.11578,-7.52738],[110.11579,-7.52746],[110.1158,-7.52755],[110.11583,-7.52761],[110.11588,-7.52764],[110.11589,-7.52767],[110.11589,-7.52779],[110.1159,-7.52783],[110.11594,-7.52789],[110.11595,-7.52797],[110.11595,-7.52809],[110.11601,-7.52827],[110.11604,-7.52828],[110.11611,-7.52829],[110.11617,-7.52832],[110.1162,-7.52833],[110.11623,-7.52835],[110.11623,-7.52839],[110.11622,-7.52842],[110.11622,-7.52844],[110.1162,-7.52849],[110.1162,-7.52855],[110.11624,-7.52864],[110.11632,-7.52872],[110.11636,-7.52875],[110.11645,-7.52875],[110.11663,-7.52871],[110.11672,-7.52871],[110.1168,-7.52873],[110.11687,-7.52875],[110.11695,-7.52879],[110.11709,-7.52879],[110.11711,-7.52883],[110.11709,-7.52888],[110.11704,-7.52896],[110.11702,-7.529],[110.11688,-7.52901],[110.11683,-7.52901],[110.11674,-7.529],[110.11665,-7.52912],[110.11663,-7.52922],[110.11663,-7.52938],[110.11665,-7.52951],[110.11668,-7.5297],[110.11672,-7.52985],[110.11674,-7.52993],[110.11675,-7.53009],[110.11677,-7.53016],[110.11672,-7.53036],[110.11673,-7.53092],[110.11666,-7.53128],[110.11666,-7.5315],[110.11673,-7.53165],[110.11684,-7.53186],[110.11685,-7.53189],[110.11694,-7.53208],[110.11709,-7.53238],[110.11666,-7.53338],[110.11656,-7.5334],[110.11647,-7.53343],[110.11641,-7.53344],[110.11637,-7.53344],[110.11632,-7.53342],[110.1163,-7.53336],[110.11627,-7.53332],[110.11622,-7.53329],[110.11611,-7.53331],[110.11574,-7.53368],[110.11559,-7.53386],[110.1155,-7.53398],[110.11545,-7.53415],[110.11542,-7.53428],[110.11538,-7.53445],[110.11534,-7.53456],[110.11528,-7.53462],[110.11513,-7.53475],[110.11506,-7.53484],[110.11502,-7.53486],[110.11497,-7.53484],[110.11498,-7.5347],[110.11493,-7.53456],[110.1149,-7.53445],[110.11489,-7.53444],[110.11477,-7.53428],[110.11462,-7.53415],[110.11445,-7.53402],[110.11429,-7.53384],[110.11427,-7.53364],[110.11436,-7.5333],[110.11419,-7.53285],[110.11395,-7.5325],[110.11383,-7.53237],[110.11368,-7.53219],[110.1136,-7.53213],[110.11359,-7.53212],[110.11352,-7.53198],[110.11348,-7.53185],[110.11347,-7.53181],[110.11347,-7.53179],[110.11346,-7.53165],[110.11341,-7.53145],[110.11335,-7.53135],[110.11326,-7.53127],[110.11321,-7.53124],[110.11301,-7.5311],[110.11296,-7.53103],[110.11292,-7.53093],[110.1129,-7.53082],[110.1129,-7.53063],[110.11287,-7.5305],[110.11279,-7.53029],[110.11271,-7.53013],[110.11263,-7.5299],[110.11255,-7.52975],[110.11251,-7.52967],[110.11247,-7.52961],[110.11239,-7.5295],[110.11232,-7.52942],[110.1121,-7.52914],[110.11205,-7.52909],[110.11189,-7.52891],[110.11178,-7.52869],[110.11175,-7.52856],[110.11167,-7.52822],[110.11168,-7.52782],[110.11165,-7.5275],[110.11146,-7.52724],[110.11142,-7.52717],[110.11139,-7.52709],[110.11138,-7.52697],[110.11142,-7.5267],[110.11145,-7.52655],[110.11146,-7.52652],[110.11144,-7.52639],[110.11139,-7.52631],[110.11135,-7.52615],[110.1113,-7.52601],[110.11122,-7.52583],[110.11114,-7.52571],[110.11103,-7.52561],[110.11089,-7.52549],[110.1108,-7.52542],[110.11079,-7.52534],[110.11079,-7.52526],[110.11082,-7.52518],[110.11086,-7.52511],[110.11089,-7.52502],[110.11072,-7.52494],[110.11056,-7.52483],[110.11046,-7.52476],[110.11039,-7.52473],[110.11028,-7.52471],[110.1102,-7.5247],[110.11014,-7.52476],[110.10987,-7.52476],[110.10943,-7.5247],[110.10941,-7.52469],[110.10936,-7.52475],[110.10922,-7.52482],[110.10913,-7.52488],[110.10907,-7.52493],[110.109,-7.52501],[110.10892,-7.52506],[110.10882,-7.52509],[110.1088,-7.52509],[110.10879,-7.52507],[110.10879,-7.52503],[110.10878,-7.525],[110.10874,-7.52495],[110.10865,-7.52494],[110.10862,-7.52493],[110.10853,-7.52487],[110.10847,-7.52478],[110.10837,-7.52474],[110.1083,-7.52474],[110.10818,-7.52477],[110.10796,-7.52488],[110.10788,-7.52494],[110.10777,-7.52501],[110.10773,-7.52504],[110.10772,-7.5252],[110.10773,-7.52537],[110.10776,-7.52548],[110.10779,-7.52558],[110.10787,-7.52573],[110.10807,-7.526],[110.10825,-7.52619],[110.10833,-7.52627],[110.10855,-7.52644],[110.10855,-7.52649],[110.10849,-7.52663],[110.10852,-7.52681],[110.10861,-7.52693],[110.10879,-7.52707],[110.10892,-7.52714],[110.10906,-7.52714],[110.1092,-7.52711],[110.10938,-7.52702],[110.10951,-7.52698],[110.10972,-7.52699],[110.10982,-7.52704],[110.11005,-7.52727],[110.11017,-7.52733],[110.11026,-7.52769],[110.11028,-7.52794],[110.11052,-7.52845],[110.11028,-7.52859],[110.11009,-7.52879],[110.11018,-7.52901],[110.11018,-7.52913],[110.11019,-7.52929],[110.11029,-7.5294],[110.11037,-7.52948],[110.11046,-7.52961],[110.11048,-7.52964],[110.11052,-7.52969],[110.11056,-7.52973],[110.11064,-7.52979],[110.11069,-7.52982],[110.11074,-7.5299],[110.11077,-7.52997],[110.11012,-7.53031],[110.11007,-7.53001],[110.10982,-7.53016],[110.1096,-7.53031],[110.10959,-7.53037],[110.1094,-7.53076],[110.10944,-7.53097],[110.10955,-7.53126],[110.10972,-7.53167],[110.10972,-7.53171],[110.10962,-7.53169],[110.1093,-7.53152],[110.10928,-7.5315],[110.10936,-7.5316],[110.1094,-7.53167],[110.10943,-7.53173],[110.10944,-7.53177],[110.10944,-7.5319],[110.10942,-7.53201],[110.10937,-7.53211],[110.10937,-7.53221],[110.10938,-7.53225],[110.10942,-7.53226],[110.1095,-7.53231],[110.10955,-7.53234],[110.10961,-7.53244],[110.10962,-7.53248],[110.10963,-7.53253],[110.10962,-7.53259],[110.10961,-7.53261],[110.10957,-7.5327],[110.10957,-7.53271],[110.10953,-7.53278],[110.10952,-7.53282],[110.10953,-7.53287],[110.10955,-7.53292],[110.10959,-7.53296],[110.10967,-7.53302],[110.10969,-7.53306],[110.10969,-7.53314],[110.1097,-7.53319],[110.1097,-7.53331],[110.10971,-7.53338],[110.10973,-7.53341],[110.10976,-7.53345],[110.10979,-7.53348],[110.10984,-7.53351],[110.11004,-7.53361],[110.11022,-7.53371],[110.11027,-7.53376],[110.11031,-7.53383],[110.11033,-7.53389],[110.11036,-7.53393],[110.1104,-7.53398],[110.11039,-7.53408],[110.1104,-7.53419],[110.11044,-7.53428],[110.11055,-7.53434],[110.11065,-7.53441],[110.11071,-7.53454],[110.11075,-7.53465],[110.11077,-7.53477],[110.11075,-7.53487],[110.11073,-7.535],[110.11072,-7.53511],[110.11072,-7.53516],[110.11075,-7.53521],[110.11078,-7.53523],[110.1108,-7.53526],[110.11081,-7.5353],[110.11079,-7.53536],[110.11082,-7.53547],[110.11084,-7.53553],[110.11083,-7.53564],[110.11082,-7.5357],[110.1108,-7.53581],[110.11081,-7.53587],[110.11084,-7.53594],[110.11086,-7.53599],[110.11087,-7.53603],[110.11085,-7.53607],[110.1107,-7.5362],[110.11071,-7.53627],[110.11073,-7.53634],[110.11072,-7.53646],[110.11065,-7.53654],[110.11056,-7.53664],[110.11054,-7.53666],[110.11053,-7.5367],[110.1105,-7.53684],[110.11052,-7.53706],[110.11058,-7.53729],[110.11066,-7.53765],[110.11071,-7.53781],[110.11082,-7.53791],[110.11083,-7.53793],[110.11096,-7.53804],[110.11126,-7.53829],[110.11124,-7.53835],[110.1111,-7.53861],[110.11107,-7.53866],[110.11112,-7.53905],[110.11082,-7.53913],[110.11083,-7.53914],[110.11084,-7.53916],[110.11086,-7.53921],[110.11086,-7.53925],[110.11087,-7.53928],[110.11087,-7.53935],[110.11088,-7.5395],[110.11091,-7.5397],[110.11091,-7.53979],[110.11092,-7.53981],[110.11093,-7.53992],[110.11093,-7.53994],[110.11095,-7.54001],[110.11096,-7.54003],[110.11099,-7.54014],[110.11101,-7.54019],[110.11105,-7.54026],[110.1111,-7.54035],[110.11113,-7.5404],[110.11115,-7.54044],[110.11117,-7.5405],[110.11118,-7.54055],[110.11117,-7.54061],[110.11117,-7.54064],[110.11118,-7.54066],[110.11117,-7.5407],[110.11117,-7.54077],[110.11118,-7.54081],[110.11118,-7.54086],[110.11119,-7.54087],[110.1112,-7.54091],[110.11123,-7.54098],[110.11125,-7.54104],[110.11131,-7.54128],[110.11133,-7.54133],[110.11136,-7.54146],[110.1114,-7.54164],[110.1114,-7.54166],[110.11139,-7.54184],[110.11138,-7.54189],[110.11136,-7.54202],[110.11136,-7.54208],[110.11135,-7.54221],[110.11135,-7.54299],[110.11136,-7.5432],[110.11136,-7.54341],[110.11135,-7.54347],[110.11134,-7.54354],[110.11131,-7.54369],[110.1113,-7.54375],[110.1113,-7.54384],[110.11131,-7.54389],[110.11131,-7.54393],[110.11132,-7.54397],[110.11132,-7.54414],[110.11131,-7.54417],[110.11131,-7.54432],[110.11132,-7.54447],[110.11133,-7.54455],[110.11134,-7.54464],[110.11134,-7.54468],[110.11137,-7.54485],[110.11137,-7.54486],[110.11139,-7.54498],[110.11141,-7.54514],[110.11141,-7.54516],[110.11143,-7.54531],[110.11143,-7.54536],[110.11144,-7.54549],[110.11144,-7.54558],[110.11145,-7.54563],[110.11145,-7.54577],[110.11146,-7.5458],[110.11147,-7.54586],[110.11147,-7.54588],[110.11149,-7.54595],[110.1115,-7.54599],[110.11159,-7.54617],[110.11166,-7.54629],[110.11129,-7.54645],[110.11105,-7.54647],[110.11091,-7.54653],[110.11082,-7.54666],[110.11076,-7.54655],[110.11067,-7.54658],[110.1106,-7.54656],[110.11045,-7.54656],[110.11047,-7.54652],[110.11057,-7.5464],[110.11053,-7.54628],[110.11048,-7.54622],[110.11039,-7.54605],[110.11031,-7.54587],[110.11025,-7.54574],[110.11021,-7.54567],[110.11015,-7.54562],[110.11008,-7.54559],[110.10993,-7.54557],[110.10972,-7.54561],[110.10953,-7.54565],[110.10922,-7.54561],[110.10918,-7.54566],[110.10902,-7.54582],[110.10876,-7.54563],[110.10875,-7.54563],[110.10855,-7.5455],[110.1085,-7.54547],[110.10838,-7.54532],[110.10834,-7.54528],[110.10827,-7.54518],[110.10817,-7.54502],[110.10803,-7.54484],[110.10786,-7.54461],[110.1077,-7.54452],[110.10768,-7.5445],[110.10762,-7.54446],[110.10763,-7.54441],[110.10764,-7.54437],[110.10765,-7.54431],[110.10765,-7.54425],[110.10761,-7.54424],[110.10757,-7.54421],[110.10749,-7.54413],[110.10739,-7.54406],[110.10729,-7.54398],[110.10723,-7.54393],[110.10716,-7.54388],[110.10713,-7.54386],[110.10713,-7.54384],[110.10711,-7.54379],[110.10708,-7.54371],[110.10703,-7.54362],[110.10699,-7.54356],[110.10693,-7.54344],[110.10685,-7.54327],[110.1068,-7.5432],[110.10673,-7.54311],[110.10665,-7.54295],[110.10665,-7.54294],[110.10653,-7.54279],[110.10648,-7.54272],[110.10632,-7.54261],[110.10616,-7.54251],[110.10612,-7.54248],[110.10609,-7.54247],[110.10573,-7.54233],[110.10564,-7.5423],[110.10549,-7.54223],[110.10547,-7.54222],[110.10542,-7.5422],[110.1053,-7.54216],[110.10512,-7.54203],[110.10511,-7.54202],[110.10493,-7.54189],[110.10472,-7.5417],[110.10471,-7.5417],[110.1047,-7.54169],[110.10452,-7.54152],[110.10429,-7.54135],[110.10423,-7.54131],[110.10414,-7.5411],[110.10409,-7.54104],[110.10394,-7.54097],[110.1037,-7.54079],[110.10355,-7.54065],[110.10341,-7.54051],[110.10334,-7.54045],[110.10321,-7.54034],[110.10304,-7.54042],[110.10298,-7.54045],[110.10285,-7.54052],[110.10262,-7.54055],[110.10249,-7.54057],[110.10228,-7.54069],[110.10218,-7.54091],[110.1021,-7.54102],[110.10206,-7.54103],[110.10189,-7.54102],[110.10178,-7.54114],[110.10172,-7.54113],[110.10173,-7.54105],[110.1017,-7.54093],[110.10168,-7.54096],[110.10165,-7.54093],[110.1016,-7.54096],[110.10163,-7.54104],[110.1016,-7.54114],[110.10154,-7.5412],[110.10154,-7.54114],[110.10152,-7.54106],[110.1015,-7.54097],[110.10147,-7.54095],[110.10147,-7.54094],[110.10138,-7.54096],[110.10129,-7.5409],[110.10121,-7.54094],[110.10116,-7.54093],[110.10113,-7.54097],[110.10108,-7.54102],[110.101,-7.54091],[110.10088,-7.54082],[110.1008,-7.54074],[110.10078,-7.5407],[110.10077,-7.54064],[110.10075,-7.5406],[110.10066,-7.54047],[110.10066,-7.54066],[110.10067,-7.54078],[110.10067,-7.54089],[110.10069,-7.54093],[110.10078,-7.54101],[110.10082,-7.54108],[110.10084,-7.5411],[110.10086,-7.54116],[110.10088,-7.54123],[110.10087,-7.54128],[110.10083,-7.54137],[110.1008,-7.54142],[110.10076,-7.54149],[110.10073,-7.54155],[110.10071,-7.5416],[110.10071,-7.54161],[110.1007,-7.54172],[110.1007,-7.54178],[110.10072,-7.54183],[110.10074,-7.54191],[110.10074,-7.54198],[110.1007,-7.54202],[110.10064,-7.54206],[110.1006,-7.54209],[110.10057,-7.54212],[110.10054,-7.54216],[110.10053,-7.54223],[110.10054,-7.54228],[110.10055,-7.54232],[110.10055,-7.54242],[110.10054,-7.54246],[110.10054,-7.54257],[110.10055,-7.54267],[110.10056,-7.5428],[110.10056,-7.54289],[110.10052,-7.54304],[110.10043,-7.54314],[110.10037,-7.54321],[110.10031,-7.54327],[110.10027,-7.5433],[110.10022,-7.54333],[110.10013,-7.54341],[110.10008,-7.54352],[110.10006,-7.54365],[110.10006,-7.54373],[110.10008,-7.54381],[110.10014,-7.54392],[110.1002,-7.54397],[110.10026,-7.54401],[110.10039,-7.54409],[110.10043,-7.54416],[110.10048,-7.54426],[110.10048,-7.54435],[110.1005,-7.54444],[110.10052,-7.54452],[110.10052,-7.54453],[110.10055,-7.54462],[110.10055,-7.54471],[110.10054,-7.54473],[110.10053,-7.54478],[110.10049,-7.54485],[110.10042,-7.54506],[110.10043,-7.54513],[110.10044,-7.54517],[110.10046,-7.54521],[110.10049,-7.54536],[110.10048,-7.54548],[110.10048,-7.54563],[110.10046,-7.54578],[110.10044,-7.54585],[110.10037,-7.54594],[110.1003,-7.546],[110.10018,-7.54612],[110.10011,-7.54618],[110.10005,-7.54624],[110.10004,-7.54629],[110.10002,-7.54635],[110.10003,-7.5464],[110.10003,-7.54643],[110.10009,-7.54647],[110.10015,-7.5465],[110.10023,-7.54652],[110.10025,-7.54652],[110.10029,-7.54653],[110.10036,-7.54653],[110.10046,-7.54656],[110.10051,-7.54657],[110.10059,-7.54661],[110.10067,-7.54666],[110.10079,-7.54676],[110.10082,-7.54682],[110.10084,-7.54689],[110.10085,-7.54694],[110.10087,-7.54699],[110.10087,-7.54705],[110.10086,-7.54707],[110.10084,-7.54713],[110.1008,-7.54719],[110.10078,-7.54724],[110.1008,-7.54736],[110.10082,-7.54744],[110.10083,-7.54752],[110.10083,-7.5476],[110.1008,-7.54767],[110.10078,-7.54771],[110.10074,-7.54774],[110.10071,-7.54777],[110.1007,-7.54782],[110.10071,-7.5479],[110.10076,-7.54797],[110.10081,-7.54801],[110.1009,-7.54806],[110.10104,-7.5481],[110.10114,-7.54812],[110.10119,-7.54816],[110.10112,-7.54821],[110.1011,-7.54822],[110.10071,-7.54841],[110.10064,-7.54843],[110.10059,-7.54841],[110.10055,-7.54837],[110.10051,-7.54834],[110.1005,-7.54827],[110.10045,-7.54829],[110.10043,-7.5483],[110.10038,-7.54829],[110.10035,-7.54833],[110.10034,-7.5484],[110.10035,-7.54855],[110.10038,-7.54867],[110.10038,-7.54881],[110.10041,-7.54897],[110.10044,-7.54908],[110.10047,-7.54917],[110.1005,-7.54929],[110.10054,-7.54941],[110.10055,-7.54949],[110.1006,-7.54956],[110.10065,-7.54964],[110.10069,-7.54977],[110.10063,-7.5498],[110.10057,-7.54982],[110.10053,-7.54985],[110.10041,-7.54991],[110.10036,-7.54996],[110.10033,-7.55004],[110.10026,-7.55018],[110.10016,-7.5502],[110.1001,-7.55008],[110.0999,-7.54982],[110.09974,-7.54966],[110.09965,-7.54963],[110.09955,-7.54959],[110.09948,-7.5495],[110.09943,-7.54941],[110.09931,-7.54919],[110.09928,-7.54911],[110.09925,-7.54901],[110.09924,-7.5489],[110.09924,-7.54886],[110.0992,-7.5488],[110.09909,-7.54867],[110.099,-7.54855],[110.0989,-7.54845],[110.09872,-7.54829],[110.09859,-7.54819],[110.09845,-7.54812],[110.09835,-7.54805],[110.09823,-7.54796],[110.09818,-7.54788],[110.09811,-7.54781],[110.09804,-7.54776],[110.09798,-7.54772],[110.09792,-7.54769],[110.09786,-7.54767],[110.09772,-7.5476],[110.09758,-7.54752],[110.09746,-7.54747],[110.09742,-7.5476],[110.09741,-7.54765],[110.09745,-7.54777],[110.09751,-7.54783],[110.09761,-7.54795],[110.09758,-7.54799],[110.09737,-7.54817],[110.0971,-7.54799],[110.09698,-7.54789],[110.09671,-7.54765],[110.09667,-7.54762],[110.09657,-7.54748],[110.09643,-7.54731],[110.09634,-7.54719],[110.09631,-7.54716],[110.09611,-7.54692],[110.09586,-7.54671],[110.09568,-7.54668],[110.09543,-7.54671],[110.09536,-7.54671],[110.09517,-7.54673],[110.09503,-7.54667],[110.09488,-7.5465],[110.09475,-7.54637],[110.09456,-7.54614],[110.09454,-7.5461],[110.09433,-7.5458],[110.09418,-7.54552],[110.09415,-7.54541],[110.0941,-7.54519],[110.09409,-7.54514],[110.09404,-7.54492],[110.09402,-7.5448],[110.09397,-7.54458],[110.09397,-7.54451],[110.09395,-7.54428],[110.09395,-7.5442],[110.09394,-7.54406],[110.09399,-7.54402],[110.09412,-7.54396],[110.09427,-7.54394],[110.09432,-7.54391],[110.09439,-7.54386],[110.09439,-7.54383],[110.09438,-7.54375],[110.09433,-7.54368],[110.09422,-7.54357],[110.09405,-7.5435],[110.09382,-7.54341],[110.09365,-7.54334],[110.09355,-7.54333],[110.09336,-7.54334],[110.09321,-7.54336],[110.09316,-7.54338],[110.09306,-7.54339],[110.09294,-7.54339],[110.09279,-7.5434],[110.09276,-7.54339],[110.09269,-7.54339],[110.09265,-7.54337],[110.09264,-7.54337],[110.09254,-7.5433],[110.09248,-7.54316],[110.09241,-7.543],[110.09241,-7.54295],[110.09242,-7.54291],[110.09242,-7.5429],[110.09252,-7.5428],[110.09285,-7.54265],[110.09289,-7.54263],[110.093,-7.54258],[110.0932,-7.54245],[110.09322,-7.54243],[110.09326,-7.54238],[110.09331,-7.54233],[110.09338,-7.54217],[110.09334,-7.54206],[110.09326,-7.54181],[110.09325,-7.54176],[110.09324,-7.54176],[110.09318,-7.54159],[110.09314,-7.54149],[110.09308,-7.54142],[110.09295,-7.54127],[110.0929,-7.54122],[110.09284,-7.54115],[110.09278,-7.54099],[110.09276,-7.54092],[110.09273,-7.54078],[110.0927,-7.54062],[110.09266,-7.54049],[110.09264,-7.54042],[110.09254,-7.54024],[110.09254,-7.54023],[110.0925,-7.54016],[110.09238,-7.54005],[110.09224,-7.53998],[110.09203,-7.53993],[110.09193,-7.53986],[110.09187,-7.53977],[110.09184,-7.53965],[110.09184,-7.53948],[110.09185,-7.53935],[110.09188,-7.5392],[110.09193,-7.53901],[110.09194,-7.53895],[110.09196,-7.5388],[110.09196,-7.53872],[110.09193,-7.53857],[110.0919,-7.53846],[110.09181,-7.53831],[110.09174,-7.53824],[110.09157,-7.53817],[110.09144,-7.53812],[110.09135,-7.53804],[110.09116,-7.53782],[110.09111,-7.53774],[110.09093,-7.53745],[110.09084,-7.53728],[110.09079,-7.53719],[110.09071,-7.53706],[110.09061,-7.53678],[110.09059,-7.53672],[110.09058,-7.53665],[110.09057,-7.53651],[110.09057,-7.53636],[110.0906,-7.53614],[110.09061,-7.53609],[110.09062,-7.536],[110.09062,-7.53583],[110.0906,-7.53565],[110.09057,-7.53552],[110.09047,-7.53545],[110.09037,-7.53542],[110.09031,-7.53545],[110.09025,-7.53547],[110.09005,-7.53561],[110.08989,-7.5358],[110.08988,-7.5358],[110.08987,-7.53581],[110.08983,-7.53583],[110.08975,-7.53582],[110.08974,-7.53582],[110.0897,-7.53581],[110.08964,-7.53579],[110.08959,-7.53571],[110.08959,-7.53558],[110.0896,-7.53554],[110.08962,-7.53545],[110.08962,-7.53529],[110.08957,-7.53521],[110.08951,-7.53517],[110.08946,-7.53513],[110.08911,-7.53498],[110.08877,-7.53485],[110.08872,-7.53483],[110.08847,-7.53471],[110.08833,-7.53468],[110.08822,-7.5347],[110.08814,-7.53472],[110.08809,-7.53479],[110.08788,-7.53502],[110.08782,-7.53508],[110.08768,-7.53519],[110.08766,-7.5352],[110.08762,-7.53524],[110.08758,-7.53527],[110.08746,-7.5353],[110.08732,-7.53527],[110.08728,-7.53526],[110.087,-7.5352],[110.08688,-7.53518],[110.08671,-7.53514],[110.08664,-7.53513],[110.08654,-7.53512],[110.08652,-7.53512],[110.08631,-7.53514],[110.08624,-7.53516],[110.08617,-7.5352],[110.08607,-7.53531],[110.08603,-7.53541],[110.08602,-7.53551],[110.08602,-7.53556],[110.08601,-7.53563],[110.08596,-7.53566],[110.0859,-7.53566],[110.08584,-7.53564],[110.08575,-7.53559],[110.08548,-7.53541],[110.0854,-7.53535],[110.08534,-7.53531],[110.08525,-7.53529],[110.08517,-7.53529],[110.08508,-7.53532],[110.08498,-7.53538],[110.08487,-7.53543],[110.08484,-7.53551],[110.08487,-7.53559],[110.08488,-7.5356],[110.08493,-7.53566],[110.085,-7.53573],[110.08502,-7.53577],[110.08504,-7.5358],[110.08505,-7.53583],[110.08499,-7.53586],[110.0849,-7.53589],[110.0848,-7.5359],[110.08472,-7.53591],[110.08455,-7.53593],[110.08451,-7.53593],[110.08446,-7.53594],[110.08434,-7.53598],[110.08428,-7.53599],[110.08422,-7.53604],[110.0841,-7.53628],[110.08402,-7.53642],[110.08402,-7.53643],[110.0839,-7.53664],[110.08388,-7.53668],[110.08376,-7.53686],[110.08375,-7.53688],[110.08369,-7.53692],[110.0836,-7.53694],[110.08359,-7.53693],[110.08361,-7.53698],[110.08365,-7.53706],[110.08364,-7.53721],[110.08364,-7.53726],[110.08363,-7.53728],[110.08351,-7.53751],[110.08349,-7.53754],[110.08348,-7.53755],[110.08346,-7.53756],[110.08346,-7.53757],[110.08343,-7.53756],[110.08341,-7.53746],[110.0834,-7.53742],[110.08338,-7.53732],[110.08337,-7.5373],[110.08335,-7.53725],[110.08334,-7.53723],[110.08328,-7.53715],[110.08327,-7.53715],[110.08325,-7.53712],[110.08325,-7.53711],[110.08321,-7.53702],[110.08319,-7.53697],[110.08319,-7.53677],[110.08325,-7.53665],[110.08315,-7.53661],[110.08308,-7.53661],[110.0828,-7.53679],[110.0826,-7.53704],[110.0824,-7.53732],[110.08236,-7.53744],[110.08225,-7.53763],[110.08215,-7.5378],[110.08186,-7.53796],[110.0817,-7.53789],[110.08134,-7.53753],[110.08092,-7.53709],[110.08068,-7.53677],[110.0801,-7.53585],[110.07978,-7.53574],[110.0792,-7.53575],[110.07904,-7.53557],[110.07889,-7.53543],[110.07878,-7.53531],[110.07858,-7.53507],[110.07835,-7.53497],[110.07812,-7.53492],[110.07779,-7.53475],[110.07756,-7.53475],[110.07729,-7.5349],[110.07711,-7.5351],[110.07693,-7.53516],[110.07676,-7.53521],[110.07656,-7.53533],[110.07654,-7.5354],[110.0765,-7.53547],[110.07643,-7.53556],[110.07633,-7.53564],[110.07628,-7.5357],[110.07627,-7.53576],[110.07627,-7.5358],[110.07625,-7.53607],[110.07625,-7.53611],[110.07624,-7.53627],[110.07623,-7.53637],[110.07621,-7.53648],[110.07618,-7.5366],[110.07615,-7.53664],[110.07601,-7.53688],[110.07585,-7.53709],[110.07572,-7.53725],[110.07552,-7.53743],[110.07546,-7.53747],[110.07538,-7.53753],[110.07535,-7.53757],[110.0753,-7.53763],[110.07518,-7.53795],[110.07509,-7.53813],[110.07521,-7.53818],[110.07525,-7.53834],[110.07525,-7.53862],[110.07529,-7.53887],[110.0754,-7.53905],[110.07562,-7.53932],[110.07582,-7.53965],[110.07587,-7.53987],[110.07588,-7.54006],[110.07588,-7.54025],[110.07603,-7.54044],[110.07636,-7.54072],[110.07666,-7.54105],[110.07692,-7.54141],[110.07711,-7.5418],[110.07728,-7.54228],[110.07733,-7.54258],[110.07734,-7.54259],[110.07734,-7.54283],[110.07732,-7.54294],[110.07727,-7.54301],[110.0772,-7.54305],[110.07697,-7.54311],[110.07689,-7.54316],[110.07685,-7.54327],[110.07686,-7.5434],[110.07689,-7.54368],[110.07685,-7.54389],[110.0767,-7.54444],[110.07667,-7.54474],[110.0767,-7.54488],[110.07673,-7.54499],[110.07684,-7.54518],[110.07685,-7.54525],[110.07687,-7.54531],[110.07685,-7.54537],[110.07682,-7.54542],[110.07676,-7.54547],[110.07668,-7.54551],[110.07657,-7.54555],[110.07648,-7.54559],[110.07644,-7.54567],[110.07627,-7.54623],[110.07625,-7.54639],[110.07622,-7.54664],[110.07624,-7.5468],[110.07629,-7.54692],[110.07639,-7.54702],[110.07655,-7.54713],[110.07667,-7.54721],[110.07677,-7.54731],[110.07684,-7.5474],[110.07687,-7.5475],[110.07687,-7.54765],[110.07683,-7.54776],[110.07679,-7.54783],[110.07676,-7.54788],[110.07675,-7.54793],[110.07675,-7.54798],[110.07678,-7.54805],[110.07683,-7.54814],[110.07687,-7.5483],[110.07692,-7.54851],[110.07696,-7.54861],[110.07697,-7.54865],[110.07704,-7.54881],[110.07713,-7.54902],[110.07732,-7.54928],[110.07769,-7.54961],[110.07785,-7.5498],[110.07804,-7.55],[110.07814,-7.55013],[110.07826,-7.55024],[110.07836,-7.55028],[110.07852,-7.55034],[110.07869,-7.55039],[110.07872,-7.55043],[110.07871,-7.55047],[110.07865,-7.55063],[110.07864,-7.55086],[110.07864,-7.55093],[110.07863,-7.55109],[110.0786,-7.55121],[110.0786,-7.55136],[110.07861,-7.55152],[110.07864,-7.55176],[110.07867,-7.55183],[110.07872,-7.55184],[110.0788,-7.55184],[110.07886,-7.5518],[110.07893,-7.55175],[110.07899,-7.55171],[110.07912,-7.55167],[110.07916,-7.55167],[110.0792,-7.55172],[110.07926,-7.55182],[110.07934,-7.55194],[110.07942,-7.55205],[110.07943,-7.55206],[110.07951,-7.55216],[110.07958,-7.55219],[110.07969,-7.5522],[110.07972,-7.55221],[110.07984,-7.55221],[110.07991,-7.55223],[110.07999,-7.55229],[110.08003,-7.55235],[110.08005,-7.55245],[110.08005,-7.55248],[110.08004,-7.55261],[110.08002,-7.55289],[110.07998,-7.553],[110.07997,-7.55313],[110.08003,-7.55328],[110.08012,-7.55341],[110.08027,-7.55355],[110.08047,-7.55367],[110.08072,-7.55372],[110.08106,-7.55376],[110.08131,-7.5538],[110.08148,-7.55386],[110.08164,-7.55394],[110.08174,-7.55404],[110.08179,-7.55415],[110.08175,-7.55427],[110.08171,-7.55435],[110.08169,-7.55438],[110.08162,-7.55451],[110.08142,-7.55469],[110.0813,-7.55485],[110.08122,-7.55502],[110.08118,-7.55537],[110.08121,-7.5555],[110.08125,-7.55558],[110.08131,-7.55565],[110.08135,-7.55585],[110.08135,-7.55601],[110.0813,-7.55628],[110.08133,-7.55647],[110.08141,-7.55658],[110.08156,-7.55668],[110.08168,-7.55674],[110.08178,-7.5568],[110.08184,-7.55693],[110.08184,-7.55701],[110.0818,-7.55709],[110.0818,-7.5571],[110.08178,-7.55713],[110.08174,-7.55714],[110.08148,-7.5572],[110.08144,-7.55721],[110.08113,-7.55726],[110.08071,-7.55732],[110.08036,-7.55739],[110.08034,-7.5574],[110.0798,-7.55774],[110.07962,-7.55789],[110.07952,-7.55796],[110.07938,-7.55806],[110.07922,-7.55806],[110.07919,-7.55804],[110.07915,-7.55802],[110.07915,-7.55794],[110.07921,-7.55775],[110.07925,-7.55762],[110.07927,-7.55753],[110.07927,-7.55743],[110.07923,-7.55733],[110.07917,-7.55725],[110.07906,-7.55723],[110.07894,-7.55721],[110.0788,-7.55724],[110.07875,-7.55734],[110.07873,-7.55741],[110.0787,-7.55757],[110.0787,-7.55773],[110.07868,-7.55784],[110.07865,-7.55794],[110.07855,-7.55809],[110.07846,-7.55824],[110.07844,-7.55834],[110.07844,-7.55847],[110.07846,-7.55859],[110.07846,-7.55875],[110.0784,-7.55879],[110.0783,-7.55881],[110.0782,-7.5588],[110.07806,-7.55873],[110.07797,-7.5587],[110.07786,-7.55868],[110.07775,-7.55869],[110.07772,-7.55871],[110.07764,-7.55879],[110.07753,-7.55882],[110.07747,-7.55882],[110.07741,-7.5588],[110.07733,-7.55867],[110.0772,-7.55849],[110.07712,-7.5584],[110.07704,-7.55839],[110.07699,-7.55839],[110.07693,-7.55842],[110.07683,-7.5585],[110.07679,-7.55857],[110.07679,-7.55865],[110.07672,-7.55886],[110.07652,-7.55887],[110.07631,-7.55887],[110.07624,-7.55881],[110.07599,-7.55898],[110.07583,-7.55884],[110.07582,-7.55875],[110.07577,-7.55852],[110.07564,-7.55843],[110.07534,-7.55835],[110.0752,-7.55839],[110.07496,-7.55843],[110.07482,-7.55847],[110.07472,-7.55842],[110.07435,-7.55826],[110.07412,-7.55817],[110.07362,-7.55788],[110.07348,-7.55783],[110.0733,-7.55777],[110.07294,-7.55779],[110.07279,-7.55784],[110.07254,-7.55793],[110.07221,-7.55811],[110.07188,-7.55823],[110.07161,-7.55823],[110.07131,-7.55842],[110.07115,-7.55839],[110.07089,-7.55833],[110.07077,-7.55833],[110.07065,-7.55834],[110.07049,-7.55848],[110.07043,-7.55856],[110.07042,-7.55858],[110.07028,-7.55853],[110.07027,-7.55853],[110.07013,-7.55866],[110.07009,-7.55866],[110.06993,-7.55859],[110.06981,-7.55855],[110.0697,-7.55852],[110.06966,-7.55849],[110.06961,-7.55842],[110.06958,-7.55843],[110.06955,-7.55854],[110.06948,-7.55866],[110.06929,-7.55855],[110.06914,-7.55851],[110.06892,-7.55847],[110.06885,-7.55845],[110.06877,-7.55843],[110.06873,-7.55838],[110.06868,-7.55831],[110.06857,-7.55825],[110.06836,-7.55854],[110.06812,-7.55846],[110.06805,-7.55843],[110.06794,-7.55845],[110.06782,-7.55852],[110.06768,-7.55857],[110.06756,-7.55859],[110.06743,-7.55858],[110.06734,-7.55855],[110.06731,-7.55853],[110.06725,-7.55853],[110.06725,-7.5586],[110.06723,-7.55864],[110.06717,-7.55866],[110.06715,-7.55864],[110.06707,-7.5585],[110.06705,-7.55852],[110.06701,-7.55861],[110.06691,-7.55854],[110.06688,-7.5585],[110.06684,-7.55853],[110.06667,-7.55862],[110.06658,-7.55851],[110.06653,-7.55847],[110.0665,-7.55845],[110.06645,-7.55846],[110.06638,-7.55853],[110.06632,-7.55856],[110.06626,-7.55855],[110.06623,-7.5585],[110.06617,-7.55845],[110.06595,-7.55832],[110.06562,-7.55811],[110.06501,-7.5577],[110.06461,-7.55757],[110.06422,-7.55748],[110.06401,-7.55733],[110.06372,-7.55705],[110.06354,-7.55694],[110.06328,-7.55695],[110.06289,-7.55728],[110.06274,-7.5574],[110.06252,-7.55742],[110.06235,-7.55733],[110.0623,-7.55716],[110.06229,-7.55691],[110.06227,-7.55683],[110.06201,-7.55678],[110.06165,-7.55669],[110.06142,-7.55664],[110.06104,-7.55648],[110.06095,-7.55643],[110.06082,-7.55642],[110.06059,-7.55673],[110.06025,-7.55695],[110.06006,-7.55691],[110.05997,-7.5569],[110.05975,-7.55695],[110.05956,-7.55702],[110.05933,-7.5572],[110.05904,-7.55741],[110.05877,-7.55747],[110.05843,-7.55739],[110.05834,-7.5575],[110.0582,-7.55769],[110.05794,-7.55828],[110.05801,-7.55843],[110.05811,-7.55849],[110.05817,-7.55852],[110.0584,-7.55864],[110.05858,-7.55877],[110.05868,-7.55884],[110.05887,-7.55898],[110.05888,-7.55898],[110.05904,-7.55932],[110.05906,-7.55939],[110.05907,-7.5594],[110.05907,-7.55941],[110.05908,-7.55945],[110.05908,-7.55946],[110.05919,-7.55983],[110.05919,-7.56028],[110.0592,-7.5605],[110.05921,-7.56068],[110.05917,-7.56105],[110.05902,-7.56131],[110.059,-7.56133],[110.05849,-7.56147],[110.0584,-7.56149],[110.05781,-7.56164],[110.0578,-7.5617],[110.0577,-7.56214],[110.0577,-7.56215],[110.05779,-7.56251],[110.05736,-7.56315],[110.05711,-7.5635],[110.057,-7.56366],[110.05696,-7.5643],[110.05692,-7.56466],[110.05708,-7.56518],[110.05708,-7.56519],[110.05716,-7.56525],[110.05721,-7.56529],[110.05741,-7.56544],[110.05768,-7.56591],[110.05736,-7.56652],[110.05727,-7.56666],[110.05712,-7.56693],[110.05696,-7.56751],[110.05693,-7.5676],[110.05685,-7.56814],[110.05685,-7.56818],[110.05682,-7.5684],[110.05681,-7.56851],[110.0568,-7.56903],[110.05663,-7.56927],[110.05635,-7.56964],[110.05602,-7.56998],[110.05599,-7.57001],[110.05596,-7.57009],[110.05589,-7.57028],[110.05588,-7.57033]]]}}]}