{"type":"FeatureCollection","features":[{"type":"Feature","properties":{"KECAMATAN":"Salam"},"geometry":{"type":"Polygon","coordinates":[[[110.26024,-7.62336],[110.26035,-7.62345],[110.26039,-7.62349],[110.26066,-7.62363],[110.26079,-7.62375],[110.26088,-7.62379],[110.26104,-7.62386],[110.2612,-7.62399],[110.26138,-7.62417],[110.26147,-7.62433],[110.26152,-7.6244],[110.26163,-7.62451],[110.26205,-7.62458],[110.26227,-7.62456],[110.26242,-7.62454],[110.26254,-7.62462],[110.2627,-7.62477],[110.26291,-7.62488],[110.26326,-7.625],[110.2635,-7.6251],[110.2637,-7.62518],[110.26379,-7.62521],[110.26388,-7.62526],[110.26405,-7.62536],[110.26431,-7.62546],[110.26445,-7.62549],[110.26471,-7.62558],[110.26478,-7.62569],[110.26481,-7.62579],[110.26484,-7.62585],[110.26504,-7.62582],[110.26506,-7.62591],[110.26509,-7.62602],[110.2651,-7.62607],[110.26518,-7.62608],[110.26513,-7.62595],[110.26515,-7.62576],[110.26517,-7.62561],[110.26531,-7.62534],[110.26555,-7.62524],[110.26577,-7.6252],[110.26596,-7.62517],[110.26603,-7.62516],[110.26615,-7.62506],[110.2665,-7.62501],[110.26659,-7.62516],[110.26668,-7.62532],[110.26669,-7.62533],[110.26673,-7.62541],[110.26685,-7.6256],[110.26693,-7.62572],[110.26696,-7.62575],[110.26714,-7.62588],[110.26717,-7.6259],[110.26723,-7.62593],[110.26726,-7.62595],[110.26753,-7.6261],[110.26789,-7.62632],[110.26792,-7.62635],[110.26794,-7.62636],[110.26798,-7.62637],[110.26804,-7.62639],[110.26821,-7.62639],[110.26822,-7.62641],[110.26823,-7.62646],[110.26825,-7.6265],[110.26827,-7.62652],[110.26828,-7.62652],[110.2683,-7.62654],[110.26831,-7.62654],[110.26843,-7.62662],[110.26859,-7.62671],[110.26861,-7.62672],[110.26862,-7.62672],[110.26871,-7.62678],[110.26872,-7.62678],[110.26877,-7.62682],[110.26885,-7.62688],[110.2691,-7.62706],[110.26911,-7.62707],[110.26912,-7.62709],[110.26913,-7.62709],[110.26942,-7.62735],[110.26943,-7.62735],[110.26959,-7.6275],[110.26963,-7.62754],[110.26963,-7.62755],[110.2697,-7.62761],[110.26982,-7.62773],[110.26988,-7.62781],[110.26989,-7.62784],[110.26991,-7.62787],[110.26992,-7.62789],[110.26992,-7.62792],[110.26993,-7.62795],[110.26993,-7.62811],[110.26994,-7.62816],[110.26997,-7.62821],[110.27044,-7.6285],[110.27055,-7.62867],[110.27065,-7.62889],[110.27078,-7.62895],[110.27093,-7.62902],[110.27118,-7.62907],[110.27126,-7.62909],[110.2713,-7.62906],[110.27135,-7.62903],[110.27138,-7.62901],[110.27142,-7.62897],[110.2715,-7.62885],[110.27151,-7.6288],[110.27153,-7.62874],[110.27153,-7.6287],[110.27158,-7.6286],[110.27161,-7.62851],[110.27163,-7.62849],[110.27165,-7.62849],[110.27169,-7.62848],[110.27175,-7.62848],[110.27178,-7.62849],[110.27181,-7.62849],[110.27186,-7.6285],[110.27189,-7.62849],[110.27195,-7.62849],[110.27201,-7.62847],[110.27201,-7.62846],[110.27205,-7.62853],[110.2721,-7.62864],[110.27209,-7.62874],[110.27204,-7.62904],[110.27207,-7.62923],[110.2721,-7.62938],[110.27219,-7.62961],[110.27225,-7.62997],[110.27228,-7.63039],[110.27234,-7.63058],[110.27252,-7.63082],[110.2727,-7.63096],[110.2729,-7.63111],[110.27302,-7.63118],[110.27324,-7.63123],[110.27342,-7.63132],[110.27361,-7.6313],[110.27373,-7.63131],[110.27391,-7.63132],[110.27421,-7.6314],[110.27436,-7.63139],[110.27455,-7.63144],[110.27465,-7.63151],[110.27484,-7.63171],[110.27498,-7.63174],[110.27505,-7.63172],[110.27516,-7.63194],[110.27522,-7.63208],[110.27531,-7.63225],[110.27537,-7.63235],[110.27558,-7.63248],[110.27573,-7.63253],[110.27589,-7.63239],[110.27602,-7.63248],[110.27625,-7.63265],[110.27645,-7.63278],[110.27655,-7.63285],[110.27663,-7.63286],[110.27669,-7.63285],[110.27682,-7.63279],[110.27694,-7.63282],[110.27698,-7.63289],[110.27766,-7.6331],[110.27773,-7.63307],[110.27794,-7.63303],[110.27814,-7.63299],[110.27822,-7.6329],[110.27834,-7.63282],[110.27847,-7.63278],[110.27852,-7.6327],[110.27852,-7.63259],[110.2785,-7.63249],[110.27857,-7.6324],[110.27863,-7.63236],[110.27875,-7.6323],[110.27892,-7.63217],[110.27904,-7.63217],[110.27923,-7.63218],[110.27942,-7.63229],[110.27955,-7.63227],[110.27977,-7.63238],[110.28014,-7.6324],[110.28009,-7.63244],[110.28005,-7.63248],[110.28002,-7.63252],[110.27999,-7.63255],[110.27994,-7.6327],[110.27993,-7.63272],[110.27993,-7.63277],[110.27996,-7.63285],[110.27998,-7.63289],[110.28,-7.63294],[110.28,-7.63303],[110.27999,-7.63315],[110.27997,-7.63322],[110.27996,-7.63327],[110.27996,-7.63337],[110.27995,-7.63341],[110.27993,-7.63347],[110.27991,-7.6335],[110.27988,-7.63356],[110.2798,-7.63368],[110.27975,-7.63375],[110.27966,-7.63386],[110.27963,-7.63389],[110.27962,-7.63389],[110.27961,-7.63391],[110.27957,-7.63392],[110.27942,-7.63395],[110.27939,-7.63396],[110.27935,-7.63399],[110.27933,-7.63401],[110.27931,-7.63406],[110.27929,-7.6341],[110.2792,-7.63432],[110.27916,-7.63441],[110.27911,-7.63451],[110.27909,-7.63454],[110.27901,-7.63464],[110.27898,-7.63465],[110.27894,-7.63466],[110.27893,-7.63466],[110.27893,-7.63467],[110.27889,-7.63468],[110.27885,-7.63471],[110.27882,-7.63476],[110.2788,-7.6348],[110.27879,-7.63483],[110.27876,-7.63488],[110.27872,-7.63495],[110.2787,-7.63497],[110.27868,-7.63501],[110.27864,-7.63506],[110.27862,-7.63508],[110.27863,-7.63519],[110.27864,-7.63521],[110.27864,-7.63523],[110.27866,-7.63531],[110.27868,-7.63559],[110.2786,-7.63572],[110.27858,-7.63582],[110.27857,-7.63585],[110.27856,-7.63586],[110.27853,-7.63588],[110.27845,-7.6359],[110.27843,-7.6359],[110.27841,-7.63591],[110.2784,-7.63593],[110.27835,-7.636],[110.2783,-7.63606],[110.27823,-7.63613],[110.27818,-7.63619],[110.27816,-7.63625],[110.27815,-7.63629],[110.27815,-7.63634],[110.27816,-7.63636],[110.27816,-7.63637],[110.27818,-7.6364],[110.27821,-7.63644],[110.27824,-7.63647],[110.27836,-7.63661],[110.27837,-7.63664],[110.27838,-7.63665],[110.27837,-7.63669],[110.27834,-7.63672],[110.27828,-7.63675],[110.27822,-7.63679],[110.27814,-7.63693],[110.27816,-7.637],[110.27817,-7.63704],[110.27818,-7.63706],[110.27822,-7.63711],[110.27832,-7.63726],[110.27833,-7.63727],[110.27843,-7.6373],[110.27844,-7.63733],[110.27845,-7.63735],[110.27845,-7.63747],[110.27846,-7.63755],[110.27849,-7.63785],[110.27849,-7.63789],[110.27847,-7.63794],[110.27844,-7.63801],[110.27839,-7.63808],[110.27829,-7.63835],[110.27827,-7.63838],[110.27823,-7.63848],[110.27821,-7.63855],[110.27819,-7.63864],[110.27818,-7.63873],[110.27817,-7.63885],[110.27818,-7.63888],[110.27818,-7.63903],[110.27815,-7.63926],[110.27815,-7.63934],[110.27816,-7.63941],[110.27816,-7.63944],[110.27818,-7.63952],[110.27819,-7.63957],[110.27819,-7.63963],[110.27813,-7.63973],[110.27811,-7.63976],[110.27807,-7.63979],[110.27804,-7.63982],[110.27798,-7.63987],[110.27787,-7.63999],[110.27783,-7.64003],[110.27774,-7.64017],[110.27773,-7.64018],[110.27773,-7.64019],[110.27767,-7.64028],[110.27766,-7.6403],[110.27761,-7.64035],[110.27758,-7.64039],[110.27754,-7.64043],[110.27752,-7.64046],[110.27749,-7.64049],[110.27746,-7.64051],[110.27735,-7.64061],[110.27728,-7.64068],[110.27726,-7.64069],[110.27721,-7.64074],[110.27717,-7.64077],[110.27714,-7.64079],[110.27713,-7.64079],[110.27702,-7.64082],[110.27697,-7.64084],[110.2769,-7.64094],[110.2769,-7.64095],[110.27685,-7.64106],[110.27695,-7.64119],[110.27696,-7.64119],[110.27705,-7.64131],[110.2772,-7.64139],[110.27745,-7.64151],[110.2775,-7.64145],[110.27765,-7.6415],[110.27773,-7.64145],[110.27799,-7.64148],[110.27804,-7.64153],[110.27817,-7.64148],[110.27827,-7.64146],[110.27835,-7.64145],[110.27847,-7.64137],[110.27854,-7.64132],[110.27862,-7.64129],[110.27875,-7.64132],[110.27879,-7.64133],[110.27884,-7.64134],[110.27892,-7.64127],[110.27893,-7.64122],[110.27896,-7.64113],[110.27897,-7.64111],[110.27898,-7.64111],[110.27899,-7.64107],[110.27904,-7.64101],[110.27909,-7.64096],[110.27913,-7.64094],[110.27914,-7.64094],[110.27915,-7.64093],[110.27921,-7.64091],[110.27928,-7.6409],[110.27945,-7.64089],[110.27951,-7.6409],[110.27956,-7.64093],[110.27959,-7.64095],[110.2796,-7.64095],[110.27961,-7.64097],[110.27965,-7.64104],[110.27968,-7.6411],[110.27971,-7.64113],[110.27979,-7.64117],[110.27984,-7.64119],[110.27995,-7.64119],[110.28,-7.64118],[110.28006,-7.64116],[110.2802,-7.64107],[110.28024,-7.64103],[110.28026,-7.641],[110.28028,-7.64098],[110.2803,-7.64095],[110.28034,-7.64081],[110.28036,-7.64076],[110.2804,-7.64068],[110.28042,-7.64065],[110.28046,-7.64055],[110.28047,-7.64055],[110.28052,-7.64045],[110.28076,-7.64044],[110.281,-7.64038],[110.28112,-7.64018],[110.28127,-7.64008],[110.28144,-7.64019],[110.28158,-7.64026],[110.28166,-7.64025],[110.2818,-7.64013],[110.28202,-7.64016],[110.28219,-7.64015],[110.28246,-7.6402],[110.28275,-7.64022],[110.28308,-7.64022],[110.28349,-7.64035],[110.28378,-7.64045],[110.28384,-7.64038],[110.28395,-7.6402],[110.2839,-7.64002],[110.28399,-7.63994],[110.28403,-7.63982],[110.28411,-7.6397],[110.28431,-7.63977],[110.28445,-7.63967],[110.28456,-7.63963],[110.28479,-7.63973],[110.2852,-7.63977],[110.28537,-7.63969],[110.28556,-7.6397],[110.28586,-7.6397],[110.28603,-7.63978],[110.28629,-7.63996],[110.28631,-7.64014],[110.28632,-7.64048],[110.28649,-7.64058],[110.28664,-7.64064],[110.28692,-7.64042],[110.28715,-7.64032],[110.28737,-7.64034],[110.28755,-7.64034],[110.28763,-7.64046],[110.28809,-7.64041],[110.28834,-7.64041],[110.2884,-7.64036],[110.28842,-7.64035],[110.28843,-7.64034],[110.28847,-7.63996],[110.28849,-7.63985],[110.28854,-7.63977],[110.28855,-7.63976],[110.28862,-7.63973],[110.28864,-7.63973],[110.28869,-7.63974],[110.28873,-7.6398],[110.28875,-7.63986],[110.28875,-7.63989],[110.28877,-7.63995],[110.28879,-7.64007],[110.2888,-7.64016],[110.28881,-7.64018],[110.28883,-7.64024],[110.28885,-7.64026],[110.28887,-7.64029],[110.28889,-7.64033],[110.28892,-7.6404],[110.28898,-7.64053],[110.28899,-7.64056],[110.28899,-7.64059],[110.28898,-7.64062],[110.28897,-7.64064],[110.28896,-7.64065],[110.28891,-7.64074],[110.28881,-7.6409],[110.28878,-7.64096],[110.28875,-7.64101],[110.28873,-7.64106],[110.28871,-7.64116],[110.2887,-7.6412],[110.28868,-7.64127],[110.28867,-7.64133],[110.28867,-7.64141],[110.28869,-7.64145],[110.2887,-7.64149],[110.28873,-7.64153],[110.28911,-7.64188],[110.28915,-7.64191],[110.2897,-7.64225],[110.28998,-7.64242],[110.29017,-7.64254],[110.2902,-7.64256],[110.29024,-7.64259],[110.29032,-7.64269],[110.29057,-7.64309],[110.29065,-7.64323],[110.29078,-7.64343],[110.29084,-7.64369],[110.29101,-7.6439],[110.29109,-7.64382],[110.29127,-7.64367],[110.29143,-7.64354],[110.29166,-7.64334],[110.2919,-7.64315],[110.29195,-7.64312],[110.29203,-7.64305],[110.29213,-7.64298],[110.29219,-7.64293],[110.29259,-7.64262],[110.29267,-7.64255],[110.2927,-7.64253],[110.29312,-7.64299],[110.29274,-7.64338],[110.29269,-7.64343],[110.29275,-7.64346],[110.29309,-7.64368],[110.29309,-7.64367],[110.29319,-7.64361],[110.29341,-7.64335],[110.29356,-7.64348],[110.29388,-7.64376],[110.29412,-7.64383],[110.29413,-7.64384],[110.29429,-7.64403],[110.2944,-7.64415],[110.29442,-7.64481],[110.29437,-7.64482],[110.29429,-7.64484],[110.29422,-7.64487],[110.29421,-7.64488],[110.29412,-7.64493],[110.29404,-7.64497],[110.29395,-7.64502],[110.29386,-7.64505],[110.29378,-7.64507],[110.29366,-7.64507],[110.29345,-7.64506],[110.29318,-7.64506],[110.29311,-7.64507],[110.29306,-7.6451],[110.29302,-7.64514],[110.29299,-7.64518],[110.29297,-7.64524],[110.29297,-7.64526],[110.29295,-7.64533],[110.29293,-7.64543],[110.29292,-7.6455],[110.29291,-7.64572],[110.2929,-7.64575],[110.29287,-7.64579],[110.29283,-7.64583],[110.29277,-7.64587],[110.29263,-7.64593],[110.29253,-7.64597],[110.29246,-7.646],[110.29238,-7.64605],[110.29238,-7.64608],[110.29232,-7.6463],[110.29229,-7.64656],[110.29228,-7.64676],[110.2923,-7.64697],[110.29235,-7.64703],[110.29236,-7.6472],[110.2926,-7.64756],[110.29274,-7.64767],[110.29282,-7.64778],[110.29298,-7.64782],[110.29324,-7.64788],[110.29346,-7.6479],[110.29364,-7.64794],[110.29379,-7.64799],[110.2939,-7.648],[110.29403,-7.64798],[110.29414,-7.64801],[110.29428,-7.64804],[110.29437,-7.64805],[110.29471,-7.64822],[110.29496,-7.6483],[110.29518,-7.64836],[110.29529,-7.64838],[110.29544,-7.64842],[110.29577,-7.64846],[110.29602,-7.64865],[110.29627,-7.64898],[110.29628,-7.64914],[110.29629,-7.64921],[110.29615,-7.6494],[110.29619,-7.64942],[110.2962,-7.64944],[110.29625,-7.64945],[110.29635,-7.64935],[110.29653,-7.64966],[110.29662,-7.64967],[110.29665,-7.64977],[110.29667,-7.65001],[110.2968,-7.65012],[110.29702,-7.65057],[110.29714,-7.65109],[110.29703,-7.65122],[110.29716,-7.65151],[110.29731,-7.65163],[110.29733,-7.65165],[110.2975,-7.65179],[110.29787,-7.65209],[110.29801,-7.65215],[110.29763,-7.65248],[110.29782,-7.65249],[110.298,-7.65242],[110.29828,-7.65243],[110.29888,-7.65243],[110.29941,-7.65261],[110.29963,-7.65275],[110.29972,-7.65262],[110.29991,-7.65275],[110.29996,-7.65274],[110.30015,-7.65287],[110.30056,-7.65306],[110.30065,-7.65316],[110.30058,-7.65327],[110.30069,-7.65338],[110.30077,-7.65347],[110.30069,-7.65351],[110.30078,-7.65356],[110.30081,-7.6536],[110.30095,-7.65372],[110.30107,-7.65368],[110.30115,-7.65368],[110.30118,-7.65372],[110.30126,-7.65375],[110.30135,-7.65381],[110.30139,-7.65381],[110.30144,-7.65385],[110.30152,-7.65387],[110.30161,-7.65392],[110.30167,-7.65395],[110.30177,-7.65398],[110.3018,-7.65399],[110.30186,-7.65406],[110.30195,-7.65415],[110.302,-7.65427],[110.30205,-7.65444],[110.30206,-7.65458],[110.30206,-7.65468],[110.30208,-7.65478],[110.30219,-7.65488],[110.30223,-7.65491],[110.30233,-7.65491],[110.30245,-7.65497],[110.30249,-7.65495],[110.3027,-7.65501],[110.30286,-7.65505],[110.30299,-7.65505],[110.30329,-7.65518],[110.30359,-7.6553],[110.3036,-7.6553],[110.30378,-7.65537],[110.30382,-7.65536],[110.30383,-7.65536],[110.3039,-7.65535],[110.30403,-7.65532],[110.30419,-7.65528],[110.30428,-7.65526],[110.30431,-7.65526],[110.3044,-7.65523],[110.30453,-7.65521],[110.30465,-7.65518],[110.30478,-7.65516],[110.30502,-7.6551],[110.30515,-7.65508],[110.30527,-7.65505],[110.30539,-7.65503],[110.30552,-7.655],[110.30564,-7.65498],[110.30577,-7.65495],[110.30589,-7.65493],[110.30601,-7.6549],[110.30614,-7.65487],[110.30626,-7.65484],[110.30639,-7.65481],[110.30687,-7.65465],[110.30699,-7.6546],[110.30711,-7.65454],[110.30723,-7.65449],[110.30734,-7.65442],[110.30745,-7.65436],[110.30756,-7.65428],[110.30766,-7.65421],[110.30775,-7.65412],[110.30785,-7.65404],[110.30793,-7.65395],[110.30801,-7.65385],[110.30808,-7.65375],[110.30815,-7.65364],[110.30817,-7.65361],[110.30821,-7.65353],[110.30827,-7.65342],[110.30837,-7.65318],[110.3084,-7.65312],[110.3085,-7.65282],[110.30858,-7.65256],[110.30862,-7.65244],[110.30865,-7.65231],[110.30869,-7.65219],[110.30879,-7.65195],[110.30885,-7.65185],[110.30893,-7.65175],[110.30902,-7.65166],[110.30912,-7.65158],[110.30924,-7.65152],[110.30935,-7.65146],[110.30948,-7.65141],[110.30961,-7.65137],[110.30973,-7.65135],[110.30986,-7.65133],[110.31012,-7.65131],[110.3105,-7.65131],[110.31063,-7.6513],[110.31075,-7.6513],[110.31088,-7.65129],[110.311,-7.65128],[110.31113,-7.65125],[110.31115,-7.65125],[110.31125,-7.65123],[110.31161,-7.65111],[110.31185,-7.65101],[110.31196,-7.65095],[110.3122,-7.65083],[110.31223,-7.65081],[110.31231,-7.65077],[110.31242,-7.6507],[110.31253,-7.65064],[110.31297,-7.65036],[110.31317,-7.65022],[110.31324,-7.65017],[110.31328,-7.65014],[110.31337,-7.65006],[110.31347,-7.64998],[110.31357,-7.64989],[110.31366,-7.64981],[110.31375,-7.64972],[110.31383,-7.64962],[110.31392,-7.64952],[110.31399,-7.64942],[110.31407,-7.64932],[110.31413,-7.64921],[110.31427,-7.64899],[110.31433,-7.64888],[110.3144,-7.64878],[110.31456,-7.64858],[110.31466,-7.64849],[110.31475,-7.64841],[110.31485,-7.64833],[110.31496,-7.64825],[110.31506,-7.64818],[110.31517,-7.64811],[110.31525,-7.64807],[110.31528,-7.64805],[110.31539,-7.64799],[110.31551,-7.64793],[110.31562,-7.64788],[110.31574,-7.64783],[110.3161,-7.64771],[110.31623,-7.64768],[110.31635,-7.64765],[110.31648,-7.64762],[110.31672,-7.64756],[110.31685,-7.64754],[110.31697,-7.64751],[110.3171,-7.64748],[110.31722,-7.64746],[110.31729,-7.64744],[110.31735,-7.64743],[110.31759,-7.64737],[110.31772,-7.64734],[110.31773,-7.64733],[110.31784,-7.6473],[110.31796,-7.64727],[110.31808,-7.64723],[110.31821,-7.6472],[110.31828,-7.64718],[110.31833,-7.64716],[110.31845,-7.64713],[110.31891,-7.64696],[110.31892,-7.64696],[110.31902,-7.64692],[110.31979,-7.64658],[110.32003,-7.64646],[110.32012,-7.6464],[110.32039,-7.64625],[110.32049,-7.64619],[110.32076,-7.64604],[110.32086,-7.64599],[110.32113,-7.64584],[110.32123,-7.64579],[110.32125,-7.64577],[110.32132,-7.64574],[110.32141,-7.64569],[110.3215,-7.64563],[110.32168,-7.64553],[110.32186,-7.64541],[110.32195,-7.64536],[110.32204,-7.6453],[110.32212,-7.64524],[110.3223,-7.64512],[110.3227,-7.64477],[110.32284,-7.64461],[110.3229,-7.64453],[110.32302,-7.64435],[110.32317,-7.64408],[110.32322,-7.64398],[110.32326,-7.64388],[110.3233,-7.64379],[110.32335,-7.64369],[110.32339,-7.6436],[110.32344,-7.6435],[110.32349,-7.64341],[110.32355,-7.64332],[110.32365,-7.64314],[110.3237,-7.64304],[110.32376,-7.64284],[110.32378,-7.64273],[110.32379,-7.64263],[110.32381,-7.64252],[110.32383,-7.6423],[110.32385,-7.6422],[110.32388,-7.6421],[110.32392,-7.64201],[110.32397,-7.64192],[110.32403,-7.64184],[110.3241,-7.64177],[110.32418,-7.6417],[110.32427,-7.64164],[110.32437,-7.64158],[110.32446,-7.64153],[110.32486,-7.64133],[110.32495,-7.64129],[110.32505,-7.64125],[110.32515,-7.6412],[110.32524,-7.64116],[110.32544,-7.64108],[110.32553,-7.64104],[110.32563,-7.641],[110.32572,-7.64096],[110.32582,-7.64092],[110.32591,-7.64087],[110.32601,-7.64083],[110.3261,-7.64078],[110.32619,-7.64074],[110.32628,-7.64069],[110.32638,-7.64064],[110.32647,-7.64059],[110.32656,-7.64053],[110.32723,-7.6402],[110.32809,-7.63953],[110.32817,-7.63949],[110.32849,-7.63929],[110.32857,-7.63925],[110.32865,-7.6392],[110.32881,-7.63912],[110.3289,-7.63908],[110.32898,-7.63903],[110.32907,-7.63899],[110.32927,-7.63889],[110.32877,-7.6383],[110.32851,-7.63798],[110.32828,-7.6377],[110.32805,-7.63741],[110.32786,-7.63722],[110.32787,-7.63719],[110.32789,-7.63714],[110.32793,-7.63707],[110.32794,-7.63707],[110.32794,-7.63706],[110.32797,-7.63703],[110.32799,-7.63702],[110.32803,-7.63698],[110.32829,-7.63681],[110.32841,-7.63672],[110.32866,-7.63647],[110.32872,-7.6364],[110.32888,-7.63624],[110.32893,-7.6362],[110.32895,-7.63618],[110.32898,-7.63617],[110.32901,-7.63615],[110.32909,-7.63612],[110.3291,-7.63611],[110.32912,-7.6361],[110.32898,-7.63594],[110.32927,-7.63579],[110.32943,-7.63571],[110.3293,-7.63556],[110.3292,-7.6355],[110.32912,-7.63547],[110.32906,-7.63542],[110.32903,-7.63536],[110.32898,-7.63523],[110.32893,-7.63506],[110.32894,-7.6349],[110.32898,-7.63458],[110.32917,-7.63437],[110.3293,-7.6343],[110.32944,-7.63427],[110.3295,-7.63426],[110.32951,-7.63426],[110.32964,-7.63424],[110.3298,-7.63414],[110.3299,-7.63407],[110.32991,-7.63406],[110.32993,-7.634],[110.32998,-7.63387],[110.32999,-7.63385],[110.33006,-7.63379],[110.33014,-7.63371],[110.33015,-7.63371],[110.33024,-7.6337],[110.33032,-7.63369],[110.33053,-7.63372],[110.33063,-7.63374],[110.33073,-7.63378],[110.33084,-7.63377],[110.33098,-7.63369],[110.33099,-7.63369],[110.33107,-7.63364],[110.33114,-7.63359],[110.33122,-7.63349],[110.33126,-7.63342],[110.33131,-7.63329],[110.3314,-7.63313],[110.33158,-7.63287],[110.33159,-7.63285],[110.33178,-7.63267],[110.33183,-7.63264],[110.33186,-7.63262],[110.33199,-7.63263],[110.33207,-7.63265],[110.33212,-7.63267],[110.33218,-7.6327],[110.33227,-7.63271],[110.33236,-7.63269],[110.33242,-7.63267],[110.33253,-7.63259],[110.33258,-7.63255],[110.33271,-7.63243],[110.33247,-7.63211],[110.33237,-7.63198],[110.33219,-7.63184],[110.33217,-7.63181],[110.3321,-7.63174],[110.33162,-7.6313],[110.33146,-7.63119],[110.33141,-7.63114],[110.33138,-7.63107],[110.33137,-7.63103],[110.33121,-7.63095],[110.33116,-7.6308],[110.33114,-7.63081],[110.33109,-7.63082],[110.33106,-7.63081],[110.33101,-7.63077],[110.33099,-7.63071],[110.33099,-7.63067],[110.33095,-7.63062],[110.33085,-7.63057],[110.33082,-7.63055],[110.33078,-7.63053],[110.33073,-7.6305],[110.33072,-7.63049],[110.3307,-7.63045],[110.33072,-7.6304],[110.33072,-7.63033],[110.33071,-7.63029],[110.33068,-7.63025],[110.33048,-7.63007],[110.3304,-7.63],[110.33065,-7.6297],[110.33066,-7.62969],[110.33069,-7.62963],[110.33079,-7.62948],[110.33081,-7.62943],[110.33081,-7.6294],[110.33077,-7.62927],[110.33072,-7.62921],[110.33061,-7.62906],[110.33056,-7.62884],[110.33061,-7.62852],[110.33078,-7.62828],[110.33079,-7.62825],[110.33095,-7.62785],[110.33086,-7.62749],[110.33093,-7.62745],[110.331,-7.62739],[110.33116,-7.62716],[110.33122,-7.62704],[110.33129,-7.62688],[110.33137,-7.62632],[110.3313,-7.62599],[110.33132,-7.6259],[110.33142,-7.62581],[110.33183,-7.6257],[110.33201,-7.62565],[110.33213,-7.62557],[110.33224,-7.62532],[110.33225,-7.62531],[110.33218,-7.62519],[110.33203,-7.62513],[110.33187,-7.62504],[110.33176,-7.62496],[110.33167,-7.62485],[110.33175,-7.62474],[110.33203,-7.62464],[110.33213,-7.62454],[110.33216,-7.62443],[110.33176,-7.62417],[110.33144,-7.62394],[110.33064,-7.62355],[110.33023,-7.62336],[110.32978,-7.62291],[110.32977,-7.62291],[110.32991,-7.62273],[110.32992,-7.62273],[110.33,-7.6226],[110.33015,-7.6224],[110.3302,-7.62234],[110.3304,-7.62221],[110.33048,-7.62215],[110.33049,-7.62215],[110.33075,-7.62202],[110.33096,-7.62188],[110.33117,-7.62175],[110.33128,-7.62165],[110.33115,-7.62152],[110.33114,-7.62143],[110.33114,-7.62137],[110.33072,-7.62092],[110.33057,-7.62104],[110.3305,-7.62108],[110.33046,-7.62109],[110.3304,-7.62109],[110.33034,-7.62107],[110.33025,-7.62091],[110.33021,-7.62082],[110.33009,-7.62064],[110.33006,-7.62056],[110.33005,-7.62021],[110.33006,-7.62016],[110.33013,-7.62002],[110.33022,-7.61991],[110.33024,-7.61981],[110.33024,-7.61972],[110.33023,-7.61966],[110.33011,-7.61953],[110.32995,-7.61952],[110.3297,-7.61938],[110.32943,-7.6189],[110.32929,-7.61862],[110.32901,-7.61872],[110.32897,-7.61874],[110.32887,-7.61877],[110.32881,-7.61882],[110.32876,-7.61889],[110.32872,-7.61904],[110.3287,-7.61911],[110.32868,-7.61923],[110.32867,-7.61934],[110.32866,-7.61941],[110.32863,-7.61946],[110.32861,-7.61949],[110.32851,-7.61962],[110.32844,-7.61978],[110.32844,-7.62004],[110.32843,-7.6201],[110.32843,-7.62014],[110.32837,-7.62023],[110.32828,-7.62035],[110.32826,-7.62041],[110.32826,-7.62055],[110.32825,-7.62065],[110.32819,-7.62077],[110.32805,-7.62089],[110.32788,-7.62106],[110.32778,-7.62113],[110.32776,-7.62114],[110.32767,-7.62117],[110.3276,-7.62119],[110.32755,-7.62122],[110.3275,-7.62128],[110.32744,-7.62137],[110.32736,-7.62148],[110.3273,-7.62153],[110.32723,-7.62161],[110.3271,-7.62167],[110.32694,-7.62174],[110.32675,-7.62185],[110.32652,-7.62196],[110.32646,-7.62199],[110.32643,-7.62203],[110.3264,-7.6221],[110.32636,-7.62226],[110.32633,-7.62234],[110.32631,-7.6224],[110.32617,-7.62255],[110.32597,-7.62275],[110.32595,-7.62278],[110.32583,-7.62292],[110.32574,-7.62301],[110.32558,-7.62309],[110.32549,-7.62313],[110.32541,-7.62318],[110.32535,-7.62331],[110.32531,-7.62342],[110.32529,-7.62358],[110.32525,-7.62375],[110.32517,-7.62385],[110.32507,-7.62389],[110.32497,-7.62389],[110.32482,-7.62386],[110.32453,-7.62365],[110.32426,-7.62344],[110.32402,-7.62322],[110.32394,-7.62318],[110.32376,-7.62313],[110.32355,-7.62315],[110.32321,-7.62326],[110.32288,-7.62339],[110.32263,-7.6235],[110.32229,-7.62366],[110.32211,-7.62378],[110.32199,-7.62381],[110.32194,-7.62378],[110.32186,-7.6238],[110.32181,-7.6238],[110.32178,-7.62374],[110.32193,-7.62362],[110.3221,-7.62347],[110.32224,-7.62324],[110.32248,-7.62279],[110.32287,-7.62205],[110.32324,-7.62117],[110.32359,-7.62046],[110.32389,-7.62007],[110.32429,-7.61965],[110.32453,-7.61943],[110.32389,-7.61946],[110.32401,-7.61933],[110.32377,-7.61918],[110.32401,-7.61886],[110.32413,-7.61864],[110.32423,-7.61835],[110.32427,-7.61823],[110.32426,-7.61807],[110.32422,-7.618],[110.32408,-7.61791],[110.32393,-7.61783],[110.32381,-7.61777],[110.32366,-7.61765],[110.3236,-7.61752],[110.32356,-7.61731],[110.32355,-7.61711],[110.32351,-7.61704],[110.32345,-7.61697],[110.32336,-7.61692],[110.32314,-7.61667],[110.32273,-7.6165],[110.32259,-7.61652],[110.32242,-7.61659],[110.32227,-7.6167],[110.32207,-7.61691],[110.32167,-7.61729],[110.32162,-7.61731],[110.32167,-7.61742],[110.32169,-7.61748],[110.32169,-7.61755],[110.32167,-7.61764],[110.32169,-7.61774],[110.32178,-7.61787],[110.32209,-7.61813],[110.322,-7.61826],[110.32193,-7.61831],[110.32187,-7.61835],[110.32176,-7.6184],[110.32171,-7.61843],[110.32165,-7.61848],[110.32133,-7.61871],[110.32117,-7.61854],[110.32113,-7.61846],[110.3211,-7.61838],[110.32111,-7.61829],[110.32111,-7.61824],[110.3211,-7.61818],[110.32108,-7.61815],[110.32107,-7.61808],[110.32107,-7.61795],[110.32108,-7.61785],[110.32102,-7.61775],[110.32112,-7.61767],[110.32101,-7.61747],[110.32076,-7.61756],[110.32059,-7.61767],[110.32006,-7.61804],[110.31935,-7.61824],[110.31918,-7.61829],[110.31901,-7.61829],[110.31875,-7.61824],[110.31857,-7.61823],[110.31847,-7.61819],[110.31825,-7.618],[110.31813,-7.6179],[110.31801,-7.61783],[110.31773,-7.61779],[110.31759,-7.61775],[110.3175,-7.61771],[110.31747,-7.61762],[110.31742,-7.61752],[110.31742,-7.61747],[110.31746,-7.6174],[110.31747,-7.61723],[110.31771,-7.61691],[110.31777,-7.6168],[110.31782,-7.61668],[110.31784,-7.61661],[110.31784,-7.61648],[110.3178,-7.61637],[110.31764,-7.61613],[110.31759,-7.616],[110.31756,-7.61567],[110.31744,-7.61567],[110.31737,-7.61568],[110.3173,-7.61568],[110.31724,-7.61567],[110.31726,-7.61575],[110.31719,-7.61595],[110.31704,-7.61644],[110.31705,-7.61679],[110.31651,-7.61702],[110.31625,-7.61754],[110.31602,-7.61774],[110.31602,-7.6178],[110.31584,-7.61781],[110.31569,-7.61777],[110.31562,-7.61772],[110.31557,-7.61762],[110.31545,-7.61743],[110.31537,-7.61734],[110.31517,-7.61727],[110.31494,-7.61716],[110.31482,-7.61704],[110.31469,-7.6169],[110.31451,-7.61678],[110.31443,-7.6166],[110.31445,-7.61636],[110.31449,-7.61622],[110.3145,-7.61621],[110.31465,-7.61607],[110.31477,-7.6161],[110.31489,-7.61615],[110.3149,-7.61615],[110.31499,-7.61618],[110.31505,-7.61618],[110.31508,-7.61617],[110.31541,-7.61594],[110.31549,-7.61588],[110.31562,-7.61576],[110.31574,-7.61569],[110.31575,-7.61568],[110.31583,-7.61556],[110.31554,-7.61527],[110.31532,-7.61508],[110.31523,-7.6149],[110.31511,-7.61475],[110.31503,-7.61463],[110.3151,-7.61453],[110.31507,-7.61451],[110.31491,-7.61439],[110.31483,-7.6143],[110.31474,-7.6142],[110.31463,-7.614],[110.3145,-7.61384],[110.31445,-7.61372],[110.31453,-7.6137],[110.31471,-7.61355],[110.31472,-7.61354],[110.3152,-7.61312],[110.31543,-7.61273],[110.31558,-7.61257],[110.31573,-7.61242],[110.31529,-7.61222],[110.31481,-7.61199],[110.31451,-7.61183],[110.31436,-7.61171],[110.3143,-7.61156],[110.31435,-7.61147],[110.3144,-7.61139],[110.31452,-7.61116],[110.31452,-7.61113],[110.31453,-7.61112],[110.31443,-7.61105],[110.3143,-7.61098],[110.31415,-7.6109],[110.31375,-7.61068],[110.31357,-7.61058],[110.31345,-7.61049],[110.31328,-7.61037],[110.31316,-7.6103],[110.31307,-7.61021],[110.31338,-7.60987],[110.31357,-7.60964],[110.31389,-7.60926],[110.31424,-7.60877],[110.31436,-7.6086],[110.31457,-7.60839],[110.31448,-7.60812],[110.31446,-7.60799],[110.31439,-7.60779],[110.31435,-7.60765],[110.3143,-7.60742],[110.31444,-7.60732],[110.31514,-7.60692],[110.31537,-7.60679],[110.31554,-7.60669],[110.3158,-7.60654],[110.31598,-7.60638],[110.31623,-7.60618],[110.31638,-7.60595],[110.31661,-7.60573],[110.3167,-7.60558],[110.31692,-7.60536],[110.31685,-7.60532],[110.31675,-7.60528],[110.31665,-7.60522],[110.31651,-7.60512],[110.31645,-7.60504],[110.31636,-7.60494],[110.31624,-7.60482],[110.31595,-7.60441],[110.31587,-7.60423],[110.31582,-7.6041],[110.31578,-7.60401],[110.31576,-7.60398],[110.31571,-7.60385],[110.31562,-7.60388],[110.31561,-7.60387],[110.31551,-7.60365],[110.31551,-7.6036],[110.31557,-7.60289],[110.31559,-7.60271],[110.31569,-7.60269],[110.31589,-7.60261],[110.31608,-7.60251],[110.31636,-7.60235],[110.31661,-7.60225],[110.31686,-7.60222],[110.31707,-7.60218],[110.31733,-7.60215],[110.31735,-7.60205],[110.31729,-7.60184],[110.31724,-7.60159],[110.3171,-7.60127],[110.31709,-7.60125],[110.31703,-7.60104],[110.31692,-7.60079],[110.31684,-7.60056],[110.31679,-7.60026],[110.31676,-7.6002],[110.31664,-7.60014],[110.31639,-7.6001],[110.31618,-7.60008],[110.31598,-7.60005],[110.31585,-7.60005],[110.31575,-7.60002],[110.31565,-7.59996],[110.31558,-7.5999],[110.3155,-7.59979],[110.31533,-7.59956],[110.31526,-7.59953],[110.31505,-7.59925],[110.31497,-7.59914],[110.31494,-7.59904],[110.31491,-7.59888],[110.31488,-7.59881],[110.31482,-7.59872],[110.31471,-7.59858],[110.31457,-7.59853],[110.31449,-7.59848],[110.31442,-7.59841],[110.31441,-7.59834],[110.31442,-7.59821],[110.31452,-7.59805],[110.31437,-7.5981],[110.31407,-7.5981],[110.31402,-7.59811],[110.31399,-7.59813],[110.31394,-7.59823],[110.31394,-7.59827],[110.31397,-7.59835],[110.31399,-7.59841],[110.31401,-7.59845],[110.31401,-7.59847],[110.31402,-7.59852],[110.31403,-7.59856],[110.314,-7.59865],[110.31392,-7.59869],[110.31381,-7.59873],[110.31373,-7.59876],[110.31362,-7.59884],[110.31353,-7.5989],[110.31338,-7.59896],[110.31331,-7.59897],[110.31319,-7.59896],[110.31311,-7.5989],[110.31299,-7.5988],[110.31298,-7.5988],[110.31275,-7.59867],[110.31274,-7.59867],[110.31259,-7.59835],[110.31242,-7.5982],[110.31237,-7.59823],[110.31233,-7.59824],[110.31227,-7.5982],[110.31214,-7.5981],[110.31206,-7.59802],[110.31203,-7.5979],[110.31202,-7.59772],[110.31203,-7.59765],[110.31202,-7.59757],[110.31196,-7.59748],[110.31191,-7.59735],[110.31186,-7.59729],[110.3118,-7.59717],[110.3118,-7.59703],[110.31179,-7.59693],[110.31177,-7.59681],[110.31171,-7.59671],[110.31163,-7.5966],[110.31159,-7.59649],[110.31153,-7.59635],[110.31147,-7.59613],[110.31142,-7.59603],[110.31135,-7.59591],[110.31127,-7.5958],[110.31109,-7.59571],[110.311,-7.59561],[110.31092,-7.59554],[110.31085,-7.59548],[110.31073,-7.59536],[110.31065,-7.59522],[110.31058,-7.59505],[110.31046,-7.59518],[110.31035,-7.59528],[110.31021,-7.59514],[110.31009,-7.59501],[110.30994,-7.59482],[110.3098,-7.59464],[110.30975,-7.59457],[110.30973,-7.59457],[110.30971,-7.59461],[110.3097,-7.5947],[110.3097,-7.59481],[110.30969,-7.59489],[110.30963,-7.595],[110.30961,-7.595],[110.30957,-7.59492],[110.30953,-7.59483],[110.30951,-7.59474],[110.30947,-7.59465],[110.30941,-7.59456],[110.30936,-7.59449],[110.30931,-7.59446],[110.30928,-7.59448],[110.30924,-7.59465],[110.30919,-7.59476],[110.30911,-7.59485],[110.30903,-7.59489],[110.30892,-7.59489],[110.30887,-7.59486],[110.30879,-7.59485],[110.30866,-7.59481],[110.30851,-7.59492],[110.30844,-7.59499],[110.30834,-7.59501],[110.30828,-7.59501],[110.30822,-7.59495],[110.30814,-7.59481],[110.30813,-7.5948],[110.30802,-7.59463],[110.30796,-7.5945],[110.30787,-7.59442],[110.30777,-7.59439],[110.3076,-7.59441],[110.30738,-7.59446],[110.30692,-7.5946],[110.30657,-7.59462],[110.30647,-7.59464],[110.30629,-7.5947],[110.30624,-7.59473],[110.30617,-7.59476],[110.30615,-7.59471],[110.30606,-7.59466],[110.30581,-7.59454],[110.30602,-7.59442],[110.30611,-7.59428],[110.3062,-7.59411],[110.30618,-7.59389],[110.3061,-7.59369],[110.30595,-7.59335],[110.30594,-7.59327],[110.30591,-7.59308],[110.30587,-7.59291],[110.30573,-7.59263],[110.30564,-7.59248],[110.3054,-7.59218],[110.30544,-7.59199],[110.30538,-7.59188],[110.3052,-7.59167],[110.30502,-7.59148],[110.30469,-7.59107],[110.30485,-7.59085],[110.30489,-7.59082],[110.30504,-7.59068],[110.3051,-7.59062],[110.30526,-7.59049],[110.30529,-7.59046],[110.30533,-7.59044],[110.30542,-7.59038],[110.30554,-7.59031],[110.30563,-7.59026],[110.30574,-7.5902],[110.30587,-7.59014],[110.30587,-7.59005],[110.30588,-7.58988],[110.30589,-7.58975],[110.30587,-7.58952],[110.30588,-7.5893],[110.30588,-7.58918],[110.30584,-7.58868],[110.30584,-7.58864],[110.30592,-7.5885],[110.30601,-7.5884],[110.30619,-7.58825],[110.30634,-7.58815],[110.3068,-7.588],[110.30712,-7.5878],[110.30729,-7.58761],[110.30737,-7.58736],[110.30746,-7.58724],[110.3075,-7.58717],[110.30751,-7.58712],[110.30747,-7.58708],[110.3074,-7.58703],[110.30735,-7.58701],[110.30729,-7.58702],[110.30725,-7.58704],[110.3072,-7.58707],[110.30717,-7.5871],[110.30712,-7.58714],[110.30705,-7.58719],[110.30701,-7.58723],[110.30694,-7.58725],[110.30685,-7.58724],[110.3066,-7.58714],[110.30644,-7.58714],[110.30633,-7.58717],[110.30627,-7.58723],[110.30609,-7.5874],[110.30602,-7.58747],[110.30591,-7.58751],[110.3058,-7.58752],[110.30568,-7.58751],[110.30556,-7.58747],[110.30545,-7.58744],[110.30534,-7.58744],[110.30515,-7.58752],[110.30514,-7.58752],[110.30488,-7.58764],[110.30481,-7.5877],[110.30468,-7.58796],[110.30464,-7.58805],[110.30458,-7.58814],[110.30451,-7.58823],[110.30435,-7.58827],[110.30422,-7.58829],[110.30406,-7.58834],[110.30394,-7.58842],[110.30374,-7.58865],[110.30365,-7.58876],[110.30355,-7.58886],[110.30348,-7.5889],[110.30337,-7.58891],[110.30326,-7.58891],[110.30317,-7.58893],[110.3031,-7.58897],[110.30303,-7.58905],[110.3029,-7.58913],[110.30282,-7.5891],[110.3028,-7.5891],[110.3027,-7.58908],[110.30261,-7.58905],[110.30253,-7.58898],[110.3025,-7.58891],[110.30246,-7.58887],[110.30245,-7.58885],[110.30243,-7.58877],[110.30234,-7.58847],[110.30228,-7.58829],[110.30221,-7.58825],[110.30209,-7.58823],[110.30196,-7.58824],[110.30189,-7.58821],[110.30182,-7.58808],[110.30174,-7.58796],[110.30144,-7.5878],[110.30119,-7.58764],[110.30086,-7.5874],[110.30082,-7.58737],[110.30077,-7.5874],[110.30067,-7.58744],[110.30052,-7.58752],[110.3004,-7.58765],[110.3003,-7.58778],[110.30024,-7.58787],[110.30016,-7.58797],[110.30011,-7.58804],[110.2999,-7.58832],[110.29988,-7.58831],[110.29987,-7.58831],[110.29978,-7.58835],[110.29974,-7.58838],[110.2997,-7.58844],[110.29969,-7.58846],[110.29958,-7.58846],[110.29952,-7.58852],[110.29949,-7.58857],[110.29948,-7.58861],[110.29947,-7.58861],[110.29937,-7.58866],[110.29931,-7.58879],[110.29925,-7.58879],[110.29918,-7.5888],[110.29911,-7.58884],[110.2991,-7.58884],[110.29908,-7.58886],[110.29904,-7.58889],[110.29903,-7.5889],[110.29902,-7.5889],[110.299,-7.58891],[110.29892,-7.58893],[110.29885,-7.58897],[110.29881,-7.58899],[110.29879,-7.58902],[110.29876,-7.58902],[110.29871,-7.58904],[110.29862,-7.5891],[110.29861,-7.5891],[110.29857,-7.58911],[110.29852,-7.58913],[110.29849,-7.58916],[110.29847,-7.5892],[110.29839,-7.58928],[110.29838,-7.5893],[110.29835,-7.58935],[110.29831,-7.58941],[110.29819,-7.58953],[110.29814,-7.58962],[110.29806,-7.58967],[110.29803,-7.58969],[110.29796,-7.58973],[110.29796,-7.58974],[110.29789,-7.58978],[110.29783,-7.58981],[110.29778,-7.58985],[110.29777,-7.58985],[110.29775,-7.58986],[110.29773,-7.58988],[110.29758,-7.58994],[110.29752,-7.58996],[110.29751,-7.58996],[110.29742,-7.58999],[110.2974,-7.58999],[110.29737,-7.59001],[110.29733,-7.59001],[110.29731,-7.59002],[110.29728,-7.59004],[110.29716,-7.59016],[110.29714,-7.59019],[110.29712,-7.5902],[110.29707,-7.59024],[110.29695,-7.59037],[110.29687,-7.59041],[110.29672,-7.59052],[110.29668,-7.59052],[110.29663,-7.59053],[110.29663,-7.59054],[110.29661,-7.59054],[110.29655,-7.59056],[110.29654,-7.59057],[110.29648,-7.5906],[110.29643,-7.59067],[110.2964,-7.59068],[110.29638,-7.59069],[110.29635,-7.59071],[110.29628,-7.59077],[110.2962,-7.59085],[110.29614,-7.59093],[110.29613,-7.59098],[110.29612,-7.59102],[110.29611,-7.59104],[110.29578,-7.59112],[110.29564,-7.59122],[110.2956,-7.59125],[110.2955,-7.59134],[110.29538,-7.59149],[110.29517,-7.59181],[110.29494,-7.59204],[110.29475,-7.59222],[110.29455,-7.59233],[110.29412,-7.59251],[110.29391,-7.5926],[110.29355,-7.59275],[110.29334,-7.59287],[110.29328,-7.59293],[110.29323,-7.59301],[110.29321,-7.59306],[110.29322,-7.59321],[110.29322,-7.59322],[110.29321,-7.59328],[110.29311,-7.59338],[110.29304,-7.59344],[110.29296,-7.59351],[110.29267,-7.59374],[110.29248,-7.5939],[110.29217,-7.59418],[110.29216,-7.5942],[110.29193,-7.5945],[110.29164,-7.59506],[110.29158,-7.59518],[110.29152,-7.59526],[110.29139,-7.59535],[110.29125,-7.59544],[110.29114,-7.59549],[110.29104,-7.59553],[110.29086,-7.59555],[110.29083,-7.59556],[110.29078,-7.59559],[110.29066,-7.59565],[110.29061,-7.59568],[110.29061,-7.59569],[110.29055,-7.59578],[110.29046,-7.59591],[110.29045,-7.59592],[110.29043,-7.59599],[110.2904,-7.5961],[110.29033,-7.59629],[110.29027,-7.59663],[110.2902,-7.59674],[110.29009,-7.59684],[110.28994,-7.59695],[110.28972,-7.59703],[110.2895,-7.5971],[110.28934,-7.59713],[110.2891,-7.59713],[110.28896,-7.59708],[110.28877,-7.59705],[110.28871,-7.59704],[110.28855,-7.59706],[110.28834,-7.59711],[110.28823,-7.59713],[110.28822,-7.59713],[110.28813,-7.59711],[110.2881,-7.59707],[110.28805,-7.59679],[110.28677,-7.59708],[110.2868,-7.59725],[110.28694,-7.59722],[110.28699,-7.59745],[110.2869,-7.59749],[110.28659,-7.59763],[110.28658,-7.59764],[110.28656,-7.59762],[110.28654,-7.59759],[110.2865,-7.59757],[110.28644,-7.59757],[110.2864,-7.59758],[110.28637,-7.5976],[110.28635,-7.59763],[110.28635,-7.59767],[110.28638,-7.5977],[110.28639,-7.59772],[110.28638,-7.59775],[110.28636,-7.59778],[110.28634,-7.59782],[110.28628,-7.59786],[110.28602,-7.59803],[110.28592,-7.5981],[110.2858,-7.59822],[110.28572,-7.59839],[110.28566,-7.59851],[110.28556,-7.59867],[110.28537,-7.59875],[110.28528,-7.5988],[110.28506,-7.59894],[110.28493,-7.59908],[110.28481,-7.59923],[110.28475,-7.59934],[110.28465,-7.59942],[110.28452,-7.59947],[110.28443,-7.59948],[110.28407,-7.59965],[110.28394,-7.59973],[110.28382,-7.5998],[110.28371,-7.59986],[110.28363,-7.59985],[110.28354,-7.59984],[110.28319,-7.59968],[110.28268,-7.59938],[110.28266,-7.59937],[110.28253,-7.59929],[110.28249,-7.59915],[110.28249,-7.59914],[110.28241,-7.59895],[110.2822,-7.59858],[110.28199,-7.5983],[110.28173,-7.59794],[110.28159,-7.59786],[110.28138,-7.59776],[110.28121,-7.59772],[110.28107,-7.5977],[110.28094,-7.5977],[110.28076,-7.59772],[110.28063,-7.59776],[110.28045,-7.59786],[110.28019,-7.59795],[110.28003,-7.59805],[110.27988,-7.59812],[110.27972,-7.59821],[110.2796,-7.59829],[110.27943,-7.59846],[110.27924,-7.59868],[110.27905,-7.59886],[110.27893,-7.599],[110.27888,-7.59905],[110.27879,-7.59928],[110.27875,-7.59943],[110.27874,-7.5996],[110.2787,-7.59979],[110.27857,-7.59999],[110.2785,-7.60026],[110.2785,-7.60044],[110.27852,-7.60052],[110.27856,-7.60065],[110.27851,-7.6008],[110.27839,-7.60105],[110.27831,-7.60128],[110.27826,-7.60145],[110.27822,-7.60171],[110.27807,-7.60227],[110.27791,-7.60272],[110.27786,-7.60304],[110.2779,-7.60325],[110.27791,-7.60327],[110.27794,-7.60337],[110.27783,-7.60353],[110.27777,-7.60362],[110.27761,-7.60383],[110.27748,-7.604],[110.27734,-7.6042],[110.27724,-7.60442],[110.27723,-7.6047],[110.27724,-7.60527],[110.27724,-7.60535],[110.27714,-7.60568],[110.27708,-7.60583],[110.2769,-7.60616],[110.27689,-7.60619],[110.27687,-7.60622],[110.27672,-7.60657],[110.27666,-7.60678],[110.27664,-7.60683],[110.27661,-7.6069],[110.27657,-7.60697],[110.27656,-7.60699],[110.27648,-7.60702],[110.27639,-7.60705],[110.2763,-7.60711],[110.27623,-7.60721],[110.27614,-7.60745],[110.27602,-7.60769],[110.27596,-7.60788],[110.27594,-7.60795],[110.27578,-7.60814],[110.27576,-7.60816],[110.27561,-7.60829],[110.27555,-7.60837],[110.27541,-7.60849],[110.27535,-7.60856],[110.27522,-7.60869],[110.27515,-7.60877],[110.27513,-7.6088],[110.27512,-7.6088],[110.27505,-7.60889],[110.27499,-7.60895],[110.27498,-7.60897],[110.2749,-7.60909],[110.27481,-7.60918],[110.2748,-7.60918],[110.27468,-7.60929],[110.27465,-7.60931],[110.27457,-7.60936],[110.2745,-7.60946],[110.27446,-7.60952],[110.27443,-7.60957],[110.27434,-7.60969],[110.27423,-7.60983],[110.27422,-7.60984],[110.27422,-7.60985],[110.2741,-7.61002],[110.27409,-7.61003],[110.27403,-7.61012],[110.27384,-7.61026],[110.2736,-7.61031],[110.27347,-7.61032],[110.27336,-7.61032],[110.27313,-7.61033],[110.27272,-7.61033],[110.27271,-7.61032],[110.2727,-7.61032],[110.27241,-7.61028],[110.2724,-7.61028],[110.27221,-7.61029],[110.27218,-7.61029],[110.27209,-7.6103],[110.27191,-7.61035],[110.27178,-7.61039],[110.2716,-7.61044],[110.27153,-7.61045],[110.27109,-7.61057],[110.27101,-7.61059],[110.27094,-7.61063],[110.27087,-7.61066],[110.27081,-7.6107],[110.27075,-7.61072],[110.27065,-7.61075],[110.27041,-7.61083],[110.27038,-7.61083],[110.27031,-7.61084],[110.27027,-7.61085],[110.26977,-7.61085],[110.26969,-7.61088],[110.26966,-7.61089],[110.26956,-7.61093],[110.26951,-7.61094],[110.26941,-7.61097],[110.26938,-7.61098],[110.26925,-7.61101],[110.26917,-7.61103],[110.26898,-7.61114],[110.26894,-7.61116],[110.26872,-7.61135],[110.26864,-7.6115],[110.26854,-7.61167],[110.26843,-7.61185],[110.26838,-7.61198],[110.26831,-7.6121],[110.2682,-7.61218],[110.26809,-7.61222],[110.26798,-7.61224],[110.26792,-7.61228],[110.26787,-7.61236],[110.26785,-7.61244],[110.26784,-7.61252],[110.26778,-7.61267],[110.26767,-7.61285],[110.26749,-7.61291],[110.26754,-7.61302],[110.26746,-7.61309],[110.26729,-7.61318],[110.26702,-7.61339],[110.26667,-7.61368],[110.26632,-7.61408],[110.26623,-7.61417],[110.26616,-7.61425],[110.26604,-7.61435],[110.26603,-7.61436],[110.26598,-7.6144],[110.2659,-7.61446],[110.26588,-7.61448],[110.26588,-7.6145],[110.26584,-7.61464],[110.26583,-7.61466],[110.26574,-7.61487],[110.26563,-7.61511],[110.26561,-7.61514],[110.26549,-7.61531],[110.26544,-7.6154],[110.26538,-7.61549],[110.26531,-7.61558],[110.26523,-7.61581],[110.26519,-7.61592],[110.26514,-7.61617],[110.26507,-7.61633],[110.26502,-7.61643],[110.26492,-7.61655],[110.26467,-7.61668],[110.26439,-7.61687],[110.26418,-7.61704],[110.26407,-7.61711],[110.26399,-7.61723],[110.26395,-7.61727],[110.26389,-7.61736],[110.2637,-7.61755],[110.26362,-7.61762],[110.26348,-7.6177],[110.26339,-7.6178],[110.26337,-7.61781],[110.26317,-7.61794],[110.26315,-7.61795],[110.26299,-7.61809],[110.26281,-7.61831],[110.26278,-7.61835],[110.26273,-7.61844],[110.2626,-7.61873],[110.26258,-7.61877],[110.26254,-7.61893],[110.26251,-7.61903],[110.26249,-7.61909],[110.26249,-7.61911],[110.2625,-7.61942],[110.26248,-7.61958],[110.26247,-7.61961],[110.26246,-7.61966],[110.26243,-7.61985],[110.26238,-7.62002],[110.26232,-7.62016],[110.26226,-7.62029],[110.26224,-7.62033],[110.26221,-7.62038],[110.26199,-7.62071],[110.26196,-7.62076],[110.26191,-7.62084],[110.26183,-7.62095],[110.2618,-7.621],[110.26165,-7.62127],[110.26163,-7.62129],[110.26155,-7.62147],[110.26154,-7.62148],[110.26132,-7.62177],[110.26124,-7.6219],[110.26118,-7.622],[110.26107,-7.62217],[110.26101,-7.62225],[110.26092,-7.62239],[110.26084,-7.62251],[110.26083,-7.62251],[110.26079,-7.62258],[110.26076,-7.62262],[110.26075,-7.62264],[110.26069,-7.62272],[110.26055,-7.62293],[110.26054,-7.62294],[110.26048,-7.62303],[110.26036,-7.62319],[110.26035,-7.62321],[110.26024,-7.62336]]]}}]}