{"type":"FeatureCollection","features":[{"type":"Feature","properties":{"KECAMATAN":"Sawangan"},"geometry":{"type":"Polygon","coordinates":[[[110.26634,-7.5311],[110.26637,-7.53112],[110.26641,-7.53118],[110.26646,-7.53137],[110.26651,-7.53152],[110.26662,-7.5319],[110.26666,-7.53207],[110.26667,-7.53213],[110.26667,-7.53216],[110.26699,-7.53226],[110.26702,-7.5323],[110.26702,-7.53231],[110.26707,-7.53236],[110.26746,-7.53239],[110.26763,-7.53235],[110.2678,-7.53226],[110.26787,-7.53223],[110.26791,-7.53219],[110.26797,-7.53211],[110.26801,-7.53207],[110.26805,-7.53205],[110.2681,-7.53204],[110.26814,-7.53203],[110.26824,-7.53203],[110.26828,-7.53204],[110.26831,-7.53205],[110.26835,-7.53205],[110.26843,-7.53203],[110.2685,-7.532],[110.2686,-7.53197],[110.26869,-7.53194],[110.26883,-7.53191],[110.26891,-7.5319],[110.26896,-7.53191],[110.269,-7.53193],[110.26905,-7.53195],[110.26911,-7.53195],[110.26919,-7.53192],[110.26926,-7.5319],[110.2694,-7.53187],[110.2695,-7.53186],[110.26963,-7.53186],[110.26976,-7.53184],[110.26985,-7.5318],[110.26999,-7.53175],[110.27008,-7.5317],[110.27021,-7.53164],[110.27033,-7.53164],[110.27023,-7.53176],[110.27016,-7.53184],[110.27012,-7.53192],[110.27012,-7.53198],[110.27011,-7.53203],[110.27009,-7.53222],[110.27009,-7.53227],[110.27011,-7.53237],[110.27011,-7.53245],[110.2701,-7.53253],[110.27009,-7.53258],[110.27013,-7.53282],[110.27016,-7.53296],[110.27016,-7.53342],[110.2701,-7.53353],[110.27013,-7.53357],[110.27012,-7.53362],[110.27006,-7.53375],[110.27001,-7.53384],[110.26995,-7.53392],[110.26995,-7.53403],[110.26991,-7.53407],[110.26988,-7.53417],[110.26988,-7.53428],[110.26985,-7.53444],[110.26986,-7.53454],[110.26986,-7.53459],[110.26984,-7.53467],[110.26982,-7.53473],[110.26982,-7.5348],[110.26977,-7.53486],[110.2697,-7.53493],[110.26966,-7.53499],[110.26962,-7.53508],[110.26959,-7.53514],[110.2695,-7.53525],[110.26951,-7.53531],[110.26947,-7.53536],[110.26961,-7.53533],[110.26977,-7.53531],[110.26984,-7.5353],[110.26988,-7.53526],[110.26996,-7.53521],[110.27003,-7.53518],[110.27011,-7.53517],[110.27018,-7.5352],[110.27032,-7.53522],[110.27048,-7.5353],[110.27053,-7.53532],[110.27057,-7.53537],[110.27062,-7.53538],[110.27069,-7.53531],[110.27084,-7.53521],[110.27102,-7.53515],[110.27108,-7.53507],[110.2712,-7.53504],[110.27135,-7.53499],[110.27146,-7.53497],[110.27126,-7.5347],[110.27131,-7.53464],[110.27144,-7.53465],[110.27156,-7.5347],[110.27168,-7.53478],[110.27183,-7.53487],[110.27172,-7.53502],[110.27167,-7.53506],[110.27157,-7.53522],[110.27144,-7.53534],[110.27131,-7.5355],[110.27117,-7.53563],[110.27102,-7.53579],[110.27091,-7.53591],[110.27084,-7.53603],[110.27078,-7.53609],[110.2707,-7.53612],[110.27043,-7.53633],[110.27026,-7.53625],[110.27019,-7.53627],[110.27014,-7.53629],[110.27008,-7.53633],[110.27007,-7.53636],[110.27005,-7.53643],[110.26997,-7.53654],[110.2699,-7.53658],[110.26983,-7.53663],[110.2698,-7.53667],[110.26977,-7.53674],[110.26971,-7.53682],[110.26976,-7.53696],[110.26978,-7.53716],[110.26985,-7.53715],[110.26992,-7.53713],[110.26996,-7.5371],[110.27001,-7.53705],[110.27006,-7.53701],[110.27015,-7.53694],[110.27032,-7.53688],[110.27049,-7.5368],[110.27054,-7.53659],[110.27057,-7.53645],[110.27069,-7.53633],[110.27079,-7.53627],[110.27092,-7.53625],[110.27102,-7.53667],[110.271,-7.53675],[110.27113,-7.53669],[110.27131,-7.53662],[110.27144,-7.53655],[110.27153,-7.53655],[110.27163,-7.53652],[110.27178,-7.5365],[110.27192,-7.53647],[110.27202,-7.53641],[110.27207,-7.53635],[110.27205,-7.53626],[110.27202,-7.53617],[110.27197,-7.53611],[110.27191,-7.53603],[110.27192,-7.53599],[110.27199,-7.53593],[110.27205,-7.5359],[110.27215,-7.53587],[110.27224,-7.53582],[110.27237,-7.53576],[110.27248,-7.53572],[110.27255,-7.5357],[110.27261,-7.53568],[110.27267,-7.53564],[110.27274,-7.53564],[110.27281,-7.53562],[110.27289,-7.53558],[110.27295,-7.53554],[110.273,-7.53555],[110.27303,-7.53556],[110.27308,-7.5356],[110.27317,-7.53568],[110.27322,-7.53572],[110.2733,-7.53579],[110.27338,-7.53594],[110.2734,-7.53596],[110.27345,-7.53595],[110.2735,-7.53589],[110.27354,-7.53579],[110.27356,-7.53565],[110.27356,-7.53551],[110.27357,-7.53534],[110.27359,-7.53524],[110.2736,-7.53517],[110.27362,-7.53512],[110.27364,-7.53508],[110.2737,-7.53504],[110.27373,-7.535],[110.27378,-7.53489],[110.27388,-7.53474],[110.27398,-7.53467],[110.27405,-7.53464],[110.27421,-7.53458],[110.27428,-7.53455],[110.27436,-7.53451],[110.27442,-7.53447],[110.27442,-7.53446],[110.27446,-7.53447],[110.2747,-7.53459],[110.27511,-7.53476],[110.27523,-7.53476],[110.27528,-7.53471],[110.27534,-7.5346],[110.27539,-7.53447],[110.27543,-7.53443],[110.27546,-7.53439],[110.27552,-7.53433],[110.27557,-7.53426],[110.27564,-7.53412],[110.27566,-7.53406],[110.27568,-7.53397],[110.27572,-7.53388],[110.27576,-7.5338],[110.2758,-7.53374],[110.27584,-7.53356],[110.27594,-7.53338],[110.27597,-7.53328],[110.27598,-7.53315],[110.27601,-7.53301],[110.27606,-7.53294],[110.27627,-7.53303],[110.2765,-7.53311],[110.27691,-7.53317],[110.27701,-7.5332],[110.27706,-7.53321],[110.27713,-7.53323],[110.27722,-7.53321],[110.27734,-7.53324],[110.27742,-7.53327],[110.27754,-7.53333],[110.27761,-7.53341],[110.27765,-7.53345],[110.27767,-7.5335],[110.27768,-7.53352],[110.27776,-7.53351],[110.27783,-7.53352],[110.27793,-7.53356],[110.278,-7.53362],[110.27808,-7.53369],[110.2781,-7.53374],[110.27826,-7.53389],[110.2784,-7.53403],[110.27862,-7.53421],[110.27863,-7.53423],[110.27869,-7.53428],[110.27868,-7.5343],[110.27864,-7.53434],[110.27862,-7.53437],[110.27859,-7.53444],[110.27855,-7.53449],[110.2785,-7.53454],[110.27848,-7.53459],[110.27847,-7.53463],[110.27852,-7.53473],[110.27856,-7.5348],[110.27859,-7.53484],[110.27861,-7.53488],[110.27861,-7.53497],[110.27857,-7.53504],[110.27849,-7.53513],[110.27835,-7.53524],[110.27821,-7.53534],[110.27838,-7.53555],[110.27851,-7.5357],[110.27862,-7.53586],[110.27868,-7.53599],[110.27875,-7.53614],[110.27881,-7.5363],[110.27884,-7.5364],[110.27887,-7.53647],[110.27895,-7.53653],[110.27908,-7.5366],[110.27931,-7.53661],[110.27966,-7.5366],[110.27997,-7.5366],[110.28007,-7.53655],[110.28013,-7.53651],[110.28031,-7.53638],[110.28052,-7.53623],[110.28077,-7.53612],[110.28104,-7.53603],[110.28125,-7.53597],[110.28143,-7.53593],[110.28159,-7.53592],[110.28158,-7.53599],[110.28128,-7.53605],[110.28101,-7.53613],[110.28104,-7.53629],[110.28095,-7.53629],[110.28084,-7.53632],[110.28077,-7.53635],[110.28068,-7.5364],[110.28061,-7.53645],[110.28057,-7.53649],[110.28052,-7.53657],[110.28049,-7.53663],[110.28045,-7.53675],[110.28036,-7.53681],[110.28019,-7.53692],[110.27965,-7.53703],[110.27951,-7.53705],[110.27931,-7.53738],[110.27937,-7.53741],[110.2794,-7.53754],[110.27961,-7.53752],[110.27937,-7.53774],[110.27951,-7.53813],[110.27962,-7.53838],[110.27987,-7.53856],[110.27988,-7.53862],[110.27986,-7.53874],[110.27977,-7.53884],[110.27968,-7.53877],[110.27952,-7.53869],[110.27941,-7.53866],[110.2793,-7.53867],[110.27921,-7.53869],[110.2792,-7.53872],[110.27915,-7.53873],[110.27906,-7.53877],[110.27888,-7.53887],[110.27869,-7.53897],[110.27862,-7.539],[110.27857,-7.53901],[110.27854,-7.53901],[110.27848,-7.53899],[110.27842,-7.53894],[110.27834,-7.53891],[110.27829,-7.53889],[110.27823,-7.53888],[110.27811,-7.53888],[110.27806,-7.53889],[110.27802,-7.53889],[110.27798,-7.53892],[110.27795,-7.53893],[110.27791,-7.53897],[110.2779,-7.53899],[110.27789,-7.53902],[110.27789,-7.53904],[110.2779,-7.53907],[110.27792,-7.53912],[110.27794,-7.53915],[110.27798,-7.53919],[110.278,-7.53922],[110.27801,-7.53925],[110.27802,-7.53927],[110.27803,-7.53931],[110.27803,-7.53938],[110.27802,-7.53944],[110.27799,-7.53952],[110.27795,-7.53958],[110.27791,-7.53959],[110.27786,-7.5396],[110.27779,-7.5396],[110.27773,-7.53958],[110.27766,-7.53956],[110.27758,-7.53952],[110.27755,-7.53949],[110.27752,-7.53945],[110.27749,-7.53939],[110.27747,-7.53934],[110.27746,-7.53928],[110.27745,-7.53911],[110.27745,-7.53887],[110.27744,-7.53872],[110.27745,-7.53863],[110.27744,-7.53858],[110.27743,-7.53854],[110.27739,-7.53846],[110.27737,-7.53845],[110.27734,-7.53843],[110.27728,-7.53842],[110.27725,-7.53841],[110.27719,-7.5384],[110.27711,-7.5384],[110.2769,-7.53842],[110.27681,-7.53843],[110.27677,-7.53845],[110.27672,-7.53847],[110.27668,-7.5385],[110.27665,-7.53854],[110.2766,-7.53865],[110.27654,-7.53879],[110.27642,-7.53898],[110.27623,-7.53919],[110.27607,-7.53935],[110.27597,-7.53943],[110.27582,-7.5395],[110.27572,-7.53951],[110.27568,-7.53952],[110.2756,-7.5395],[110.27557,-7.53948],[110.27552,-7.53943],[110.27548,-7.53937],[110.27544,-7.53922],[110.27538,-7.53899],[110.27534,-7.53886],[110.27531,-7.53882],[110.27529,-7.53879],[110.27526,-7.53877],[110.27522,-7.53874],[110.27517,-7.53873],[110.2751,-7.53873],[110.27506,-7.53874],[110.27501,-7.53876],[110.27496,-7.53879],[110.27489,-7.53885],[110.27477,-7.53902],[110.27464,-7.53922],[110.27455,-7.53939],[110.27449,-7.53957],[110.27444,-7.53975],[110.27442,-7.53992],[110.27441,-7.54007],[110.2744,-7.5402],[110.27437,-7.54035],[110.27433,-7.54049],[110.27429,-7.54058],[110.27424,-7.54068],[110.2742,-7.54074],[110.27413,-7.5408],[110.27398,-7.5409],[110.27369,-7.54108],[110.27351,-7.54122],[110.27343,-7.54131],[110.27336,-7.5414],[110.27318,-7.54173],[110.27312,-7.54186],[110.27309,-7.5419],[110.27307,-7.54193],[110.27304,-7.54196],[110.273,-7.54198],[110.27295,-7.542],[110.27287,-7.54201],[110.27279,-7.542],[110.2727,-7.54199],[110.27257,-7.54195],[110.27251,-7.54193],[110.27246,-7.54193],[110.27241,-7.54194],[110.27238,-7.54196],[110.27234,-7.54199],[110.27231,-7.54204],[110.27226,-7.5422],[110.27218,-7.54248],[110.27216,-7.54257],[110.27213,-7.54262],[110.27208,-7.54271],[110.27201,-7.54281],[110.27199,-7.54284],[110.27198,-7.54287],[110.27198,-7.5429],[110.27199,-7.54293],[110.272,-7.54295],[110.27204,-7.54299],[110.2721,-7.54301],[110.27217,-7.54303],[110.27225,-7.54303],[110.27236,-7.54304],[110.27246,-7.54302],[110.27255,-7.54301],[110.27269,-7.54301],[110.27275,-7.54302],[110.27279,-7.54304],[110.27283,-7.54307],[110.27286,-7.54309],[110.27289,-7.54312],[110.2729,-7.54314],[110.27304,-7.54301],[110.2732,-7.54282],[110.27348,-7.54255],[110.27349,-7.54256],[110.27357,-7.54269],[110.27359,-7.54281],[110.27371,-7.54309],[110.27386,-7.54348],[110.27411,-7.54348],[110.27424,-7.54345],[110.27439,-7.54347],[110.27464,-7.54356],[110.2749,-7.54356],[110.27505,-7.54357],[110.27523,-7.54349],[110.27542,-7.5434],[110.27562,-7.54318],[110.27586,-7.54314],[110.27603,-7.54316],[110.27631,-7.54327],[110.27669,-7.54349],[110.27683,-7.54358],[110.27696,-7.54368],[110.277,-7.54373],[110.27706,-7.54382],[110.27707,-7.54402],[110.27711,-7.54413],[110.27721,-7.54438],[110.27727,-7.5445],[110.27733,-7.54461],[110.27745,-7.54473],[110.27767,-7.54476],[110.27789,-7.5447],[110.27807,-7.5445],[110.27825,-7.54445],[110.27829,-7.54452],[110.27836,-7.54483],[110.27828,-7.54492],[110.27829,-7.54515],[110.27834,-7.5454],[110.27837,-7.54542],[110.27846,-7.54542],[110.27854,-7.54564],[110.27869,-7.54596],[110.27872,-7.54604],[110.27889,-7.54588],[110.2791,-7.54576],[110.27905,-7.54587],[110.27892,-7.54605],[110.27903,-7.54622],[110.27905,-7.54642],[110.2791,-7.54661],[110.27912,-7.54673],[110.27909,-7.54685],[110.27904,-7.54703],[110.279,-7.54714],[110.27893,-7.54724],[110.27888,-7.54738],[110.27892,-7.54753],[110.27892,-7.54756],[110.27866,-7.54761],[110.27852,-7.54765],[110.27821,-7.54774],[110.27799,-7.5478],[110.27776,-7.54783],[110.27773,-7.54785],[110.2777,-7.54788],[110.27765,-7.54792],[110.27763,-7.54794],[110.27762,-7.54797],[110.27762,-7.54803],[110.27763,-7.54808],[110.27767,-7.54819],[110.27776,-7.54839],[110.2778,-7.54848],[110.27782,-7.54851],[110.27788,-7.54853],[110.27798,-7.54854],[110.27816,-7.54854],[110.2783,-7.54851],[110.27837,-7.5485],[110.2784,-7.54839],[110.27849,-7.54849],[110.27862,-7.54846],[110.27871,-7.54843],[110.2788,-7.54843],[110.27883,-7.54837],[110.27887,-7.54835],[110.27898,-7.54838],[110.27908,-7.54838],[110.27924,-7.54839],[110.27928,-7.54841],[110.27929,-7.54841],[110.27935,-7.54849],[110.27941,-7.54853],[110.27942,-7.54864],[110.27942,-7.54876],[110.27944,-7.54888],[110.27947,-7.54897],[110.27948,-7.54917],[110.27948,-7.5492],[110.27949,-7.54943],[110.27948,-7.54961],[110.27948,-7.54972],[110.27953,-7.54979],[110.27957,-7.54987],[110.27957,-7.55004],[110.27953,-7.55027],[110.27955,-7.55035],[110.27959,-7.55038],[110.27971,-7.55043],[110.27984,-7.55037],[110.27991,-7.55034],[110.28001,-7.55031],[110.2801,-7.55035],[110.28026,-7.55044],[110.28042,-7.55056],[110.28039,-7.55067],[110.2804,-7.55076],[110.2805,-7.55079],[110.28063,-7.55084],[110.28077,-7.55093],[110.28087,-7.55096],[110.28095,-7.55104],[110.28106,-7.55114],[110.28121,-7.55103],[110.28136,-7.55087],[110.28159,-7.55073],[110.28188,-7.55071],[110.28211,-7.55076],[110.2823,-7.55078],[110.28234,-7.55092],[110.28221,-7.55104],[110.28192,-7.55118],[110.28175,-7.55132],[110.28143,-7.55144],[110.2811,-7.55149],[110.28113,-7.5516],[110.28118,-7.5518],[110.28127,-7.55196],[110.28132,-7.5521],[110.28143,-7.55218],[110.28158,-7.5522],[110.28178,-7.55219],[110.28182,-7.55227],[110.28167,-7.5523],[110.28151,-7.55231],[110.28159,-7.55241],[110.28174,-7.55239],[110.2821,-7.55248],[110.28228,-7.55264],[110.28226,-7.55282],[110.28235,-7.55303],[110.28253,-7.55333],[110.28264,-7.55356],[110.28261,-7.55368],[110.28266,-7.55394],[110.28264,-7.55412],[110.28277,-7.55439],[110.28269,-7.5546],[110.28259,-7.55472],[110.28258,-7.55476],[110.28256,-7.55481],[110.28243,-7.55497],[110.28225,-7.55515],[110.28207,-7.55528],[110.28178,-7.55528],[110.28174,-7.55553],[110.28186,-7.55562],[110.282,-7.55573],[110.28195,-7.55593],[110.28202,-7.55605],[110.28208,-7.55612],[110.28176,-7.55625],[110.2815,-7.55638],[110.28129,-7.55648],[110.28111,-7.5566],[110.28104,-7.55665],[110.281,-7.55669],[110.28094,-7.55672],[110.28079,-7.55678],[110.28042,-7.55693],[110.28007,-7.55709],[110.27998,-7.55713],[110.2799,-7.55716],[110.2797,-7.55722],[110.27952,-7.55728],[110.27922,-7.55742],[110.27912,-7.55747],[110.27907,-7.55748],[110.27896,-7.55749],[110.27857,-7.5575],[110.27833,-7.5575],[110.27826,-7.55752],[110.27819,-7.55756],[110.27813,-7.5576],[110.27807,-7.55767],[110.27799,-7.55777],[110.27798,-7.55779],[110.27792,-7.55785],[110.2778,-7.55791],[110.27768,-7.55799],[110.2776,-7.55803],[110.27757,-7.55805],[110.27754,-7.55805],[110.27753,-7.55806],[110.27752,-7.55808],[110.2775,-7.5581],[110.27744,-7.55813],[110.27734,-7.55816],[110.27726,-7.55834],[110.27741,-7.55839],[110.27759,-7.55846],[110.27741,-7.55862],[110.27742,-7.55863],[110.27746,-7.5587],[110.27741,-7.55876],[110.2773,-7.55882],[110.27706,-7.55892],[110.27685,-7.55906],[110.2769,-7.55914],[110.27711,-7.55942],[110.2772,-7.55934],[110.27728,-7.55948],[110.27738,-7.55973],[110.27741,-7.55981],[110.27744,-7.5598],[110.27744,-7.55999],[110.27752,-7.5602],[110.27768,-7.56051],[110.27781,-7.56076],[110.27788,-7.56073],[110.27812,-7.56109],[110.27826,-7.56109],[110.27822,-7.56124],[110.27829,-7.56133],[110.27839,-7.56133],[110.2786,-7.5613],[110.27885,-7.56124],[110.2788,-7.56144],[110.27876,-7.56158],[110.27897,-7.56166],[110.27911,-7.56167],[110.27929,-7.56172],[110.27944,-7.56179],[110.2793,-7.5619],[110.27923,-7.56204],[110.27925,-7.56227],[110.27926,-7.56245],[110.27904,-7.5625],[110.27895,-7.56251],[110.2788,-7.56259],[110.27869,-7.5627],[110.27893,-7.56278],[110.27918,-7.56299],[110.27937,-7.56318],[110.27952,-7.56328],[110.27977,-7.56326],[110.27985,-7.56331],[110.27991,-7.56358],[110.27999,-7.56392],[110.27999,-7.56393],[110.27997,-7.56418],[110.27996,-7.56423],[110.27998,-7.56417],[110.27999,-7.56415],[110.2801,-7.56391],[110.28016,-7.56378],[110.28029,-7.56331],[110.28035,-7.56303],[110.28036,-7.56296],[110.28043,-7.56271],[110.28048,-7.56256],[110.28054,-7.56237],[110.28068,-7.56202],[110.28077,-7.56184],[110.28093,-7.56172],[110.28123,-7.56149],[110.28128,-7.56145],[110.28147,-7.56129],[110.28177,-7.56117],[110.28195,-7.56115],[110.28227,-7.5611],[110.28252,-7.56113],[110.28277,-7.56104],[110.28297,-7.56101],[110.28326,-7.56108],[110.28371,-7.56118],[110.28423,-7.56124],[110.28465,-7.56129],[110.28505,-7.56127],[110.28554,-7.56117],[110.28578,-7.56103],[110.28585,-7.561],[110.28602,-7.56053],[110.28616,-7.56007],[110.28607,-7.55966],[110.28601,-7.55931],[110.28606,-7.55913],[110.28619,-7.55904],[110.28636,-7.55895],[110.28648,-7.55882],[110.28655,-7.55865],[110.2866,-7.55806],[110.2866,-7.55803],[110.28683,-7.5577],[110.28723,-7.55733],[110.28769,-7.55708],[110.28814,-7.55696],[110.28857,-7.55681],[110.28871,-7.55677],[110.28895,-7.5567],[110.28919,-7.5565],[110.28937,-7.55636],[110.2897,-7.5561],[110.29004,-7.5559],[110.29071,-7.55561],[110.29166,-7.55523],[110.29194,-7.55517],[110.29349,-7.55485],[110.29369,-7.5547],[110.29436,-7.55423],[110.29561,-7.5531],[110.29636,-7.5526],[110.29708,-7.55229],[110.29753,-7.55206],[110.29788,-7.55179],[110.29842,-7.55138],[110.29917,-7.55099],[110.30016,-7.55047],[110.30104,-7.54969],[110.30291,-7.54847],[110.30343,-7.54817],[110.30361,-7.54807],[110.30367,-7.54798],[110.30391,-7.54765],[110.30411,-7.54736],[110.30429,-7.54728],[110.30485,-7.54703],[110.30553,-7.54698],[110.30635,-7.5469],[110.30716,-7.54686],[110.30745,-7.54674],[110.30839,-7.54634],[110.30895,-7.54654],[110.30904,-7.54657],[110.30929,-7.54647],[110.31013,-7.54613],[110.31104,-7.54567],[110.31189,-7.54522],[110.31281,-7.54469],[110.31321,-7.54446],[110.31403,-7.54398],[110.31406,-7.54396],[110.3141,-7.54395],[110.31454,-7.54377],[110.3148,-7.54368],[110.31489,-7.54369],[110.31573,-7.54382],[110.31704,-7.54395],[110.31761,-7.54399],[110.31767,-7.54399],[110.31786,-7.5441],[110.31808,-7.54423],[110.31824,-7.5442],[110.31934,-7.54402],[110.31952,-7.54397],[110.32007,-7.54383],[110.3204,-7.54364],[110.32088,-7.54326],[110.32114,-7.54305],[110.3212,-7.543],[110.32155,-7.5427],[110.32241,-7.54225],[110.32301,-7.54195],[110.32418,-7.54134],[110.32465,-7.54117],[110.32532,-7.54092],[110.32541,-7.54085],[110.3258,-7.54053],[110.32645,-7.54037],[110.32647,-7.54037],[110.32648,-7.54036],[110.32714,-7.54008],[110.32749,-7.54005],[110.32766,-7.54003],[110.32837,-7.53947],[110.32844,-7.53942],[110.32862,-7.53932],[110.32909,-7.53904],[110.32926,-7.53898],[110.32971,-7.53882],[110.33045,-7.53874],[110.33049,-7.53878],[110.33063,-7.53895],[110.33098,-7.53898],[110.33139,-7.53875],[110.33185,-7.53866],[110.33221,-7.53857],[110.33242,-7.5384],[110.33243,-7.53839],[110.33262,-7.53826],[110.33291,-7.53822],[110.33341,-7.53817],[110.33422,-7.53716],[110.33436,-7.53701],[110.33448,-7.53688],[110.33494,-7.53658],[110.3355,-7.53644],[110.33557,-7.53642],[110.33657,-7.53644],[110.33668,-7.53644],[110.33673,-7.53642],[110.33688,-7.53633],[110.33689,-7.53631],[110.33698,-7.5361],[110.33702,-7.53605],[110.33744,-7.53559],[110.33788,-7.53512],[110.33823,-7.53509],[110.33828,-7.53509],[110.33858,-7.53466],[110.3387,-7.53461],[110.33875,-7.53459],[110.33964,-7.53469],[110.33978,-7.53458],[110.33984,-7.53453],[110.33984,-7.53452],[110.34005,-7.53427],[110.34022,-7.53381],[110.34031,-7.53356],[110.34032,-7.53355],[110.34048,-7.5334],[110.34063,-7.53325],[110.34064,-7.53325],[110.34089,-7.53285],[110.34164,-7.5324],[110.34165,-7.53239],[110.34185,-7.53215],[110.34197,-7.53197],[110.34201,-7.53192],[110.34217,-7.53152],[110.34225,-7.53131],[110.34231,-7.53125],[110.34262,-7.53097],[110.34266,-7.53096],[110.34303,-7.53085],[110.34305,-7.53084],[110.344,-7.53056],[110.34428,-7.53048],[110.3445,-7.53042],[110.34548,-7.52993],[110.34582,-7.5298],[110.34589,-7.52978],[110.34653,-7.52976],[110.34733,-7.52983],[110.34747,-7.52983],[110.34774,-7.52984],[110.34782,-7.5298],[110.34807,-7.52968],[110.3482,-7.52953],[110.34831,-7.52946],[110.34848,-7.52936],[110.34891,-7.52896],[110.34934,-7.52853],[110.3494,-7.52846],[110.34941,-7.52845],[110.34956,-7.52814],[110.34957,-7.52813],[110.34962,-7.52786],[110.34968,-7.52764],[110.34969,-7.5276],[110.34969,-7.52746],[110.34967,-7.52723],[110.34979,-7.52684],[110.35004,-7.52665],[110.35014,-7.52644],[110.35023,-7.52622],[110.35036,-7.52598],[110.35047,-7.52586],[110.35063,-7.52574],[110.35092,-7.5256],[110.35125,-7.5255],[110.35161,-7.52537],[110.3519,-7.52519],[110.35194,-7.52517],[110.35218,-7.52502],[110.35225,-7.52492],[110.35232,-7.52481],[110.35249,-7.52447],[110.3526,-7.52417],[110.35266,-7.5241],[110.3528,-7.52392],[110.35279,-7.52382],[110.35276,-7.52355],[110.35275,-7.52338],[110.35281,-7.52321],[110.3532,-7.52291],[110.35329,-7.52285],[110.35432,-7.52224],[110.35497,-7.52176],[110.3554,-7.52158],[110.35624,-7.52123],[110.35669,-7.52104],[110.35733,-7.52076],[110.3575,-7.52068],[110.3578,-7.52053],[110.35822,-7.52036],[110.35848,-7.52025],[110.35893,-7.52003],[110.35922,-7.51997],[110.35966,-7.51996],[110.36011,-7.51988],[110.36036,-7.51981],[110.36048,-7.51978],[110.36101,-7.51967],[110.36156,-7.51956],[110.36205,-7.5193],[110.36284,-7.51914],[110.36353,-7.51898],[110.36384,-7.51892],[110.36401,-7.5189],[110.36421,-7.5188],[110.36448,-7.51873],[110.3647,-7.5186],[110.36498,-7.51853],[110.36534,-7.51845],[110.36557,-7.51846],[110.36598,-7.51848],[110.36623,-7.51849],[110.36783,-7.51883],[110.36901,-7.5184],[110.36989,-7.51752],[110.37002,-7.51752],[110.37021,-7.51749],[110.37041,-7.51744],[110.3707,-7.51739],[110.37098,-7.51732],[110.37122,-7.51725],[110.37126,-7.51723],[110.37166,-7.51704],[110.37201,-7.51681],[110.37237,-7.51652],[110.37252,-7.51631],[110.37265,-7.51599],[110.37265,-7.51569],[110.37266,-7.51511],[110.37272,-7.51488],[110.37283,-7.51467],[110.37296,-7.51449],[110.37312,-7.51432],[110.37327,-7.51401],[110.37333,-7.51399],[110.37343,-7.51399],[110.37349,-7.51396],[110.37361,-7.51388],[110.37371,-7.51378],[110.37372,-7.51373],[110.37376,-7.51354],[110.37378,-7.51342],[110.3738,-7.51331],[110.37385,-7.51312],[110.37387,-7.51306],[110.37392,-7.513],[110.37395,-7.51299],[110.37398,-7.51297],[110.37404,-7.51295],[110.37412,-7.51294],[110.37416,-7.51293],[110.37434,-7.51291],[110.37447,-7.51289],[110.37454,-7.51288],[110.37486,-7.51288],[110.37505,-7.51281],[110.3752,-7.51266],[110.37532,-7.51253],[110.37536,-7.5125],[110.3754,-7.51248],[110.37545,-7.51245],[110.3756,-7.51242],[110.37583,-7.51242],[110.37598,-7.51241],[110.37606,-7.51239],[110.37613,-7.51236],[110.37623,-7.51231],[110.37634,-7.5122],[110.37644,-7.51212],[110.3765,-7.51209],[110.37656,-7.51208],[110.37667,-7.51208],[110.37676,-7.5121],[110.37681,-7.51214],[110.37687,-7.51221],[110.37692,-7.51228],[110.37698,-7.51235],[110.37717,-7.51254],[110.37732,-7.51259],[110.37747,-7.51259],[110.37736,-7.51248],[110.37726,-7.51233],[110.37713,-7.51212],[110.37774,-7.51182],[110.37777,-7.51181],[110.37796,-7.51188],[110.37857,-7.51147],[110.37909,-7.51134],[110.37974,-7.51111],[110.37986,-7.51101],[110.38011,-7.51083],[110.38037,-7.51064],[110.38058,-7.51048],[110.38075,-7.51035],[110.38081,-7.51032],[110.38101,-7.5102],[110.38129,-7.5102],[110.38137,-7.51021],[110.3814,-7.51021],[110.38163,-7.51022],[110.38183,-7.51024],[110.38201,-7.51024],[110.38224,-7.5102],[110.38235,-7.51019],[110.38256,-7.51013],[110.38278,-7.50992],[110.38289,-7.5097],[110.38292,-7.50939],[110.38295,-7.50915],[110.38298,-7.50908],[110.38312,-7.50905],[110.38341,-7.50896],[110.38358,-7.50885],[110.38374,-7.50853],[110.38399,-7.50819],[110.3841,-7.50805],[110.38429,-7.50798],[110.38444,-7.50796],[110.38451,-7.50795],[110.3846,-7.50794],[110.38491,-7.50786],[110.38581,-7.50744],[110.38622,-7.50726],[110.38659,-7.50724],[110.38706,-7.5073],[110.38714,-7.50732],[110.38719,-7.50733],[110.38737,-7.50738],[110.38745,-7.50733],[110.38756,-7.50728],[110.38775,-7.5072],[110.38817,-7.50712],[110.38835,-7.50703],[110.38853,-7.50681],[110.38896,-7.50613],[110.38947,-7.50542],[110.38959,-7.50525],[110.38965,-7.50516],[110.39017,-7.50471],[110.39043,-7.50442],[110.39052,-7.50431],[110.3908,-7.50386],[110.39111,-7.50363],[110.39147,-7.50347],[110.39158,-7.50345],[110.39168,-7.50342],[110.39191,-7.50337],[110.39208,-7.50318],[110.39214,-7.503],[110.39217,-7.5029],[110.39229,-7.5027],[110.3923,-7.50268],[110.39294,-7.50177],[110.39295,-7.50174],[110.393,-7.50165],[110.39311,-7.50143],[110.39316,-7.50131],[110.39319,-7.50125],[110.39323,-7.5011],[110.39327,-7.5009],[110.39342,-7.50051],[110.39342,-7.50049],[110.39349,-7.50036],[110.39355,-7.50029],[110.39366,-7.50025],[110.39368,-7.50025],[110.3938,-7.5003],[110.39389,-7.5004],[110.39397,-7.50051],[110.394,-7.50056],[110.39413,-7.50068],[110.39419,-7.50074],[110.39438,-7.50083],[110.39455,-7.50091],[110.39481,-7.50093],[110.39503,-7.50082],[110.39515,-7.50061],[110.3952,-7.50027],[110.39518,-7.50005],[110.39515,-7.49975],[110.39513,-7.4994],[110.39519,-7.49899],[110.39525,-7.49871],[110.39542,-7.49862],[110.39556,-7.49864],[110.39568,-7.49865],[110.3958,-7.4987],[110.39589,-7.49871],[110.396,-7.49872],[110.39611,-7.49875],[110.3962,-7.49876],[110.39622,-7.49876],[110.39627,-7.49877],[110.39651,-7.49883],[110.39688,-7.49888],[110.39729,-7.49878],[110.39731,-7.49878],[110.39745,-7.49871],[110.39755,-7.49854],[110.39755,-7.49839],[110.39743,-7.4982],[110.39743,-7.49811],[110.39746,-7.49807],[110.39765,-7.49802],[110.39791,-7.49795],[110.39826,-7.49782],[110.39857,-7.49777],[110.39873,-7.49779],[110.39905,-7.49786],[110.39928,-7.4979],[110.40046,-7.49806],[110.40069,-7.49809],[110.4009,-7.49811],[110.40106,-7.4981],[110.4011,-7.4981],[110.40126,-7.49805],[110.40144,-7.49806],[110.40146,-7.49807],[110.40159,-7.4981],[110.40171,-7.49825],[110.40173,-7.49838],[110.40169,-7.49857],[110.40167,-7.49882],[110.40171,-7.49889],[110.40176,-7.49896],[110.40199,-7.49904],[110.40228,-7.49908],[110.40254,-7.49904],[110.4027,-7.499],[110.4028,-7.49889],[110.40291,-7.49856],[110.40298,-7.49834],[110.40306,-7.49824],[110.40328,-7.49817],[110.40349,-7.49813],[110.40358,-7.49808],[110.40369,-7.49792],[110.40385,-7.4978],[110.40403,-7.49776],[110.40418,-7.49778],[110.40433,-7.49773],[110.40443,-7.49771],[110.40452,-7.49768],[110.40473,-7.4977],[110.40488,-7.49776],[110.40497,-7.49775],[110.40503,-7.49767],[110.40508,-7.49728],[110.40512,-7.49722],[110.40517,-7.49717],[110.40522,-7.49715],[110.40529,-7.49715],[110.40535,-7.49718],[110.40541,-7.49719],[110.40551,-7.49729],[110.40557,-7.49741],[110.40561,-7.4975],[110.40585,-7.49787],[110.406,-7.49807],[110.40605,-7.49814],[110.4061,-7.49822],[110.40632,-7.49844],[110.40651,-7.4985],[110.40662,-7.49854],[110.40672,-7.49855],[110.40685,-7.49856],[110.40694,-7.49859],[110.40697,-7.49863],[110.40714,-7.49881],[110.40745,-7.49906],[110.40778,-7.49924],[110.40794,-7.49928],[110.40811,-7.49921],[110.4082,-7.49912],[110.40825,-7.49908],[110.40832,-7.49894],[110.4084,-7.49869],[110.40856,-7.49847],[110.40871,-7.49832],[110.40871,-7.49831],[110.40881,-7.49821],[110.4089,-7.4981],[110.40895,-7.498],[110.40903,-7.49793],[110.40906,-7.49791],[110.4091,-7.49788],[110.4092,-7.49784],[110.40926,-7.49779],[110.40929,-7.49777],[110.4093,-7.49774],[110.40938,-7.4977],[110.40952,-7.49754],[110.40971,-7.49747],[110.40989,-7.49749],[110.41007,-7.49757],[110.41014,-7.49755],[110.41016,-7.49754],[110.41024,-7.49739],[110.41024,-7.49723],[110.41026,-7.49712],[110.41028,-7.49707],[110.4103,-7.49701],[110.41045,-7.49688],[110.41061,-7.49684],[110.41073,-7.49685],[110.41083,-7.4969],[110.41087,-7.49691],[110.41089,-7.49691],[110.41098,-7.49692],[110.41105,-7.4969],[110.41107,-7.49683],[110.41105,-7.49676],[110.41105,-7.49674],[110.41104,-7.49662],[110.41106,-7.49655],[110.41114,-7.4965],[110.4112,-7.49649],[110.4113,-7.49647],[110.41139,-7.49649],[110.41155,-7.49667],[110.41163,-7.49672],[110.41172,-7.49678],[110.41182,-7.49677],[110.41185,-7.49677],[110.41186,-7.49676],[110.41191,-7.49673],[110.41195,-7.49667],[110.41198,-7.49663],[110.412,-7.4966],[110.41202,-7.49656],[110.41204,-7.49654],[110.41206,-7.49651],[110.41207,-7.49649],[110.41211,-7.49643],[110.41214,-7.4964],[110.41216,-7.49636],[110.41218,-7.49634],[110.41219,-7.49632],[110.41226,-7.49625],[110.41228,-7.49622],[110.41233,-7.49622],[110.41236,-7.49621],[110.41238,-7.49623],[110.41243,-7.49625],[110.41247,-7.49627],[110.41248,-7.49628],[110.4125,-7.49629],[110.41253,-7.4963],[110.41255,-7.49632],[110.41258,-7.49633],[110.4126,-7.49634],[110.41261,-7.49635],[110.41264,-7.49636],[110.41266,-7.49638],[110.41269,-7.49639],[110.41271,-7.49641],[110.41273,-7.49642],[110.41284,-7.49642],[110.41287,-7.49643],[110.41296,-7.49643],[110.41307,-7.49644],[110.41315,-7.49649],[110.41329,-7.49656],[110.41342,-7.49668],[110.41349,-7.49675],[110.41354,-7.49681],[110.41374,-7.49682],[110.41392,-7.49672],[110.41405,-7.4966],[110.41411,-7.49654],[110.41424,-7.49644],[110.4143,-7.49642],[110.41441,-7.49637],[110.41455,-7.49631],[110.4146,-7.49629],[110.41473,-7.49621],[110.41476,-7.49619],[110.41481,-7.49616],[110.41489,-7.49611],[110.41508,-7.49603],[110.41519,-7.49598],[110.41531,-7.49593],[110.41534,-7.49592],[110.41548,-7.49585],[110.41555,-7.49575],[110.4156,-7.49572],[110.41574,-7.49571],[110.41586,-7.49569],[110.41595,-7.49561],[110.41602,-7.49559],[110.41609,-7.49559],[110.41611,-7.4956],[110.41614,-7.4956],[110.41624,-7.49559],[110.41631,-7.49552],[110.41635,-7.49544],[110.41642,-7.4954],[110.4165,-7.49538],[110.41656,-7.49533],[110.41656,-7.49504],[110.41658,-7.49498],[110.41659,-7.49497],[110.41662,-7.49498],[110.41664,-7.49496],[110.41668,-7.4949],[110.41673,-7.49485],[110.41676,-7.49485],[110.41679,-7.49483],[110.41689,-7.49475],[110.41696,-7.49461],[110.41699,-7.49442],[110.41701,-7.49438],[110.41707,-7.49427],[110.41716,-7.49418],[110.41734,-7.49417],[110.41752,-7.49417],[110.41765,-7.49414],[110.41766,-7.49402],[110.41766,-7.49388],[110.41772,-7.49372],[110.4178,-7.49356],[110.41785,-7.49348],[110.41785,-7.49338],[110.41783,-7.49325],[110.41783,-7.49305],[110.41796,-7.49291],[110.41811,-7.49276],[110.41811,-7.49249],[110.41819,-7.49235],[110.41833,-7.49223],[110.41846,-7.49218],[110.41855,-7.49209],[110.41889,-7.49169],[110.41938,-7.49115],[110.41954,-7.49093],[110.41994,-7.49061],[110.42015,-7.49018],[110.42039,-7.48963],[110.42062,-7.48935],[110.42104,-7.48898],[110.4215,-7.48871],[110.42174,-7.48856],[110.42183,-7.48851],[110.422,-7.4884],[110.42224,-7.48826],[110.42243,-7.48814],[110.42262,-7.48798],[110.42271,-7.48786],[110.42292,-7.48762],[110.42304,-7.48751],[110.42333,-7.4873],[110.42357,-7.48714],[110.42375,-7.48697],[110.42396,-7.48675],[110.42403,-7.48647],[110.42411,-7.48622],[110.42426,-7.48585],[110.42428,-7.48572],[110.42428,-7.48571],[110.42423,-7.48546],[110.42423,-7.48533],[110.42431,-7.48505],[110.42447,-7.48466],[110.42466,-7.4842],[110.42489,-7.48384],[110.42495,-7.48374],[110.4253,-7.48318],[110.4256,-7.48259],[110.42565,-7.48251],[110.42579,-7.48227],[110.42593,-7.48206],[110.42618,-7.48171],[110.4265,-7.48145],[110.42688,-7.48109],[110.42693,-7.481],[110.42703,-7.48079],[110.42739,-7.48039],[110.42784,-7.48008],[110.42915,-7.4792],[110.4293,-7.4791],[110.43123,-7.47787],[110.43261,-7.47653],[110.43354,-7.47467],[110.43364,-7.47449],[110.43419,-7.47263],[110.43459,-7.47131],[110.43543,-7.46955],[110.43542,-7.46952],[110.4347,-7.46771],[110.4346,-7.46693],[110.43425,-7.46595],[110.43425,-7.46581],[110.43426,-7.46506],[110.43426,-7.46505],[110.43427,-7.46502],[110.43477,-7.4638],[110.43544,-7.46268],[110.43573,-7.46226],[110.43587,-7.46178],[110.43591,-7.46154],[110.43604,-7.461],[110.43605,-7.46096],[110.43606,-7.46089],[110.43607,-7.46075],[110.43621,-7.46032],[110.43626,-7.46016],[110.43641,-7.45972],[110.43655,-7.45934],[110.43659,-7.45919],[110.4366,-7.45916],[110.43665,-7.45899],[110.43678,-7.4585],[110.43687,-7.45834],[110.43692,-7.45817],[110.437,-7.45798],[110.43722,-7.4574],[110.43733,-7.45714],[110.43759,-7.45671],[110.43775,-7.45632],[110.43787,-7.45607],[110.43805,-7.45568],[110.43807,-7.45563],[110.43812,-7.45544],[110.4382,-7.45526],[110.43842,-7.45477],[110.43849,-7.45467],[110.43871,-7.45438],[110.43877,-7.45429],[110.43893,-7.45411],[110.43895,-7.4541],[110.4391,-7.4539],[110.43915,-7.45384],[110.43927,-7.45369],[110.43928,-7.45366],[110.43931,-7.45363],[110.43931,-7.45362],[110.43932,-7.45361],[110.43933,-7.45361],[110.43933,-7.4536],[110.43934,-7.4536],[110.43935,-7.45358],[110.43932,-7.45357],[110.4393,-7.45355],[110.43928,-7.45354],[110.43927,-7.45354],[110.43923,-7.45353],[110.43918,-7.45352],[110.43877,-7.45343],[110.43872,-7.45342],[110.43825,-7.45322],[110.43816,-7.45317],[110.43784,-7.45298],[110.43765,-7.45286],[110.43749,-7.45277],[110.43708,-7.45244],[110.43702,-7.45239],[110.43697,-7.45236],[110.43667,-7.45212],[110.43661,-7.45206],[110.43642,-7.45185],[110.43632,-7.45174],[110.43628,-7.45169],[110.43611,-7.45148],[110.43583,-7.45113],[110.43572,-7.45099],[110.43525,-7.4504],[110.43503,-7.45051],[110.43464,-7.4507],[110.4346,-7.45072],[110.43426,-7.45078],[110.43395,-7.45085],[110.4336,-7.45095],[110.43344,-7.451],[110.43324,-7.45104],[110.43307,-7.45106],[110.43301,-7.45107],[110.43263,-7.45109],[110.43206,-7.45115],[110.4318,-7.45116],[110.43145,-7.45117],[110.43114,-7.45116],[110.43105,-7.45116],[110.43066,-7.45115],[110.43051,-7.45123],[110.43013,-7.45144],[110.42989,-7.45155],[110.4297,-7.45155],[110.42893,-7.45157],[110.42847,-7.45166],[110.42808,-7.45174],[110.42775,-7.4518],[110.4274,-7.45186],[110.42672,-7.45216],[110.42506,-7.45253],[110.4246,-7.45259],[110.42401,-7.45262],[110.42353,-7.4527],[110.42319,-7.45273],[110.42292,-7.45271],[110.42261,-7.45269],[110.42221,-7.45269],[110.42192,-7.45274],[110.42161,-7.45289],[110.42126,-7.45311],[110.42087,-7.45334],[110.42041,-7.45358],[110.42006,-7.45387],[110.41982,-7.45401],[110.41907,-7.45415],[110.41812,-7.45424],[110.41667,-7.45444],[110.41431,-7.45531],[110.41372,-7.45552],[110.41295,-7.45584],[110.41207,-7.45605],[110.41144,-7.4563],[110.41089,-7.45652],[110.41055,-7.45666],[110.41035,-7.45673],[110.41029,-7.45679],[110.41004,-7.45699],[110.40995,-7.45725],[110.40988,-7.45742],[110.40976,-7.45757],[110.40947,-7.45768],[110.40925,-7.45775],[110.40912,-7.45785],[110.40902,-7.45794],[110.40878,-7.45805],[110.40841,-7.45818],[110.40819,-7.45823],[110.40796,-7.45825],[110.40768,-7.45828],[110.40749,-7.45834],[110.40738,-7.45838],[110.40729,-7.45843],[110.40719,-7.45848],[110.40704,-7.45858],[110.40682,-7.45863],[110.40655,-7.45865],[110.40637,-7.45865],[110.40619,-7.45867],[110.40599,-7.45877],[110.40586,-7.4589],[110.40571,-7.45909],[110.40564,-7.45925],[110.40562,-7.45931],[110.40555,-7.45956],[110.40545,-7.45994],[110.40539,-7.46022],[110.40537,-7.46025],[110.40527,-7.46053],[110.40513,-7.46059],[110.40491,-7.46058],[110.40464,-7.46056],[110.40403,-7.46058],[110.40367,-7.46054],[110.40341,-7.46052],[110.4032,-7.46055],[110.403,-7.46059],[110.4028,-7.46064],[110.40255,-7.46069],[110.40216,-7.46077],[110.40188,-7.46082],[110.40131,-7.46099],[110.40007,-7.46123],[110.39955,-7.4613],[110.39918,-7.46139],[110.39901,-7.46143],[110.39886,-7.46144],[110.39875,-7.46147],[110.39863,-7.4615],[110.39849,-7.46155],[110.39834,-7.46162],[110.39821,-7.46171],[110.3981,-7.4618],[110.39798,-7.46189],[110.39786,-7.46195],[110.39764,-7.46204],[110.39749,-7.46212],[110.39731,-7.46222],[110.39712,-7.4623],[110.39702,-7.46235],[110.39694,-7.46238],[110.39678,-7.46242],[110.39677,-7.46243],[110.39668,-7.4625],[110.39658,-7.46255],[110.39641,-7.46265],[110.39626,-7.46271],[110.39619,-7.46274],[110.39608,-7.46278],[110.39601,-7.4628],[110.39593,-7.46282],[110.39583,-7.46285],[110.39578,-7.46286],[110.39574,-7.46289],[110.39573,-7.46292],[110.39572,-7.46297],[110.39572,-7.46308],[110.3957,-7.46315],[110.39567,-7.46322],[110.39558,-7.46339],[110.3955,-7.46346],[110.39537,-7.46352],[110.39521,-7.46356],[110.39494,-7.46362],[110.39481,-7.46366],[110.39476,-7.46372],[110.39471,-7.46377],[110.39463,-7.46379],[110.39451,-7.46379],[110.39443,-7.46381],[110.3944,-7.46382],[110.39433,-7.46385],[110.39424,-7.46393],[110.39419,-7.46396],[110.39413,-7.464],[110.39407,-7.46403],[110.39399,-7.46414],[110.39389,-7.46425],[110.39371,-7.46443],[110.39356,-7.46456],[110.3934,-7.46471],[110.39332,-7.46478],[110.39322,-7.46485],[110.39318,-7.46491],[110.39315,-7.46496],[110.39303,-7.46509],[110.39282,-7.4653],[110.39265,-7.46544],[110.39256,-7.4655],[110.39254,-7.46553],[110.39246,-7.46563],[110.39233,-7.46574],[110.39226,-7.4658],[110.39205,-7.46596],[110.39194,-7.46601],[110.39184,-7.46606],[110.39181,-7.46607],[110.39174,-7.46609],[110.39167,-7.46615],[110.39163,-7.46618],[110.39157,-7.46622],[110.3915,-7.46626],[110.39144,-7.46628],[110.39134,-7.46631],[110.39122,-7.46635],[110.3911,-7.46643],[110.39101,-7.46648],[110.39085,-7.46656],[110.39069,-7.46663],[110.39064,-7.46667],[110.39057,-7.46671],[110.39052,-7.46674],[110.39047,-7.46679],[110.39041,-7.46683],[110.39036,-7.46687],[110.3903,-7.46694],[110.39022,-7.467],[110.39009,-7.46707],[110.38991,-7.46718],[110.38977,-7.46728],[110.38971,-7.46733],[110.38961,-7.46741],[110.38956,-7.46744],[110.3895,-7.46748],[110.38941,-7.46751],[110.38929,-7.46753],[110.38912,-7.46753],[110.38908,-7.46752],[110.389,-7.46755],[110.38895,-7.46756],[110.38886,-7.46759],[110.38877,-7.46763],[110.38865,-7.46764],[110.38856,-7.46764],[110.38842,-7.46768],[110.38836,-7.46769],[110.38827,-7.46773],[110.38815,-7.46781],[110.38811,-7.46783],[110.38806,-7.46784],[110.38797,-7.46784],[110.38794,-7.46785],[110.38786,-7.46788],[110.38782,-7.4679],[110.38772,-7.46794],[110.38766,-7.46797],[110.38757,-7.46802],[110.38743,-7.46815],[110.38735,-7.46823],[110.38721,-7.46835],[110.38711,-7.46849],[110.387,-7.4686],[110.38691,-7.46867],[110.38643,-7.46914],[110.38606,-7.46944],[110.38586,-7.4696],[110.38577,-7.46971],[110.38574,-7.46977],[110.38572,-7.46985],[110.38569,-7.46992],[110.38565,-7.47001],[110.3856,-7.47006],[110.38547,-7.47013],[110.38542,-7.47015],[110.38531,-7.47017],[110.38521,-7.47015],[110.38517,-7.47012],[110.38513,-7.47007],[110.38509,-7.47003],[110.38508,-7.47003],[110.38502,-7.47001],[110.38495,-7.47002],[110.38483,-7.47005],[110.38454,-7.47012],[110.38444,-7.47015],[110.38433,-7.47017],[110.38418,-7.47019],[110.38404,-7.47021],[110.38389,-7.47024],[110.38376,-7.47025],[110.38363,-7.47025],[110.38358,-7.47024],[110.3835,-7.47023],[110.38335,-7.47021],[110.38324,-7.47018],[110.38307,-7.47018],[110.38292,-7.4702],[110.38269,-7.47029],[110.3824,-7.47038],[110.3819,-7.47051],[110.3815,-7.47061],[110.38118,-7.47072],[110.38109,-7.47076],[110.38104,-7.47078],[110.38099,-7.47081],[110.38099,-7.47083],[110.38098,-7.47084],[110.38097,-7.4709],[110.38096,-7.47095],[110.38093,-7.47099],[110.38085,-7.47101],[110.38073,-7.47105],[110.38067,-7.47108],[110.38058,-7.47113],[110.38041,-7.47119],[110.38008,-7.47119],[110.38,-7.47122],[110.37988,-7.47128],[110.37977,-7.47132],[110.3796,-7.47135],[110.37941,-7.47135],[110.37932,-7.47137],[110.37923,-7.47138],[110.37914,-7.47142],[110.37906,-7.47146],[110.37898,-7.47149],[110.37891,-7.47153],[110.3788,-7.47154],[110.37866,-7.47154],[110.37831,-7.47146],[110.37827,-7.47146],[110.37814,-7.47145],[110.37793,-7.47144],[110.37781,-7.47145],[110.37769,-7.4715],[110.37757,-7.47153],[110.37749,-7.47153],[110.37742,-7.47151],[110.37728,-7.47145],[110.37717,-7.47141],[110.37701,-7.47139],[110.37677,-7.47135],[110.37665,-7.47136],[110.3765,-7.47139],[110.37639,-7.47146],[110.37622,-7.47161],[110.37581,-7.47195],[110.37529,-7.47232],[110.37516,-7.47247],[110.375,-7.47268],[110.37483,-7.47286],[110.37465,-7.47312],[110.37451,-7.47324],[110.37447,-7.47327],[110.37432,-7.47343],[110.37427,-7.4735],[110.37424,-7.47356],[110.37419,-7.47362],[110.37416,-7.47369],[110.37413,-7.47378],[110.3741,-7.47384],[110.37408,-7.4739],[110.37402,-7.47394],[110.374,-7.47395],[110.37393,-7.47399],[110.37384,-7.47399],[110.37365,-7.47401],[110.3736,-7.47404],[110.37356,-7.47407],[110.37352,-7.47411],[110.37348,-7.47416],[110.37344,-7.4742],[110.37335,-7.47425],[110.37329,-7.47427],[110.37325,-7.47429],[110.37318,-7.47433],[110.37315,-7.47439],[110.37312,-7.4745],[110.37304,-7.47473],[110.373,-7.4748],[110.37294,-7.47491],[110.37293,-7.47495],[110.37288,-7.47499],[110.37281,-7.47503],[110.37276,-7.47507],[110.37265,-7.47501],[110.37259,-7.47513],[110.37254,-7.47525],[110.37249,-7.47539],[110.37246,-7.47543],[110.37248,-7.47545],[110.37243,-7.4755],[110.37229,-7.47565],[110.37224,-7.47572],[110.3722,-7.47577],[110.37215,-7.47585],[110.37211,-7.47601],[110.37194,-7.47652],[110.37186,-7.47675],[110.37181,-7.4768],[110.37155,-7.47694],[110.37147,-7.47698],[110.37143,-7.47701],[110.3714,-7.47707],[110.37136,-7.47709],[110.37117,-7.47717],[110.37108,-7.47722],[110.37104,-7.47728],[110.37081,-7.47749],[110.37078,-7.47756],[110.37081,-7.47771],[110.37081,-7.47777],[110.37078,-7.47787],[110.37072,-7.47793],[110.3703,-7.47811],[110.37012,-7.47819],[110.37006,-7.47822],[110.37,-7.4782],[110.36994,-7.47816],[110.36987,-7.47815],[110.369,-7.47873],[110.36897,-7.47879],[110.36889,-7.4789],[110.36883,-7.47893],[110.36868,-7.479],[110.36857,-7.47905],[110.3685,-7.47913],[110.36831,-7.47921],[110.36822,-7.47925],[110.36798,-7.47952],[110.36785,-7.47963],[110.3678,-7.47968],[110.36777,-7.4798],[110.36772,-7.47995],[110.36762,-7.48002],[110.36753,-7.4801],[110.36749,-7.48014],[110.36702,-7.48002],[110.36699,-7.48],[110.36696,-7.48001],[110.36687,-7.48006],[110.36669,-7.48015],[110.36656,-7.4802],[110.36619,-7.47943],[110.36604,-7.47951],[110.36548,-7.47967],[110.36496,-7.47982],[110.36474,-7.48003],[110.36461,-7.48027],[110.36453,-7.48053],[110.36439,-7.48081],[110.36419,-7.48117],[110.36416,-7.48147],[110.36398,-7.48194],[110.3637,-7.48199],[110.36358,-7.48212],[110.36351,-7.48217],[110.36346,-7.48222],[110.36334,-7.48229],[110.36322,-7.48233],[110.3632,-7.48233],[110.36297,-7.48234],[110.36265,-7.4823],[110.36234,-7.48217],[110.36221,-7.48216],[110.36202,-7.48223],[110.36181,-7.48242],[110.36179,-7.48245],[110.36161,-7.48271],[110.36145,-7.48303],[110.36136,-7.48318],[110.36122,-7.48323],[110.36108,-7.48323],[110.36086,-7.48312],[110.36075,-7.48287],[110.36069,-7.48265],[110.36062,-7.48241],[110.36058,-7.48234],[110.3605,-7.4823],[110.36043,-7.48229],[110.36037,-7.48231],[110.36028,-7.48241],[110.36025,-7.48256],[110.36025,-7.48266],[110.36027,-7.48289],[110.36027,-7.48293],[110.36024,-7.483],[110.3602,-7.48305],[110.36011,-7.4831],[110.35999,-7.48311],[110.35986,-7.4831],[110.35975,-7.48301],[110.35968,-7.48287],[110.35957,-7.48278],[110.35948,-7.48275],[110.35919,-7.48272],[110.35915,-7.48271],[110.35916,-7.48265],[110.35925,-7.48253],[110.35942,-7.4824],[110.35945,-7.48238],[110.35955,-7.48231],[110.35961,-7.48217],[110.35964,-7.48198],[110.35964,-7.48186],[110.35959,-7.48175],[110.35947,-7.48166],[110.35928,-7.48161],[110.359,-7.4815],[110.35898,-7.4815],[110.35879,-7.48149],[110.35845,-7.48149],[110.35842,-7.4815],[110.3583,-7.48153],[110.3582,-7.4816],[110.35818,-7.48177],[110.35815,-7.48192],[110.3581,-7.48201],[110.35799,-7.48211],[110.35775,-7.4822],[110.35766,-7.48224],[110.35758,-7.4824],[110.35754,-7.48255],[110.35749,-7.4827],[110.35745,-7.48274],[110.35733,-7.48277],[110.35715,-7.48271],[110.35699,-7.48257],[110.35688,-7.48231],[110.35686,-7.48222],[110.35687,-7.48213],[110.35696,-7.48201],[110.35723,-7.48184],[110.35735,-7.48179],[110.35741,-7.48167],[110.35741,-7.48157],[110.35733,-7.48146],[110.35704,-7.48137],[110.35701,-7.48136],[110.35675,-7.4813],[110.35664,-7.48129],[110.35656,-7.48133],[110.3565,-7.48135],[110.35623,-7.48142],[110.35622,-7.48142],[110.35606,-7.4815],[110.35587,-7.48165],[110.35553,-7.48202],[110.35551,-7.48207],[110.35549,-7.48214],[110.35549,-7.48236],[110.35552,-7.48259],[110.35551,-7.48268],[110.35541,-7.4827],[110.35531,-7.4827],[110.3551,-7.48285],[110.35508,-7.48286],[110.355,-7.48306],[110.35484,-7.48355],[110.35482,-7.48365],[110.35477,-7.48375],[110.35469,-7.48382],[110.35464,-7.48383],[110.35459,-7.4838],[110.35452,-7.48365],[110.35448,-7.48351],[110.35443,-7.48346],[110.35441,-7.48343],[110.35429,-7.48345],[110.35426,-7.48352],[110.3542,-7.48365],[110.35413,-7.48372],[110.354,-7.48372],[110.35391,-7.48367],[110.35382,-7.48366],[110.35376,-7.4837],[110.35372,-7.48378],[110.35372,-7.48388],[110.35369,-7.48401],[110.35351,-7.4841],[110.35333,-7.48428],[110.35324,-7.48459],[110.35321,-7.48499],[110.35319,-7.48523],[110.35308,-7.48543],[110.35284,-7.48556],[110.35242,-7.48594],[110.35211,-7.48632],[110.3517,-7.48722],[110.35167,-7.48734],[110.35154,-7.48784],[110.35152,-7.48789],[110.35151,-7.48802],[110.35149,-7.48815],[110.35148,-7.48817],[110.35144,-7.48823],[110.35129,-7.48825],[110.3511,-7.48815],[110.3509,-7.48802],[110.35081,-7.48801],[110.35074,-7.48801],[110.35059,-7.48803],[110.35057,-7.48803],[110.35053,-7.48805],[110.35031,-7.48818],[110.35027,-7.48821],[110.34967,-7.48876],[110.34933,-7.48934],[110.34912,-7.48966],[110.34901,-7.48994],[110.34889,-7.49036],[110.34882,-7.49051],[110.34868,-7.49077],[110.34858,-7.4909],[110.34847,-7.49094],[110.34829,-7.49094],[110.34813,-7.49091],[110.34798,-7.49082],[110.3479,-7.49075],[110.34778,-7.49074],[110.34767,-7.49076],[110.34744,-7.49085],[110.34728,-7.49096],[110.34717,-7.49107],[110.34717,-7.49119],[110.34721,-7.49139],[110.34722,-7.49145],[110.34724,-7.49163],[110.34722,-7.49182],[110.34716,-7.49191],[110.34698,-7.4919],[110.34677,-7.49172],[110.3466,-7.49144],[110.34652,-7.49137],[110.34641,-7.49138],[110.34627,-7.49158],[110.34613,-7.49172],[110.34609,-7.49177],[110.34607,-7.4918],[110.34595,-7.49186],[110.34582,-7.49187],[110.34573,-7.49177],[110.34561,-7.49171],[110.34555,-7.49173],[110.34545,-7.49191],[110.3454,-7.49221],[110.34538,-7.49229],[110.34529,-7.49232],[110.34516,-7.49228],[110.34501,-7.49229],[110.34493,-7.49241],[110.34492,-7.49242],[110.34492,-7.49255],[110.34491,-7.49266],[110.34479,-7.49277],[110.3446,-7.49283],[110.34434,-7.49285],[110.34408,-7.4928],[110.344,-7.4928],[110.34395,-7.4929],[110.34393,-7.49297],[110.34384,-7.49309],[110.34371,-7.49316],[110.34368,-7.49317],[110.34349,-7.49316],[110.34326,-7.49304],[110.3429,-7.49272],[110.34282,-7.49269],[110.34267,-7.49271],[110.34245,-7.49278],[110.34231,-7.49293],[110.34221,-7.49311],[110.34202,-7.49341],[110.3418,-7.49365],[110.34167,-7.49371],[110.34148,-7.49372],[110.3412,-7.49367],[110.34066,-7.49353],[110.34056,-7.49345],[110.34042,-7.49328],[110.34024,-7.49321],[110.34017,-7.49324],[110.34006,-7.49332],[110.33993,-7.49347],[110.33983,-7.49352],[110.33969,-7.49349],[110.33961,-7.49342],[110.33954,-7.49338],[110.33946,-7.4934],[110.33943,-7.49344],[110.33942,-7.49354],[110.33942,-7.49357],[110.3394,-7.4937],[110.33936,-7.49375],[110.33934,-7.49376],[110.33928,-7.49378],[110.33918,-7.49376],[110.33898,-7.49352],[110.33892,-7.49345],[110.33884,-7.49345],[110.33878,-7.49352],[110.33866,-7.49365],[110.33859,-7.49371],[110.33848,-7.49375],[110.33836,-7.49373],[110.33828,-7.49367],[110.33821,-7.49363],[110.33807,-7.49363],[110.33785,-7.4937],[110.33752,-7.49387],[110.33747,-7.49389],[110.33739,-7.49392],[110.33734,-7.49392],[110.33722,-7.49394],[110.3371,-7.49388],[110.33702,-7.49378],[110.33692,-7.49369],[110.33677,-7.49363],[110.33665,-7.49364],[110.33646,-7.49373],[110.33627,-7.49381],[110.33612,-7.49388],[110.33602,-7.49392],[110.33568,-7.49404],[110.33553,-7.49411],[110.33534,-7.49426],[110.33522,-7.49455],[110.33522,-7.49463],[110.33521,-7.49486],[110.33516,-7.49493],[110.33503,-7.495],[110.33485,-7.49499],[110.33471,-7.4949],[110.33469,-7.49486],[110.33453,-7.49458],[110.33446,-7.49439],[110.3344,-7.49432],[110.33416,-7.49432],[110.33395,-7.49439],[110.33391,-7.4944],[110.33383,-7.49456],[110.33383,-7.49488],[110.3337,-7.49498],[110.33352,-7.49495],[110.33351,-7.49495],[110.33333,-7.4949],[110.33327,-7.4949],[110.33308,-7.49503],[110.333,-7.49508],[110.33254,-7.49543],[110.33218,-7.49572],[110.33168,-7.49609],[110.33157,-7.49614],[110.33143,-7.49617],[110.33124,-7.49614],[110.3311,-7.49608],[110.33098,-7.49602],[110.33085,-7.49602],[110.33071,-7.49614],[110.3307,-7.49626],[110.33071,-7.49628],[110.3308,-7.4964],[110.33083,-7.49666],[110.3308,-7.49678],[110.33071,-7.49689],[110.33058,-7.49693],[110.33017,-7.4968],[110.33006,-7.49675],[110.32993,-7.49668],[110.32986,-7.49671],[110.32985,-7.49673],[110.32982,-7.49682],[110.32981,-7.49684],[110.32981,-7.49719],[110.32973,-7.49756],[110.32973,-7.49759],[110.3296,-7.49772],[110.32938,-7.49783],[110.32916,-7.49782],[110.32912,-7.49781],[110.32892,-7.49775],[110.32853,-7.49762],[110.32838,-7.49761],[110.3281,-7.49767],[110.32776,-7.49794],[110.32749,-7.49809],[110.3266,-7.49842],[110.32648,-7.49852],[110.32631,-7.49877],[110.32629,-7.4988],[110.3259,-7.49934],[110.32567,-7.49963],[110.32563,-7.49968],[110.32549,-7.49983],[110.32528,-7.50006],[110.3251,-7.50029],[110.32501,-7.50034],[110.325,-7.50034],[110.3248,-7.50031],[110.32458,-7.50025],[110.32438,-7.50031],[110.32409,-7.50043],[110.32378,-7.50061],[110.3235,-7.50083],[110.32307,-7.50127],[110.32286,-7.50169],[110.32278,-7.50179],[110.32272,-7.50181],[110.32268,-7.50183],[110.32241,-7.50183],[110.32232,-7.50194],[110.32232,-7.50196],[110.32217,-7.50226],[110.32206,-7.50233],[110.32198,-7.50238],[110.32171,-7.50258],[110.3216,-7.5027],[110.32153,-7.5028],[110.32138,-7.50303],[110.32117,-7.50341],[110.3211,-7.50346],[110.321,-7.50349],[110.32096,-7.50351],[110.32073,-7.50359],[110.32058,-7.50354],[110.3204,-7.50344],[110.32023,-7.50338],[110.32015,-7.50338],[110.32003,-7.50345],[110.31997,-7.50359],[110.31997,-7.5036],[110.3199,-7.50372],[110.31977,-7.50378],[110.31969,-7.50382],[110.31959,-7.50385],[110.31958,-7.50386],[110.31943,-7.50387],[110.31913,-7.50387],[110.31896,-7.5039],[110.31887,-7.50394],[110.31883,-7.50396],[110.3188,-7.50398],[110.31872,-7.50411],[110.3187,-7.50421],[110.3187,-7.50449],[110.31868,-7.50453],[110.31865,-7.50457],[110.31855,-7.5046],[110.3183,-7.50455],[110.31825,-7.50456],[110.31811,-7.50459],[110.31804,-7.50463],[110.31795,-7.50472],[110.31789,-7.5048],[110.31786,-7.50486],[110.31769,-7.50496],[110.31766,-7.50497],[110.31759,-7.50498],[110.31753,-7.50497],[110.31737,-7.50495],[110.3173,-7.50496],[110.31725,-7.505],[110.31723,-7.50506],[110.31723,-7.50507],[110.31721,-7.50514],[110.31717,-7.50522],[110.31709,-7.50525],[110.31696,-7.50527],[110.31688,-7.50527],[110.3167,-7.5052],[110.31661,-7.50515],[110.31649,-7.50508],[110.31646,-7.50507],[110.31641,-7.50499],[110.31628,-7.5049],[110.3162,-7.50489],[110.31613,-7.50492],[110.31611,-7.50497],[110.31611,-7.50507],[110.31613,-7.50512],[110.31614,-7.50512],[110.31617,-7.50527],[110.31615,-7.50534],[110.31599,-7.50544],[110.31589,-7.50551],[110.31581,-7.50554],[110.31571,-7.50554],[110.3156,-7.50552],[110.31554,-7.50543],[110.31548,-7.50532],[110.31544,-7.50521],[110.31543,-7.50518],[110.31539,-7.50514],[110.31533,-7.50512],[110.31527,-7.50513],[110.31522,-7.50516],[110.31521,-7.50517],[110.31518,-7.50523],[110.31512,-7.50541],[110.31511,-7.50557],[110.31509,-7.5058],[110.31504,-7.50586],[110.31488,-7.50593],[110.31461,-7.50599],[110.31441,-7.50606],[110.31427,-7.50606],[110.31414,-7.50605],[110.31405,-7.50606],[110.31401,-7.5061],[110.31402,-7.50623],[110.314,-7.50633],[110.31399,-7.5064],[110.31394,-7.50646],[110.31391,-7.50651],[110.31386,-7.50657],[110.31378,-7.50657],[110.31358,-7.50653],[110.31357,-7.50653],[110.31351,-7.50648],[110.31341,-7.50645],[110.31335,-7.50647],[110.31333,-7.50647],[110.31326,-7.50652],[110.31323,-7.50664],[110.31323,-7.50673],[110.31325,-7.50681],[110.31325,-7.5069],[110.31324,-7.50695],[110.31321,-7.50697],[110.31317,-7.50698],[110.31307,-7.50697],[110.31299,-7.50695],[110.31293,-7.50692],[110.31292,-7.50692],[110.31289,-7.5069],[110.31285,-7.50688],[110.31276,-7.50686],[110.31259,-7.50681],[110.31248,-7.5068],[110.3124,-7.50681],[110.31234,-7.50685],[110.31229,-7.50691],[110.31223,-7.507],[110.31214,-7.50709],[110.31207,-7.50715],[110.31196,-7.50718],[110.31186,-7.50718],[110.31174,-7.50717],[110.31165,-7.50714],[110.31155,-7.50709],[110.31148,-7.50705],[110.31137,-7.50701],[110.31126,-7.50699],[110.31118,-7.50698],[110.31104,-7.50698],[110.31096,-7.507],[110.31081,-7.50719],[110.31076,-7.50728],[110.31075,-7.50735],[110.31077,-7.50753],[110.31079,-7.5076],[110.31081,-7.50766],[110.31099,-7.50785],[110.31109,-7.50795],[110.31109,-7.50802],[110.31106,-7.5081],[110.311,-7.50816],[110.3109,-7.50819],[110.31079,-7.50822],[110.3107,-7.50828],[110.31066,-7.50831],[110.31059,-7.50836],[110.31052,-7.50848],[110.31043,-7.50856],[110.31035,-7.50858],[110.31028,-7.50857],[110.31023,-7.50853],[110.31016,-7.50853],[110.31012,-7.50855],[110.31008,-7.50861],[110.31009,-7.50869],[110.31011,-7.50876],[110.31017,-7.50885],[110.31018,-7.5089],[110.31017,-7.50893],[110.3101,-7.50894],[110.30994,-7.50888],[110.30983,-7.50881],[110.30981,-7.50879],[110.30971,-7.50865],[110.3096,-7.50853],[110.30951,-7.50847],[110.30941,-7.50848],[110.30937,-7.50849],[110.30933,-7.50851],[110.30928,-7.50855],[110.30925,-7.50863],[110.30919,-7.50882],[110.30914,-7.50911],[110.30912,-7.50916],[110.30911,-7.50917],[110.30907,-7.50919],[110.30902,-7.50919],[110.30896,-7.50918],[110.30893,-7.50918],[110.30879,-7.50914],[110.30867,-7.5091],[110.3086,-7.50906],[110.30851,-7.50905],[110.30844,-7.50906],[110.30841,-7.50908],[110.30838,-7.50912],[110.30833,-7.50916],[110.30805,-7.50927],[110.30792,-7.50936],[110.30792,-7.5094],[110.30795,-7.50953],[110.30799,-7.50958],[110.30805,-7.50963],[110.30814,-7.50972],[110.30821,-7.5098],[110.30822,-7.50987],[110.30821,-7.50995],[110.30817,-7.51],[110.3081,-7.51005],[110.30807,-7.51007],[110.30805,-7.51008],[110.30792,-7.51014],[110.30787,-7.51014],[110.30776,-7.51016],[110.30773,-7.51016],[110.30762,-7.51017],[110.30753,-7.51017],[110.30743,-7.51019],[110.30727,-7.51027],[110.3072,-7.51032],[110.30711,-7.5105],[110.30701,-7.51065],[110.30677,-7.51086],[110.30662,-7.51091],[110.30654,-7.51093],[110.3064,-7.51095],[110.30631,-7.51096],[110.30604,-7.51096],[110.30592,-7.51097],[110.30531,-7.51097],[110.30521,-7.51099],[110.30515,-7.51099],[110.30504,-7.51098],[110.30491,-7.51092],[110.30471,-7.51086],[110.3046,-7.51085],[110.3045,-7.51083],[110.3044,-7.51083],[110.30426,-7.51087],[110.30405,-7.51099],[110.30367,-7.51117],[110.30361,-7.5112],[110.30355,-7.51119],[110.30346,-7.51117],[110.3034,-7.51114],[110.30335,-7.51111],[110.30328,-7.51105],[110.3032,-7.51099],[110.3031,-7.51092],[110.30301,-7.51087],[110.30291,-7.51083],[110.30279,-7.51079],[110.30268,-7.51081],[110.30262,-7.51083],[110.30252,-7.51088],[110.30244,-7.51095],[110.30235,-7.51105],[110.30234,-7.51113],[110.30235,-7.51124],[110.30236,-7.51126],[110.30237,-7.5113],[110.30236,-7.51132],[110.30229,-7.51135],[110.30228,-7.51135],[110.30218,-7.51138],[110.30204,-7.51139],[110.30189,-7.51139],[110.30186,-7.5114],[110.30183,-7.51142],[110.30171,-7.51148],[110.3016,-7.51158],[110.30149,-7.51163],[110.30148,-7.51164],[110.3014,-7.51167],[110.30134,-7.51166],[110.30127,-7.51164],[110.3012,-7.51159],[110.30116,-7.51155],[110.30104,-7.5114],[110.30095,-7.51138],[110.30087,-7.5114],[110.30079,-7.51147],[110.30065,-7.51164],[110.30063,-7.51167],[110.3005,-7.5118],[110.30042,-7.51183],[110.30024,-7.51186],[110.30008,-7.51187],[110.29994,-7.51186],[110.29985,-7.51183],[110.29978,-7.51181],[110.29972,-7.51179],[110.29967,-7.5118],[110.29961,-7.51183],[110.29956,-7.51192],[110.29941,-7.51224],[110.29941,-7.51225],[110.2994,-7.51235],[110.2994,-7.51248],[110.29941,-7.51254],[110.29946,-7.51263],[110.29953,-7.51268],[110.29955,-7.51269],[110.29958,-7.5127],[110.29961,-7.51275],[110.29962,-7.51281],[110.29961,-7.51285],[110.29959,-7.51289],[110.29954,-7.51294],[110.29946,-7.51298],[110.29935,-7.51301],[110.29927,-7.51303],[110.29918,-7.51303],[110.29907,-7.51301],[110.29896,-7.51297],[110.29878,-7.51295],[110.29864,-7.51296],[110.29858,-7.51296],[110.29841,-7.51303],[110.29834,-7.51308],[110.2983,-7.51313],[110.29824,-7.51328],[110.29822,-7.51334],[110.29816,-7.51341],[110.29811,-7.51344],[110.29805,-7.51346],[110.29798,-7.51347],[110.2979,-7.51346],[110.29778,-7.51341],[110.29776,-7.51339],[110.29772,-7.51336],[110.29766,-7.51332],[110.2976,-7.5133],[110.29736,-7.5133],[110.2973,-7.51332],[110.29725,-7.51333],[110.29713,-7.51334],[110.29704,-7.51332],[110.29694,-7.5133],[110.29686,-7.51327],[110.29672,-7.51323],[110.29666,-7.51317],[110.29659,-7.51311],[110.29656,-7.51309],[110.29654,-7.51306],[110.29651,-7.51305],[110.2964,-7.51307],[110.29636,-7.5131],[110.29633,-7.51315],[110.29632,-7.51321],[110.29633,-7.51329],[110.29633,-7.5133],[110.29635,-7.51341],[110.29635,-7.51343],[110.29636,-7.51347],[110.29637,-7.51353],[110.29637,-7.5136],[110.29636,-7.51366],[110.29635,-7.51369],[110.29623,-7.51375],[110.29616,-7.51375],[110.29612,-7.51374],[110.29599,-7.51369],[110.29593,-7.51367],[110.29582,-7.51368],[110.29579,-7.51369],[110.29572,-7.51372],[110.29568,-7.51375],[110.29566,-7.51376],[110.29561,-7.51378],[110.29555,-7.51379],[110.29548,-7.5138],[110.29544,-7.5138],[110.29538,-7.51379],[110.29532,-7.51379],[110.29524,-7.51382],[110.29522,-7.51383],[110.29513,-7.51386],[110.29506,-7.51393],[110.29506,-7.51416],[110.29503,-7.51436],[110.295,-7.51439],[110.29475,-7.51439],[110.29463,-7.51435],[110.29455,-7.51432],[110.29431,-7.51426],[110.29415,-7.51428],[110.29413,-7.51428],[110.29401,-7.51431],[110.29392,-7.5144],[110.29384,-7.51452],[110.29376,-7.51477],[110.29372,-7.51494],[110.29372,-7.51513],[110.29373,-7.51515],[110.29378,-7.51531],[110.2938,-7.51546],[110.29378,-7.51552],[110.29371,-7.51554],[110.29355,-7.51559],[110.29342,-7.51562],[110.29329,-7.5156],[110.29319,-7.51554],[110.29312,-7.51547],[110.29306,-7.51537],[110.29301,-7.51529],[110.29294,-7.51523],[110.29278,-7.5152],[110.2927,-7.51521],[110.29265,-7.51525],[110.29262,-7.51532],[110.29261,-7.51541],[110.29262,-7.51562],[110.29262,-7.51592],[110.29264,-7.51614],[110.29266,-7.51629],[110.29268,-7.51638],[110.29271,-7.51643],[110.29283,-7.51666],[110.29284,-7.51679],[110.2928,-7.51688],[110.29267,-7.51697],[110.29254,-7.51698],[110.29242,-7.51696],[110.29228,-7.51694],[110.29213,-7.51687],[110.29198,-7.51674],[110.29194,-7.51669],[110.29177,-7.51654],[110.29167,-7.51643],[110.29162,-7.51642],[110.29148,-7.51643],[110.29138,-7.51648],[110.29131,-7.51656],[110.29126,-7.51668],[110.29126,-7.51678],[110.29127,-7.51688],[110.29131,-7.51703],[110.29131,-7.51712],[110.2914,-7.51727],[110.29147,-7.51742],[110.29157,-7.51764],[110.29161,-7.51785],[110.29162,-7.51795],[110.2916,-7.51803],[110.29153,-7.51811],[110.29146,-7.51816],[110.29132,-7.51819],[110.29122,-7.51822],[110.29105,-7.51823],[110.29089,-7.51819],[110.29083,-7.51813],[110.29078,-7.51807],[110.29067,-7.51796],[110.29061,-7.51791],[110.29038,-7.51789],[110.29034,-7.51793],[110.29035,-7.51806],[110.2904,-7.51815],[110.2905,-7.5183],[110.29058,-7.51835],[110.29069,-7.51845],[110.29073,-7.51852],[110.29075,-7.51861],[110.29075,-7.51876],[110.29072,-7.51887],[110.29069,-7.51892],[110.29062,-7.51893],[110.29051,-7.51892],[110.2905,-7.51891],[110.29039,-7.51887],[110.29032,-7.5188],[110.28999,-7.51854],[110.28989,-7.51837],[110.28979,-7.51825],[110.28965,-7.51822],[110.28958,-7.51823],[110.28951,-7.51825],[110.28949,-7.51826],[110.28941,-7.51833],[110.28931,-7.51847],[110.2892,-7.51866],[110.2891,-7.51877],[110.28891,-7.51863],[110.2887,-7.51854],[110.28851,-7.51858],[110.28848,-7.51858],[110.2883,-7.51873],[110.28814,-7.51902],[110.28791,-7.51947],[110.28771,-7.51952],[110.28728,-7.51969],[110.28696,-7.51978],[110.28689,-7.51979],[110.28673,-7.5198],[110.28658,-7.51986],[110.28651,-7.51994],[110.28648,-7.52006],[110.28648,-7.52016],[110.2865,-7.52022],[110.28657,-7.52032],[110.28658,-7.52038],[110.28657,-7.52045],[110.28648,-7.52052],[110.2864,-7.52056],[110.28625,-7.52057],[110.28624,-7.52057],[110.28612,-7.52062],[110.28602,-7.52067],[110.28599,-7.52071],[110.286,-7.52079],[110.28603,-7.52082],[110.28617,-7.52089],[110.28631,-7.52097],[110.2864,-7.52104],[110.28646,-7.52109],[110.28646,-7.52114],[110.28643,-7.5212],[110.28638,-7.52126],[110.28623,-7.52134],[110.28609,-7.52138],[110.28599,-7.5214],[110.28589,-7.5214],[110.28579,-7.52136],[110.28569,-7.52135],[110.28562,-7.52134],[110.28552,-7.52133],[110.28547,-7.52133],[110.28541,-7.52134],[110.28533,-7.52137],[110.28528,-7.52139],[110.28526,-7.5214],[110.28509,-7.52145],[110.28505,-7.52145],[110.28494,-7.52146],[110.28485,-7.52144],[110.28477,-7.52136],[110.28469,-7.5213],[110.28463,-7.52128],[110.2846,-7.5213],[110.28457,-7.52133],[110.28455,-7.52137],[110.28453,-7.52147],[110.28453,-7.52157],[110.28452,-7.52164],[110.28452,-7.52169],[110.28456,-7.52179],[110.28459,-7.52181],[110.2846,-7.52184],[110.2846,-7.52195],[110.28466,-7.52205],[110.2847,-7.5221],[110.28474,-7.52214],[110.28477,-7.52222],[110.28477,-7.52228],[110.28475,-7.52233],[110.2847,-7.52238],[110.28459,-7.52241],[110.28452,-7.52243],[110.28429,-7.52245],[110.28419,-7.52242],[110.28412,-7.5224],[110.28409,-7.52238],[110.28404,-7.52235],[110.28399,-7.52233],[110.28388,-7.52237],[110.28374,-7.52245],[110.28368,-7.5225],[110.28367,-7.52252],[110.28361,-7.52257],[110.28353,-7.52262],[110.28345,-7.52266],[110.28334,-7.5227],[110.28316,-7.52277],[110.28307,-7.52283],[110.28302,-7.52287],[110.28299,-7.52294],[110.28298,-7.52304],[110.28298,-7.52314],[110.28294,-7.52323],[110.28287,-7.52331],[110.28274,-7.52338],[110.2826,-7.52344],[110.28237,-7.52349],[110.28226,-7.52349],[110.28215,-7.52351],[110.28199,-7.52355],[110.28191,-7.52359],[110.28185,-7.52364],[110.28178,-7.5239],[110.28176,-7.52395],[110.28173,-7.524],[110.28166,-7.52404],[110.28156,-7.52403],[110.28152,-7.52403],[110.28142,-7.52402],[110.28134,-7.52403],[110.28124,-7.52405],[110.28112,-7.52414],[110.28106,-7.52425],[110.28105,-7.52427],[110.281,-7.52439],[110.28082,-7.52462],[110.28058,-7.52478],[110.28057,-7.52478],[110.28057,-7.52479],[110.28053,-7.5249],[110.28039,-7.52497],[110.28032,-7.52499],[110.28001,-7.52508],[110.27959,-7.52518],[110.27952,-7.52519],[110.27931,-7.52525],[110.27898,-7.52547],[110.27885,-7.52554],[110.27868,-7.52557],[110.27851,-7.52556],[110.27838,-7.52551],[110.27834,-7.52549],[110.27829,-7.52545],[110.27819,-7.52539],[110.27806,-7.52535],[110.27789,-7.52535],[110.27774,-7.52532],[110.27739,-7.52537],[110.27716,-7.52549],[110.27689,-7.52555],[110.27661,-7.52561],[110.27597,-7.52571],[110.27545,-7.52574],[110.2748,-7.52575],[110.27447,-7.5259],[110.27445,-7.52591],[110.27416,-7.52604],[110.27376,-7.52618],[110.27343,-7.52631],[110.27328,-7.52633],[110.27317,-7.52632],[110.27299,-7.52623],[110.27263,-7.52609],[110.27244,-7.52595],[110.27234,-7.52587],[110.27228,-7.52587],[110.27218,-7.52591],[110.27202,-7.526],[110.27182,-7.52611],[110.27172,-7.52616],[110.27169,-7.52617],[110.27157,-7.52619],[110.27155,-7.52619],[110.27131,-7.52615],[110.27125,-7.52612],[110.27112,-7.52606],[110.271,-7.52596],[110.27087,-7.52584],[110.27075,-7.52571],[110.27072,-7.52569],[110.27071,-7.52567],[110.27065,-7.52568],[110.2706,-7.52569],[110.27053,-7.52575],[110.27044,-7.5259],[110.27036,-7.52604],[110.2703,-7.52615],[110.2702,-7.52633],[110.27009,-7.52652],[110.27008,-7.52653],[110.26997,-7.52666],[110.26979,-7.52676],[110.26969,-7.52678],[110.26965,-7.52678],[110.26958,-7.52671],[110.26952,-7.52663],[110.26946,-7.52652],[110.26944,-7.52647],[110.2694,-7.52643],[110.26935,-7.52642],[110.26931,-7.52644],[110.26929,-7.52646],[110.26927,-7.52651],[110.26924,-7.5266],[110.26923,-7.52665],[110.2692,-7.52678],[110.26916,-7.52691],[110.26911,-7.52699],[110.26902,-7.52707],[110.26889,-7.52709],[110.26884,-7.52708],[110.2688,-7.52707],[110.26866,-7.52709],[110.26851,-7.52709],[110.2685,-7.52708],[110.26834,-7.52704],[110.26818,-7.52704],[110.26802,-7.52707],[110.26794,-7.52712],[110.26791,-7.52716],[110.26787,-7.52721],[110.26784,-7.52727],[110.26783,-7.5273],[110.26784,-7.52737],[110.26785,-7.5274],[110.26786,-7.52742],[110.26801,-7.52758],[110.26805,-7.52764],[110.2681,-7.5277],[110.26814,-7.52775],[110.26817,-7.52779],[110.26819,-7.52786],[110.26818,-7.52789],[110.26816,-7.52791],[110.26801,-7.52808],[110.26794,-7.52827],[110.26813,-7.52861],[110.2678,-7.52938],[110.26777,-7.52941],[110.26762,-7.52945],[110.26748,-7.52951],[110.26737,-7.52955],[110.26728,-7.5296],[110.26721,-7.52964],[110.26714,-7.52969],[110.26703,-7.52974],[110.26689,-7.52981],[110.26678,-7.52987],[110.26659,-7.52999],[110.26652,-7.53011],[110.26651,-7.53012],[110.26649,-7.53016],[110.26646,-7.53023],[110.26646,-7.53032],[110.26649,-7.5304],[110.26655,-7.53055],[110.26659,-7.53061],[110.26664,-7.53063],[110.26666,-7.53066],[110.26663,-7.53073],[110.26653,-7.53086],[110.26644,-7.53104],[110.26634,-7.5311]]]}}]}