{"type":"FeatureCollection","features":[{"type":"Feature","properties":{"KECAMATAN":"Secang"},"geometry":{"type":"Polygon","coordinates":[[[110.21183,-7.44244],[110.21188,-7.44293],[110.21201,-7.44323],[110.21217,-7.44344],[110.21237,-7.44357],[110.21279,-7.4437],[110.21316,-7.44367],[110.21351,-7.44355],[110.21352,-7.44355],[110.21394,-7.44342],[110.21421,-7.44344],[110.21436,-7.44352],[110.21443,-7.44368],[110.2145,-7.44396],[110.21455,-7.44394],[110.21459,-7.44392],[110.21464,-7.44391],[110.21469,-7.44392],[110.21473,-7.44394],[110.21475,-7.44397],[110.21479,-7.44398],[110.21482,-7.44397],[110.21483,-7.44395],[110.21487,-7.44397],[110.2149,-7.44399],[110.21491,-7.44401],[110.21494,-7.44404],[110.21498,-7.44405],[110.21506,-7.44405],[110.2151,-7.44406],[110.21512,-7.44409],[110.21514,-7.44415],[110.21518,-7.44416],[110.21521,-7.44416],[110.21525,-7.44415],[110.21528,-7.44415],[110.21529,-7.44417],[110.21531,-7.44419],[110.21536,-7.4442],[110.21539,-7.44418],[110.2154,-7.44415],[110.21541,-7.4441],[110.21545,-7.44407],[110.2155,-7.44407],[110.21553,-7.44406],[110.21556,-7.44404],[110.21559,-7.44403],[110.2156,-7.44402],[110.21564,-7.44401],[110.21569,-7.44401],[110.21572,-7.44402],[110.21576,-7.44403],[110.21579,-7.44404],[110.21583,-7.44407],[110.2159,-7.44411],[110.21597,-7.44418],[110.216,-7.44422],[110.21604,-7.44423],[110.2161,-7.44425],[110.21614,-7.44427],[110.21628,-7.44439],[110.21631,-7.4444],[110.21636,-7.4444],[110.2164,-7.44439],[110.21642,-7.44435],[110.21645,-7.4443],[110.21649,-7.44425],[110.21657,-7.44417],[110.21659,-7.44416],[110.21671,-7.44408],[110.21701,-7.44405],[110.21705,-7.44402],[110.21712,-7.44394],[110.21722,-7.44381],[110.2173,-7.44381],[110.21746,-7.44384],[110.21795,-7.44382],[110.218,-7.44382],[110.21803,-7.44385],[110.21806,-7.44391],[110.2182,-7.44391],[110.21823,-7.44395],[110.21827,-7.44402],[110.21836,-7.44401],[110.21841,-7.44403],[110.21845,-7.44407],[110.21852,-7.44412],[110.2186,-7.44416],[110.21874,-7.44428],[110.21878,-7.44432],[110.21879,-7.44432],[110.21885,-7.44438],[110.21897,-7.44446],[110.21903,-7.44449],[110.21908,-7.44452],[110.21916,-7.44452],[110.2192,-7.44451],[110.21924,-7.44448],[110.21927,-7.44443],[110.21929,-7.44438],[110.21929,-7.44436],[110.21926,-7.4443],[110.2192,-7.44427],[110.21913,-7.44422],[110.21907,-7.44412],[110.21903,-7.44405],[110.21901,-7.44394],[110.21902,-7.44384],[110.21903,-7.44377],[110.21907,-7.4437],[110.21911,-7.44366],[110.21921,-7.44354],[110.21931,-7.44344],[110.21932,-7.44333],[110.21927,-7.44327],[110.21925,-7.44312],[110.21926,-7.44304],[110.21927,-7.44291],[110.21929,-7.44256],[110.21852,-7.44257],[110.21842,-7.44264],[110.218,-7.44209],[110.21778,-7.4418],[110.21772,-7.44163],[110.21772,-7.44128],[110.21793,-7.4404],[110.21802,-7.44015],[110.21802,-7.44014],[110.21878,-7.43957],[110.21894,-7.43944],[110.21901,-7.43938],[110.21909,-7.43927],[110.21909,-7.43926],[110.21908,-7.43915],[110.21884,-7.43887],[110.21881,-7.43883],[110.21878,-7.43882],[110.21878,-7.43868],[110.21888,-7.43867],[110.21896,-7.43867],[110.21914,-7.43865],[110.21922,-7.43869],[110.21926,-7.4387],[110.21929,-7.4387],[110.21947,-7.43867],[110.2199,-7.4386],[110.22025,-7.43853],[110.22036,-7.43851],[110.22052,-7.43858],[110.22089,-7.43872],[110.22119,-7.43886],[110.22155,-7.43885],[110.22305,-7.43885],[110.22324,-7.43884],[110.22326,-7.43883],[110.2234,-7.43878],[110.22353,-7.43863],[110.22355,-7.4386],[110.22358,-7.43853],[110.22359,-7.43852],[110.22363,-7.43841],[110.22365,-7.43814],[110.22367,-7.43803],[110.22373,-7.43795],[110.22381,-7.43784],[110.22387,-7.43777],[110.22395,-7.43767],[110.22402,-7.43757],[110.22376,-7.43741],[110.22357,-7.43734],[110.22351,-7.43729],[110.22348,-7.43723],[110.22349,-7.43716],[110.22353,-7.4371],[110.22358,-7.43706],[110.22366,-7.43699],[110.22368,-7.43694],[110.22367,-7.43689],[110.22365,-7.43683],[110.22354,-7.4367],[110.22341,-7.4366],[110.22336,-7.43658],[110.22329,-7.43658],[110.22324,-7.43659],[110.22317,-7.43663],[110.22305,-7.43663],[110.22262,-7.43655],[110.22259,-7.43651],[110.22257,-7.43646],[110.22251,-7.43609],[110.22249,-7.43593],[110.22247,-7.43578],[110.22248,-7.43574],[110.2225,-7.4357],[110.22254,-7.43565],[110.22261,-7.4356],[110.22268,-7.43553],[110.22274,-7.43533],[110.22279,-7.43506],[110.22282,-7.43488],[110.22291,-7.43476],[110.22295,-7.43469],[110.22302,-7.43443],[110.22311,-7.43446],[110.22382,-7.43465],[110.22396,-7.43395],[110.22375,-7.43402],[110.2233,-7.43413],[110.2233,-7.43376],[110.22335,-7.43353],[110.22345,-7.43351],[110.22372,-7.43355],[110.22456,-7.43379],[110.22471,-7.43381],[110.22518,-7.43392],[110.22521,-7.43393],[110.22595,-7.43414],[110.22649,-7.43425],[110.22673,-7.43427],[110.22686,-7.43425],[110.22697,-7.43422],[110.22703,-7.43419],[110.22712,-7.43413],[110.22717,-7.43407],[110.22723,-7.43401],[110.22728,-7.43394],[110.22738,-7.43388],[110.22745,-7.43386],[110.22754,-7.43386],[110.22765,-7.43387],[110.22826,-7.43397],[110.22837,-7.43398],[110.22835,-7.43406],[110.22824,-7.43444],[110.22819,-7.43461],[110.22811,-7.43496],[110.22817,-7.43502],[110.22825,-7.43507],[110.22851,-7.43517],[110.22891,-7.4353],[110.2289,-7.4354],[110.22934,-7.43542],[110.22956,-7.43544],[110.22958,-7.43539],[110.22961,-7.43526],[110.2298,-7.43528],[110.23,-7.43528],[110.23017,-7.43526],[110.23034,-7.43525],[110.23049,-7.43525],[110.23074,-7.43524],[110.23083,-7.43536],[110.23084,-7.43564],[110.23085,-7.43623],[110.23085,-7.43632],[110.23091,-7.43663],[110.231,-7.43712],[110.23101,-7.43715],[110.23046,-7.43715],[110.2301,-7.4371],[110.22979,-7.43705],[110.22939,-7.43703],[110.22913,-7.43704],[110.22864,-7.43697],[110.22859,-7.43713],[110.22822,-7.43825],[110.22814,-7.43842],[110.22812,-7.43848],[110.22803,-7.43869],[110.22789,-7.43904],[110.22784,-7.43914],[110.22776,-7.43933],[110.22774,-7.43936],[110.22765,-7.43958],[110.22758,-7.43974],[110.22757,-7.43974],[110.22757,-7.43975],[110.22755,-7.43982],[110.22754,-7.43987],[110.22754,-7.43988],[110.22764,-7.43996],[110.22775,-7.44013],[110.22779,-7.44018],[110.22814,-7.44072],[110.2285,-7.44106],[110.22862,-7.44113],[110.22866,-7.44112],[110.22875,-7.44112],[110.22891,-7.44113],[110.22914,-7.44109],[110.22913,-7.44115],[110.22913,-7.44128],[110.22912,-7.44138],[110.22911,-7.44141],[110.22909,-7.44142],[110.22905,-7.44142],[110.22901,-7.4414],[110.22891,-7.44136],[110.22884,-7.44135],[110.22879,-7.44136],[110.22874,-7.44138],[110.22868,-7.44142],[110.22848,-7.44157],[110.22836,-7.44172],[110.22824,-7.4419],[110.22822,-7.44194],[110.22835,-7.44199],[110.22842,-7.44203],[110.2285,-7.44209],[110.2286,-7.44212],[110.22886,-7.44218],[110.22902,-7.44221],[110.22911,-7.44226],[110.2292,-7.44234],[110.22924,-7.4424],[110.22929,-7.44236],[110.22937,-7.44229],[110.22939,-7.44251],[110.22947,-7.44272],[110.22963,-7.44293],[110.22984,-7.44305],[110.23013,-7.44308],[110.23027,-7.44311],[110.23045,-7.44319],[110.23062,-7.4433],[110.23049,-7.44356],[110.23065,-7.44363],[110.23068,-7.44359],[110.23085,-7.44366],[110.23098,-7.44368],[110.2311,-7.44368],[110.23119,-7.44367],[110.23126,-7.44367],[110.23136,-7.44368],[110.23144,-7.44373],[110.23151,-7.44382],[110.23155,-7.44392],[110.23156,-7.44398],[110.23153,-7.44414],[110.23146,-7.44432],[110.23144,-7.44446],[110.23142,-7.44453],[110.23142,-7.44459],[110.23145,-7.44467],[110.2315,-7.44487],[110.23142,-7.44492],[110.23133,-7.445],[110.23126,-7.44506],[110.23123,-7.44513],[110.23115,-7.44531],[110.23107,-7.44551],[110.23094,-7.44565],[110.2305,-7.44578],[110.23024,-7.44584],[110.23019,-7.44586],[110.22993,-7.446],[110.22985,-7.44608],[110.22978,-7.44616],[110.22976,-7.4465],[110.22972,-7.44698],[110.22969,-7.44717],[110.22952,-7.44741],[110.2291,-7.44777],[110.22863,-7.44817],[110.22821,-7.44868],[110.22799,-7.44901],[110.22794,-7.44909],[110.22784,-7.44933],[110.22788,-7.45011],[110.22782,-7.4505],[110.2278,-7.45062],[110.22778,-7.45075],[110.22774,-7.45102],[110.22801,-7.45162],[110.22807,-7.45176],[110.2281,-7.45185],[110.22813,-7.45226],[110.22814,-7.45241],[110.22815,-7.45249],[110.22815,-7.45256],[110.2282,-7.45301],[110.2282,-7.45328],[110.22823,-7.45335],[110.22826,-7.45344],[110.22835,-7.45355],[110.22861,-7.45358],[110.22873,-7.45359],[110.22908,-7.45357],[110.22918,-7.4536],[110.22943,-7.45368],[110.22953,-7.45375],[110.2296,-7.45379],[110.22962,-7.45382],[110.22966,-7.45386],[110.22966,-7.4541],[110.22967,-7.45434],[110.22968,-7.45447],[110.22998,-7.45512],[110.23002,-7.45525],[110.23005,-7.45531],[110.23006,-7.45534],[110.23006,-7.45557],[110.23003,-7.45566],[110.22999,-7.45575],[110.22975,-7.45606],[110.22947,-7.45639],[110.22929,-7.45655],[110.22905,-7.45676],[110.22883,-7.45696],[110.22879,-7.45702],[110.22874,-7.4571],[110.22875,-7.45726],[110.22886,-7.45745],[110.22887,-7.45745],[110.22893,-7.45751],[110.22907,-7.45763],[110.22942,-7.45775],[110.22956,-7.4578],[110.22968,-7.45791],[110.22969,-7.45802],[110.22953,-7.45827],[110.22933,-7.45858],[110.22925,-7.4587],[110.22918,-7.45882],[110.22913,-7.459],[110.22932,-7.45944],[110.22936,-7.45953],[110.2294,-7.45963],[110.2294,-7.4597],[110.22939,-7.45974],[110.22917,-7.45994],[110.22909,-7.46001],[110.22902,-7.46006],[110.22896,-7.46018],[110.22896,-7.4602],[110.22898,-7.46029],[110.22918,-7.46049],[110.22978,-7.46075],[110.22997,-7.46083],[110.23003,-7.46085],[110.23012,-7.46094],[110.23012,-7.46101],[110.23013,-7.46105],[110.23007,-7.46114],[110.22892,-7.46098],[110.22876,-7.46097],[110.22875,-7.46097],[110.22864,-7.461],[110.22854,-7.46196],[110.22855,-7.46217],[110.22859,-7.46227],[110.22881,-7.46212],[110.22896,-7.46201],[110.2291,-7.46188],[110.2292,-7.46186],[110.22925,-7.46196],[110.22923,-7.46215],[110.22914,-7.46255],[110.22862,-7.46335],[110.22859,-7.46339],[110.22858,-7.46341],[110.22848,-7.46344],[110.22849,-7.46345],[110.22857,-7.46375],[110.22858,-7.46376],[110.22859,-7.46379],[110.22865,-7.46393],[110.22872,-7.46411],[110.22874,-7.46416],[110.22875,-7.46421],[110.22849,-7.46441],[110.22834,-7.46451],[110.22825,-7.46464],[110.22832,-7.46485],[110.22838,-7.46497],[110.22843,-7.46505],[110.22843,-7.46515],[110.22789,-7.46518],[110.22764,-7.46519],[110.22744,-7.46527],[110.22737,-7.46533],[110.22744,-7.46543],[110.22791,-7.46562],[110.22825,-7.4657],[110.22865,-7.46575],[110.2288,-7.4658],[110.22882,-7.46583],[110.22885,-7.46586],[110.22881,-7.46591],[110.22879,-7.46594],[110.22855,-7.46604],[110.22852,-7.46605],[110.22838,-7.46608],[110.22781,-7.4662],[110.22749,-7.46623],[110.22744,-7.46625],[110.22737,-7.46628],[110.22736,-7.46629],[110.22733,-7.46637],[110.22763,-7.46667],[110.22769,-7.46672],[110.22782,-7.46684],[110.22781,-7.46705],[110.2278,-7.46727],[110.22779,-7.4674],[110.22781,-7.46744],[110.22795,-7.4677],[110.22812,-7.46796],[110.22815,-7.46811],[110.22802,-7.46831],[110.228,-7.46832],[110.22785,-7.4685],[110.22779,-7.46863],[110.22779,-7.46866],[110.2278,-7.46872],[110.228,-7.46884],[110.22803,-7.46886],[110.22808,-7.46888],[110.22841,-7.46903],[110.22859,-7.46917],[110.22865,-7.46928],[110.22866,-7.46929],[110.22866,-7.4695],[110.22855,-7.46978],[110.22854,-7.46979],[110.22837,-7.4701],[110.22835,-7.47019],[110.22833,-7.47024],[110.22841,-7.47038],[110.22857,-7.47068],[110.22889,-7.47098],[110.22925,-7.47132],[110.22945,-7.47153],[110.22976,-7.47285],[110.22983,-7.47307],[110.22994,-7.47322],[110.23054,-7.47341],[110.23062,-7.47344],[110.23074,-7.47348],[110.23089,-7.47354],[110.231,-7.47366],[110.23102,-7.47385],[110.23095,-7.47406],[110.23091,-7.47416],[110.23086,-7.47433],[110.23082,-7.47441],[110.23067,-7.47475],[110.23063,-7.4749],[110.23066,-7.47499],[110.23075,-7.47502],[110.23104,-7.47512],[110.23119,-7.47515],[110.23121,-7.47517],[110.23128,-7.47501],[110.23132,-7.47491],[110.23135,-7.47485],[110.23144,-7.47461],[110.23147,-7.47455],[110.23147,-7.47454],[110.23161,-7.47426],[110.23161,-7.47416],[110.23159,-7.47404],[110.23158,-7.47396],[110.23158,-7.47378],[110.23159,-7.4735],[110.23158,-7.47348],[110.23157,-7.47344],[110.23156,-7.47343],[110.23154,-7.47339],[110.2315,-7.47334],[110.23147,-7.47328],[110.23143,-7.47316],[110.23143,-7.47312],[110.23144,-7.47308],[110.23147,-7.47304],[110.23159,-7.47289],[110.23165,-7.47281],[110.23165,-7.4728],[110.23166,-7.47279],[110.23171,-7.47272],[110.23175,-7.47267],[110.23178,-7.4726],[110.23179,-7.47257],[110.2318,-7.47252],[110.2318,-7.47251],[110.23181,-7.47245],[110.23182,-7.47234],[110.23183,-7.47228],[110.23183,-7.47221],[110.23182,-7.47208],[110.23181,-7.47207],[110.23181,-7.47206],[110.2318,-7.47199],[110.2318,-7.47194],[110.23181,-7.4719],[110.23184,-7.47187],[110.23184,-7.47186],[110.23186,-7.47185],[110.23189,-7.47183],[110.23194,-7.4718],[110.23199,-7.47176],[110.23203,-7.47173],[110.23205,-7.47169],[110.23206,-7.47165],[110.23207,-7.4716],[110.23206,-7.47156],[110.23204,-7.47152],[110.23201,-7.47148],[110.23197,-7.47146],[110.23192,-7.47144],[110.23187,-7.47143],[110.23162,-7.47143],[110.23157,-7.47144],[110.23143,-7.47144],[110.2314,-7.47143],[110.23136,-7.47139],[110.23134,-7.47136],[110.23134,-7.4712],[110.23135,-7.47115],[110.23137,-7.47111],[110.23141,-7.47107],[110.23149,-7.47103],[110.23156,-7.47101],[110.23166,-7.47101],[110.23171,-7.47099],[110.23174,-7.47096],[110.23176,-7.47093],[110.23177,-7.47089],[110.23177,-7.47088],[110.23176,-7.47085],[110.23175,-7.47081],[110.23173,-7.47078],[110.23169,-7.47075],[110.23169,-7.47074],[110.23168,-7.47074],[110.23166,-7.47073],[110.23165,-7.47073],[110.2316,-7.47071],[110.23156,-7.47071],[110.23156,-7.4707],[110.23153,-7.4707],[110.23146,-7.47069],[110.2314,-7.47067],[110.23135,-7.47065],[110.23131,-7.47061],[110.23129,-7.47057],[110.23128,-7.47053],[110.23128,-7.47042],[110.23129,-7.4704],[110.23131,-7.47037],[110.23135,-7.47034],[110.2314,-7.47032],[110.23147,-7.47029],[110.23156,-7.47026],[110.23168,-7.47024],[110.23181,-7.47021],[110.23193,-7.47017],[110.23194,-7.47017],[110.23206,-7.47014],[110.23217,-7.4701],[110.23223,-7.47007],[110.23228,-7.47002],[110.23233,-7.46996],[110.23235,-7.46992],[110.23236,-7.46987],[110.23237,-7.46983],[110.23236,-7.46979],[110.23235,-7.46974],[110.23231,-7.4697],[110.23225,-7.46967],[110.23219,-7.46965],[110.23201,-7.46962],[110.23186,-7.46961],[110.23182,-7.46961],[110.23161,-7.46963],[110.23156,-7.46964],[110.23118,-7.46968],[110.23109,-7.46967],[110.23102,-7.46965],[110.23096,-7.46961],[110.23092,-7.46958],[110.23089,-7.46954],[110.23089,-7.46953],[110.23086,-7.46948],[110.23086,-7.46944],[110.23085,-7.4694],[110.23086,-7.46935],[110.23095,-7.46926],[110.231,-7.46923],[110.23106,-7.46919],[110.23112,-7.46916],[110.23117,-7.46912],[110.23121,-7.469],[110.23122,-7.46899],[110.23123,-7.46894],[110.23123,-7.46893],[110.23122,-7.46888],[110.23121,-7.46884],[110.23117,-7.4688],[110.23112,-7.46876],[110.23107,-7.46873],[110.23101,-7.4687],[110.23076,-7.46862],[110.23069,-7.46858],[110.23058,-7.46853],[110.23048,-7.46849],[110.23043,-7.46846],[110.23042,-7.46846],[110.2304,-7.46844],[110.23033,-7.46839],[110.23029,-7.4683],[110.23026,-7.46825],[110.23024,-7.46822],[110.23021,-7.46817],[110.2302,-7.46813],[110.2302,-7.46808],[110.23022,-7.46804],[110.23025,-7.468],[110.23057,-7.4676],[110.23062,-7.46753],[110.23067,-7.46748],[110.23073,-7.46739],[110.23076,-7.46736],[110.23079,-7.46729],[110.2308,-7.46723],[110.2308,-7.46719],[110.23078,-7.46715],[110.23076,-7.4671],[110.23071,-7.46706],[110.23067,-7.46703],[110.23061,-7.46699],[110.23056,-7.46697],[110.2305,-7.46696],[110.23041,-7.46697],[110.23032,-7.46697],[110.23027,-7.46698],[110.23023,-7.46698],[110.2302,-7.46697],[110.23012,-7.46693],[110.23009,-7.46691],[110.23005,-7.46687],[110.23001,-7.46684],[110.22997,-7.4668],[110.22993,-7.46675],[110.22991,-7.4667],[110.2299,-7.46666],[110.22992,-7.46663],[110.22995,-7.4666],[110.23014,-7.46651],[110.23025,-7.4665],[110.2303,-7.46649],[110.23036,-7.46648],[110.23049,-7.46646],[110.2306,-7.46643],[110.23072,-7.4664],[110.23081,-7.46635],[110.23086,-7.46631],[110.23089,-7.46627],[110.2309,-7.46626],[110.2309,-7.46615],[110.23089,-7.46612],[110.23088,-7.46608],[110.23085,-7.46604],[110.23082,-7.46601],[110.23078,-7.46598],[110.23073,-7.46595],[110.23065,-7.46595],[110.23055,-7.46593],[110.23044,-7.4659],[110.23032,-7.46586],[110.23028,-7.46585],[110.23026,-7.46583],[110.23026,-7.4657],[110.23028,-7.46564],[110.23031,-7.46561],[110.23036,-7.46554],[110.23041,-7.4655],[110.23057,-7.46529],[110.23058,-7.46528],[110.23062,-7.46521],[110.23068,-7.46511],[110.23072,-7.46502],[110.23073,-7.46497],[110.23073,-7.46493],[110.23072,-7.46488],[110.23071,-7.46484],[110.2307,-7.46482],[110.23066,-7.46477],[110.23061,-7.46468],[110.23057,-7.46461],[110.23052,-7.46454],[110.23048,-7.46449],[110.23043,-7.46444],[110.23038,-7.4644],[110.23037,-7.46439],[110.23031,-7.46434],[110.23019,-7.46414],[110.23016,-7.46407],[110.23015,-7.46403],[110.23014,-7.464],[110.23014,-7.4639],[110.23013,-7.46385],[110.23013,-7.46383],[110.23012,-7.46381],[110.23012,-7.46375],[110.23013,-7.46371],[110.23021,-7.46358],[110.23025,-7.46352],[110.2303,-7.46348],[110.23033,-7.46346],[110.23037,-7.46345],[110.23044,-7.46345],[110.23057,-7.46352],[110.23061,-7.46357],[110.23067,-7.46363],[110.23083,-7.46391],[110.23084,-7.46392],[110.23086,-7.46397],[110.23089,-7.46401],[110.23106,-7.46413],[110.23117,-7.46421],[110.2312,-7.46422],[110.23122,-7.46421],[110.23126,-7.4642],[110.23131,-7.46412],[110.23131,-7.46411],[110.23132,-7.46402],[110.23131,-7.46395],[110.23131,-7.46382],[110.23106,-7.46369],[110.23085,-7.46347],[110.23065,-7.46298],[110.23065,-7.46282],[110.23072,-7.46271],[110.23082,-7.46265],[110.23097,-7.46264],[110.23114,-7.46272],[110.23128,-7.46284],[110.2314,-7.46302],[110.23161,-7.46323],[110.23169,-7.46317],[110.2317,-7.46316],[110.23171,-7.46316],[110.23179,-7.46308],[110.23184,-7.46301],[110.23189,-7.46293],[110.2319,-7.46292],[110.23194,-7.46286],[110.23196,-7.46285],[110.23199,-7.46281],[110.23211,-7.4627],[110.23212,-7.46269],[110.23223,-7.46259],[110.23229,-7.46254],[110.23231,-7.46252],[110.23233,-7.46249],[110.23236,-7.46244],[110.23237,-7.4624],[110.23238,-7.46231],[110.23238,-7.46212],[110.23237,-7.46206],[110.23235,-7.46202],[110.23232,-7.46197],[110.23229,-7.46194],[110.23225,-7.46191],[110.2322,-7.46188],[110.23216,-7.46185],[110.2321,-7.46182],[110.23195,-7.46177],[110.23193,-7.46177],[110.23185,-7.46175],[110.23182,-7.46174],[110.23181,-7.46174],[110.23175,-7.46172],[110.23151,-7.4616],[110.23141,-7.46153],[110.23129,-7.46144],[110.23116,-7.46132],[110.23115,-7.46131],[110.23107,-7.46124],[110.23103,-7.46117],[110.231,-7.4611],[110.23098,-7.46105],[110.23098,-7.46095],[110.23099,-7.4609],[110.23102,-7.46084],[110.23103,-7.46083],[110.23111,-7.46078],[110.23113,-7.46077],[110.23118,-7.46077],[110.23124,-7.46078],[110.23134,-7.46079],[110.23163,-7.46086],[110.23165,-7.46086],[110.23191,-7.46092],[110.23197,-7.46093],[110.23201,-7.46092],[110.23204,-7.4609],[110.23206,-7.46086],[110.23208,-7.4608],[110.2321,-7.46075],[110.23211,-7.46068],[110.23212,-7.46046],[110.2321,-7.46036],[110.23209,-7.46027],[110.23208,-7.46019],[110.23208,-7.45986],[110.23207,-7.45974],[110.23207,-7.45962],[110.23206,-7.45951],[110.23206,-7.45944],[110.23205,-7.45938],[110.23201,-7.45926],[110.23198,-7.45916],[110.23195,-7.45909],[110.23192,-7.45904],[110.23189,-7.45901],[110.23184,-7.45898],[110.23181,-7.45896],[110.23177,-7.45894],[110.23168,-7.45893],[110.23161,-7.45894],[110.23152,-7.45896],[110.23144,-7.45898],[110.23109,-7.45907],[110.23099,-7.45908],[110.23094,-7.45907],[110.23091,-7.45906],[110.23088,-7.45904],[110.23086,-7.45901],[110.23085,-7.45897],[110.23085,-7.45879],[110.23084,-7.45848],[110.23084,-7.45799],[110.2309,-7.45789],[110.23092,-7.45786],[110.23095,-7.45784],[110.23098,-7.45783],[110.231,-7.45782],[110.23103,-7.45782],[110.23106,-7.45783],[110.23111,-7.45784],[110.23117,-7.45787],[110.23126,-7.45791],[110.23135,-7.45793],[110.23145,-7.45796],[110.23186,-7.458],[110.2319,-7.458],[110.23193,-7.45799],[110.23195,-7.45798],[110.23196,-7.45796],[110.23198,-7.45793],[110.23198,-7.45789],[110.232,-7.45784],[110.23201,-7.45777],[110.23203,-7.4577],[110.23203,-7.45765],[110.23204,-7.45764],[110.23205,-7.45755],[110.23206,-7.45748],[110.23208,-7.45739],[110.23211,-7.45703],[110.23213,-7.45681],[110.23215,-7.45667],[110.23194,-7.45662],[110.23185,-7.45654],[110.23179,-7.45638],[110.23187,-7.45611],[110.23187,-7.45595],[110.23183,-7.45579],[110.23175,-7.45563],[110.23173,-7.45548],[110.23178,-7.4552],[110.23186,-7.45506],[110.23179,-7.45495],[110.23175,-7.45484],[110.23182,-7.45476],[110.23197,-7.4547],[110.23229,-7.45464],[110.23237,-7.4546],[110.23241,-7.45445],[110.23247,-7.45397],[110.23254,-7.45385],[110.23264,-7.45377],[110.23284,-7.45362],[110.23284,-7.45351],[110.23282,-7.45335],[110.23271,-7.45299],[110.23273,-7.45292],[110.23286,-7.45284],[110.23304,-7.45273],[110.23338,-7.45257],[110.23349,-7.45239],[110.23354,-7.45225],[110.23375,-7.45208],[110.23403,-7.45199],[110.23431,-7.45196],[110.23428,-7.45192],[110.23423,-7.45188],[110.23422,-7.45183],[110.23425,-7.45178],[110.23432,-7.45173],[110.23438,-7.45172],[110.2343,-7.45167],[110.23436,-7.45154],[110.23442,-7.45151],[110.2344,-7.45148],[110.23446,-7.4514],[110.23445,-7.45129],[110.23443,-7.45116],[110.23442,-7.45108],[110.23443,-7.45103],[110.23447,-7.45099],[110.23454,-7.45095],[110.23462,-7.4509],[110.23466,-7.45082],[110.23471,-7.4507],[110.23475,-7.45066],[110.23476,-7.45061],[110.2349,-7.45045],[110.23492,-7.45035],[110.23494,-7.45023],[110.23495,-7.4502],[110.23504,-7.4501],[110.2351,-7.45006],[110.23524,-7.44999],[110.23498,-7.44896],[110.23494,-7.44887],[110.23479,-7.4489],[110.23477,-7.44879],[110.23487,-7.44875],[110.23474,-7.4484],[110.23503,-7.44828],[110.23537,-7.44814],[110.23594,-7.44873],[110.23609,-7.44854],[110.23624,-7.4484],[110.23642,-7.44825],[110.2365,-7.44815],[110.23657,-7.44797],[110.23675,-7.44772],[110.23688,-7.44755],[110.23702,-7.44741],[110.23712,-7.44728],[110.23712,-7.44724],[110.2372,-7.44719],[110.23737,-7.44711],[110.23744,-7.44706],[110.23751,-7.44717],[110.2377,-7.44712],[110.2378,-7.44713],[110.23785,-7.44717],[110.23787,-7.4473],[110.2379,-7.4474],[110.23816,-7.44779],[110.23827,-7.44776],[110.2385,-7.44764],[110.23855,-7.44762],[110.2386,-7.44761],[110.23865,-7.44762],[110.23869,-7.44763],[110.23875,-7.44765],[110.23882,-7.44768],[110.23892,-7.44773],[110.23897,-7.44775],[110.23898,-7.44775],[110.23913,-7.4478],[110.23926,-7.44783],[110.23933,-7.44784],[110.2394,-7.44784],[110.23959,-7.4478],[110.23967,-7.44778],[110.23976,-7.44777],[110.23982,-7.44776],[110.23996,-7.44778],[110.24004,-7.4478],[110.24006,-7.4478],[110.24012,-7.44781],[110.24017,-7.44782],[110.2403,-7.44782],[110.24036,-7.4478],[110.24046,-7.44774],[110.24052,-7.44766],[110.24055,-7.4476],[110.24058,-7.44755],[110.24059,-7.44752],[110.24063,-7.44743],[110.24063,-7.44742],[110.24065,-7.44736],[110.24066,-7.44729],[110.24068,-7.44719],[110.24069,-7.44709],[110.24071,-7.44696],[110.24071,-7.44693],[110.24066,-7.44679],[110.24065,-7.44648],[110.24065,-7.44634],[110.24066,-7.44628],[110.24068,-7.44622],[110.2407,-7.44615],[110.24072,-7.4461],[110.24078,-7.44598],[110.24082,-7.44593],[110.24085,-7.44589],[110.24087,-7.44587],[110.24092,-7.44583],[110.24096,-7.4458],[110.24101,-7.44575],[110.24106,-7.44572],[110.24112,-7.44568],[110.24115,-7.44565],[110.24119,-7.44562],[110.24123,-7.4456],[110.24128,-7.44557],[110.24138,-7.44552],[110.24172,-7.44532],[110.24181,-7.44526],[110.24213,-7.44503],[110.24213,-7.44502],[110.24239,-7.44487],[110.24252,-7.4448],[110.24253,-7.44479],[110.24257,-7.44478],[110.24272,-7.44472],[110.24285,-7.44468],[110.24295,-7.44466],[110.24301,-7.44464],[110.24311,-7.44464],[110.24316,-7.44465],[110.24322,-7.44468],[110.24339,-7.44479],[110.24346,-7.44486],[110.24347,-7.44486],[110.2435,-7.4449],[110.24358,-7.44495],[110.24373,-7.44504],[110.24381,-7.44508],[110.2439,-7.44511],[110.24403,-7.44512],[110.24439,-7.44513],[110.24449,-7.44512],[110.2446,-7.44511],[110.24469,-7.44509],[110.24482,-7.44506],[110.24495,-7.44501],[110.24497,-7.44501],[110.24507,-7.44499],[110.2451,-7.44499],[110.2453,-7.44496],[110.24548,-7.44491],[110.24555,-7.4449],[110.24592,-7.44485],[110.24606,-7.44484],[110.24616,-7.44484],[110.24618,-7.44483],[110.24627,-7.44482],[110.24629,-7.44482],[110.24669,-7.44472],[110.24675,-7.4447],[110.2468,-7.44468],[110.24688,-7.44464],[110.24692,-7.44461],[110.24695,-7.44459],[110.24704,-7.44452],[110.24707,-7.44448],[110.24719,-7.44433],[110.24724,-7.44427],[110.24726,-7.44426],[110.24733,-7.4442],[110.24735,-7.44418],[110.24759,-7.444],[110.24769,-7.44394],[110.2478,-7.44389],[110.24791,-7.44383],[110.24803,-7.44378],[110.24866,-7.4435],[110.24867,-7.4435],[110.24877,-7.44345],[110.24884,-7.44341],[110.24888,-7.44339],[110.24892,-7.44334],[110.249,-7.44327],[110.24909,-7.44319],[110.24914,-7.44315],[110.24915,-7.44314],[110.24924,-7.44302],[110.24939,-7.44285],[110.24943,-7.44281],[110.2495,-7.44275],[110.24955,-7.4427],[110.2496,-7.44262],[110.24964,-7.44256],[110.24969,-7.44248],[110.24974,-7.44237],[110.24975,-7.44234],[110.24982,-7.44217],[110.24987,-7.44205],[110.25004,-7.44153],[110.25008,-7.44142],[110.25017,-7.44121],[110.25034,-7.44082],[110.25039,-7.4407],[110.25043,-7.44062],[110.25054,-7.44029],[110.25055,-7.44028],[110.25056,-7.44023],[110.25058,-7.44018],[110.25058,-7.44007],[110.25057,-7.44003],[110.25051,-7.43997],[110.25049,-7.43994],[110.25048,-7.43993],[110.25047,-7.43989],[110.25047,-7.43985],[110.25048,-7.43981],[110.25049,-7.43976],[110.25051,-7.43974],[110.25051,-7.43973],[110.25052,-7.43971],[110.25068,-7.43945],[110.25074,-7.43933],[110.25082,-7.4392],[110.25089,-7.43911],[110.25106,-7.43882],[110.25108,-7.43879],[110.25112,-7.43868],[110.25114,-7.43862],[110.25118,-7.43853],[110.25121,-7.43845],[110.25122,-7.43837],[110.25124,-7.43828],[110.25125,-7.43825],[110.25125,-7.4382],[110.25129,-7.43805],[110.25131,-7.43801],[110.25137,-7.43785],[110.2514,-7.43771],[110.25142,-7.43762],[110.25142,-7.43752],[110.25141,-7.43745],[110.25141,-7.43737],[110.25142,-7.4373],[110.25142,-7.43726],[110.25146,-7.43714],[110.25155,-7.43692],[110.2516,-7.43676],[110.25161,-7.43674],[110.25168,-7.43658],[110.25173,-7.43641],[110.25181,-7.43614],[110.25187,-7.43605],[110.25188,-7.43603],[110.2519,-7.436],[110.25194,-7.43593],[110.25197,-7.43588],[110.25206,-7.43583],[110.2521,-7.43581],[110.25218,-7.43578],[110.25219,-7.43578],[110.25227,-7.43575],[110.25233,-7.43573],[110.25239,-7.43572],[110.25258,-7.43572],[110.25262,-7.43573],[110.25267,-7.43576],[110.25274,-7.4358],[110.25281,-7.43585],[110.25289,-7.4359],[110.25291,-7.43592],[110.25292,-7.43592],[110.25299,-7.43597],[110.25311,-7.43604],[110.2532,-7.43609],[110.25368,-7.4363],[110.25374,-7.43633],[110.25383,-7.43636],[110.25391,-7.43639],[110.25408,-7.43639],[110.25418,-7.43638],[110.25441,-7.43637],[110.25448,-7.43636],[110.25464,-7.43636],[110.25472,-7.43638],[110.25486,-7.43642],[110.255,-7.4365],[110.25504,-7.43653],[110.25508,-7.43657],[110.25512,-7.43662],[110.25517,-7.43667],[110.25522,-7.43673],[110.25526,-7.43677],[110.25531,-7.43683],[110.25535,-7.43688],[110.25544,-7.43703],[110.25548,-7.43709],[110.25553,-7.4372],[110.25557,-7.43727],[110.25574,-7.43764],[110.25579,-7.43774],[110.25583,-7.43783],[110.25587,-7.43788],[110.25593,-7.43793],[110.25622,-7.43813],[110.25625,-7.43815],[110.25629,-7.43815],[110.25632,-7.43816],[110.25641,-7.43816],[110.25646,-7.43815],[110.2565,-7.43813],[110.25656,-7.43809],[110.25659,-7.43805],[110.25661,-7.43802],[110.25664,-7.43796],[110.25667,-7.43792],[110.25673,-7.4378],[110.25678,-7.43749],[110.25679,-7.43743],[110.25681,-7.43738],[110.25684,-7.43732],[110.25688,-7.43727],[110.25691,-7.43725],[110.25695,-7.43722],[110.25699,-7.43721],[110.25705,-7.43719],[110.25726,-7.43718],[110.25738,-7.43718],[110.25772,-7.43714],[110.25784,-7.43712],[110.25797,-7.43712],[110.25797,-7.43711],[110.25801,-7.43711],[110.25806,-7.43708],[110.25812,-7.43704],[110.25816,-7.43699],[110.2582,-7.43695],[110.25822,-7.4369],[110.25822,-7.4368],[110.25818,-7.43672],[110.25812,-7.43659],[110.25811,-7.43656],[110.25807,-7.43646],[110.25803,-7.43637],[110.258,-7.43628],[110.25795,-7.43617],[110.25787,-7.436],[110.25784,-7.43593],[110.2578,-7.43582],[110.25778,-7.43573],[110.25777,-7.43568],[110.25778,-7.43558],[110.2578,-7.4355],[110.25783,-7.43545],[110.25787,-7.4354],[110.25792,-7.43534],[110.25797,-7.43529],[110.25797,-7.43528],[110.25798,-7.43528],[110.25803,-7.43523],[110.25809,-7.43514],[110.2583,-7.43477],[110.25833,-7.4347],[110.25836,-7.43464],[110.25838,-7.43458],[110.2584,-7.43453],[110.25844,-7.4341],[110.25844,-7.43391],[110.25831,-7.43357],[110.25828,-7.4335],[110.25826,-7.43345],[110.25824,-7.43337],[110.25822,-7.43331],[110.25819,-7.43325],[110.25816,-7.43316],[110.25814,-7.43304],[110.25813,-7.43299],[110.25812,-7.43296],[110.25807,-7.43289],[110.2579,-7.43276],[110.25787,-7.43275],[110.2578,-7.43272],[110.25769,-7.43269],[110.25767,-7.43268],[110.25766,-7.43268],[110.2576,-7.43265],[110.25751,-7.43262],[110.25744,-7.43258],[110.25739,-7.43254],[110.25733,-7.4325],[110.25724,-7.43241],[110.25721,-7.43236],[110.2572,-7.43232],[110.25719,-7.43231],[110.25718,-7.43227],[110.25717,-7.43221],[110.25718,-7.43207],[110.25719,-7.43203],[110.25722,-7.43199],[110.25725,-7.43196],[110.25729,-7.43193],[110.25735,-7.4319],[110.2575,-7.43181],[110.25755,-7.43179],[110.25767,-7.43179],[110.25773,-7.4318],[110.25781,-7.43181],[110.25816,-7.43188],[110.25824,-7.43189],[110.25831,-7.4319],[110.25843,-7.43191],[110.25853,-7.43191],[110.25864,-7.43193],[110.25877,-7.43196],[110.25904,-7.43203],[110.25978,-7.43224],[110.25989,-7.43228],[110.25999,-7.43231],[110.26002,-7.43232],[110.26012,-7.43235],[110.26021,-7.43239],[110.26083,-7.43261],[110.26088,-7.43263],[110.26096,-7.43265],[110.26104,-7.43268],[110.26112,-7.43272],[110.26119,-7.43276],[110.26125,-7.43279],[110.26133,-7.43284],[110.26163,-7.43307],[110.26178,-7.43319],[110.26183,-7.43321],[110.26188,-7.43325],[110.26193,-7.43328],[110.26196,-7.43332],[110.26199,-7.43335],[110.26208,-7.43348],[110.2622,-7.43363],[110.26221,-7.43366],[110.26221,-7.43368],[110.26222,-7.43371],[110.26221,-7.43376],[110.26221,-7.43381],[110.2622,-7.43385],[110.26217,-7.43392],[110.26212,-7.43402],[110.26212,-7.43403],[110.26211,-7.43403],[110.26208,-7.4341],[110.26204,-7.4342],[110.26202,-7.43442],[110.26203,-7.43451],[110.26205,-7.43458],[110.26211,-7.43464],[110.26214,-7.43466],[110.26218,-7.43468],[110.26219,-7.43469],[110.26226,-7.43471],[110.26234,-7.43471],[110.26235,-7.4347],[110.26238,-7.4347],[110.26243,-7.43469],[110.26248,-7.43466],[110.26278,-7.43451],[110.26285,-7.43447],[110.26305,-7.43437],[110.2631,-7.43434],[110.26312,-7.43433],[110.26315,-7.43431],[110.26321,-7.43429],[110.26326,-7.43427],[110.26328,-7.43425],[110.2633,-7.43422],[110.26333,-7.43419],[110.26337,-7.43414],[110.26343,-7.43407],[110.2635,-7.43398],[110.26351,-7.43396],[110.26357,-7.43386],[110.26363,-7.43378],[110.26377,-7.43364],[110.26385,-7.43359],[110.26396,-7.43352],[110.26404,-7.43346],[110.26416,-7.43338],[110.26428,-7.43332],[110.26436,-7.43329],[110.26438,-7.43327],[110.26456,-7.43318],[110.26462,-7.43316],[110.2647,-7.43314],[110.26476,-7.43313],[110.26494,-7.43313],[110.265,-7.43316],[110.26504,-7.43314],[110.26505,-7.43309],[110.26506,-7.43306],[110.26507,-7.43304],[110.26509,-7.43299],[110.26516,-7.43277],[110.26516,-7.43267],[110.26517,-7.43263],[110.26517,-7.43257],[110.26516,-7.43251],[110.26515,-7.43242],[110.26513,-7.43234],[110.26512,-7.43226],[110.26513,-7.43221],[110.26513,-7.43219],[110.26514,-7.43209],[110.26515,-7.43202],[110.26516,-7.43198],[110.26518,-7.43193],[110.26519,-7.43192],[110.26519,-7.43191],[110.2652,-7.43189],[110.26523,-7.43186],[110.26526,-7.43182],[110.26529,-7.4318],[110.26533,-7.43178],[110.26538,-7.43176],[110.26544,-7.43175],[110.26562,-7.43175],[110.26567,-7.43176],[110.26576,-7.43178],[110.26601,-7.43178],[110.26608,-7.43177],[110.26614,-7.43176],[110.26618,-7.43175],[110.26624,-7.43172],[110.26629,-7.43167],[110.26638,-7.4316],[110.26645,-7.43155],[110.26647,-7.43154],[110.2667,-7.43137],[110.26672,-7.43133],[110.26676,-7.43127],[110.26676,-7.43099],[110.26675,-7.43099],[110.26675,-7.43093],[110.26678,-7.43084],[110.2668,-7.4308],[110.26682,-7.43078],[110.26687,-7.43071],[110.26691,-7.43066],[110.26702,-7.43051],[110.26708,-7.43046],[110.26713,-7.43042],[110.26716,-7.43041],[110.26725,-7.43041],[110.26729,-7.43042],[110.26736,-7.43044],[110.26781,-7.43062],[110.26799,-7.43067],[110.26809,-7.43069],[110.26831,-7.43069],[110.26835,-7.43067],[110.26838,-7.43066],[110.26844,-7.4306],[110.26848,-7.43052],[110.26851,-7.43047],[110.26851,-7.43045],[110.26852,-7.43043],[110.26853,-7.4304],[110.26854,-7.43034],[110.26854,-7.43009],[110.26853,-7.43005],[110.26852,-7.43002],[110.26851,-7.42998],[110.26849,-7.42996],[110.26847,-7.42993],[110.26845,-7.42991],[110.26842,-7.42987],[110.26841,-7.42983],[110.26841,-7.42978],[110.26842,-7.42973],[110.26845,-7.42967],[110.26847,-7.42964],[110.26852,-7.42961],[110.26858,-7.42957],[110.26863,-7.42955],[110.26867,-7.42953],[110.26873,-7.42952],[110.26878,-7.42951],[110.26888,-7.42952],[110.26895,-7.42953],[110.2695,-7.4296],[110.26956,-7.4296],[110.2696,-7.42959],[110.26963,-7.42959],[110.26967,-7.42958],[110.26972,-7.42956],[110.26975,-7.42955],[110.26977,-7.42954],[110.26978,-7.42954],[110.27001,-7.4294],[110.27006,-7.42936],[110.27009,-7.42933],[110.27013,-7.42928],[110.27015,-7.42927],[110.27015,-7.42926],[110.27016,-7.42925],[110.27031,-7.42906],[110.27035,-7.42902],[110.27043,-7.42896],[110.27049,-7.42892],[110.27071,-7.42878],[110.27079,-7.42873],[110.2708,-7.42874],[110.27085,-7.4288],[110.27102,-7.42873],[110.27121,-7.4286],[110.2713,-7.42854],[110.27133,-7.42853],[110.2717,-7.42843],[110.27184,-7.42843],[110.27238,-7.42844],[110.27258,-7.42844],[110.27266,-7.42843],[110.27301,-7.42842],[110.27323,-7.42842],[110.27342,-7.42841],[110.27392,-7.42842],[110.27414,-7.42842],[110.27422,-7.42843],[110.27429,-7.42845],[110.27444,-7.42851],[110.27447,-7.42852],[110.27448,-7.42853],[110.27463,-7.42862],[110.27466,-7.42864],[110.27468,-7.42869],[110.27469,-7.42873],[110.27469,-7.42878],[110.2747,-7.42882],[110.27471,-7.42884],[110.27472,-7.42889],[110.27473,-7.42892],[110.27474,-7.42893],[110.27476,-7.42896],[110.27483,-7.42903],[110.27505,-7.42914],[110.27514,-7.42917],[110.27546,-7.42917],[110.27556,-7.42915],[110.2758,-7.42909],[110.27586,-7.42906],[110.27589,-7.42904],[110.27593,-7.42901],[110.27611,-7.42876],[110.27627,-7.42849],[110.27633,-7.42838],[110.27641,-7.42824],[110.27642,-7.42819],[110.27643,-7.42816],[110.27643,-7.42815],[110.27645,-7.42812],[110.2765,-7.42807],[110.27655,-7.42801],[110.27665,-7.42794],[110.27674,-7.42789],[110.27677,-7.42787],[110.27687,-7.42786],[110.277,-7.42786],[110.27703,-7.42787],[110.27709,-7.42788],[110.27715,-7.4279],[110.27729,-7.42797],[110.27738,-7.42804],[110.27748,-7.42811],[110.27772,-7.42829],[110.27773,-7.4283],[110.27776,-7.42832],[110.27778,-7.42833],[110.27779,-7.42834],[110.27782,-7.42835],[110.27784,-7.42836],[110.27789,-7.42836],[110.27792,-7.42835],[110.27803,-7.42828],[110.27811,-7.42821],[110.27811,-7.4282],[110.27816,-7.42813],[110.27821,-7.42809],[110.27839,-7.42795],[110.27844,-7.4279],[110.27847,-7.42788],[110.27867,-7.42777],[110.2787,-7.42775],[110.27873,-7.42775],[110.27877,-7.42774],[110.27893,-7.42776],[110.27899,-7.42777],[110.27906,-7.42779],[110.27922,-7.42785],[110.27937,-7.42794],[110.27949,-7.42802],[110.27956,-7.42806],[110.27962,-7.4281],[110.27992,-7.42828],[110.27994,-7.42829],[110.27996,-7.42829],[110.28001,-7.42832],[110.28008,-7.42836],[110.28018,-7.42841],[110.28023,-7.42844],[110.28044,-7.42852],[110.28059,-7.42857],[110.28068,-7.42862],[110.28072,-7.42864],[110.28083,-7.42869],[110.2811,-7.42878],[110.28116,-7.42879],[110.28145,-7.4289],[110.28152,-7.42893],[110.28161,-7.42897],[110.28171,-7.42899],[110.28186,-7.42901],[110.28196,-7.42901],[110.28203,-7.429],[110.28207,-7.42901],[110.28215,-7.42901],[110.2822,-7.42897],[110.28224,-7.42894],[110.28227,-7.42892],[110.28243,-7.42882],[110.2825,-7.42876],[110.28255,-7.42871],[110.28257,-7.42871],[110.28261,-7.42863],[110.2826,-7.42857],[110.28256,-7.42842],[110.28256,-7.42832],[110.28255,-7.42826],[110.28255,-7.42823],[110.28254,-7.42821],[110.28254,-7.4281],[110.28252,-7.42804],[110.28251,-7.42798],[110.28248,-7.42781],[110.28248,-7.42775],[110.28247,-7.42766],[110.28247,-7.4275],[110.28249,-7.42742],[110.28252,-7.42724],[110.28256,-7.42708],[110.28259,-7.4269],[110.2826,-7.42679],[110.2826,-7.42631],[110.28259,-7.42618],[110.28257,-7.42596],[110.28256,-7.42592],[110.28256,-7.4259],[110.28254,-7.42583],[110.28251,-7.4257],[110.28248,-7.42558],[110.28244,-7.42548],[110.28237,-7.42535],[110.28232,-7.42524],[110.28231,-7.42523],[110.28231,-7.42522],[110.28228,-7.42514],[110.28225,-7.42504],[110.28222,-7.4249],[110.2822,-7.4248],[110.28219,-7.4247],[110.28219,-7.42459],[110.28221,-7.42453],[110.28226,-7.42448],[110.2823,-7.42447],[110.28233,-7.42446],[110.28237,-7.42446],[110.28255,-7.4245],[110.28277,-7.42457],[110.28284,-7.42459],[110.28295,-7.42462],[110.28315,-7.42467],[110.28319,-7.42466],[110.2832,-7.42466],[110.28326,-7.42464],[110.2833,-7.42461],[110.28335,-7.42456],[110.28337,-7.42451],[110.28337,-7.42447],[110.28336,-7.4244],[110.2833,-7.42418],[110.2833,-7.42414],[110.28329,-7.42409],[110.28328,-7.42403],[110.28328,-7.42395],[110.28329,-7.42384],[110.28331,-7.42376],[110.28333,-7.42372],[110.28333,-7.42371],[110.28339,-7.42362],[110.28341,-7.42361],[110.28343,-7.42358],[110.2835,-7.42352],[110.28359,-7.42348],[110.28372,-7.42342],[110.28381,-7.42337],[110.28382,-7.42337],[110.28382,-7.42336],[110.28386,-7.42332],[110.2839,-7.42326],[110.28396,-7.42315],[110.28398,-7.42306],[110.28398,-7.42293],[110.28397,-7.42289],[110.28392,-7.42282],[110.28391,-7.42281],[110.28391,-7.4228],[110.28384,-7.42272],[110.28376,-7.42262],[110.28375,-7.4226],[110.28372,-7.42255],[110.28367,-7.42245],[110.28361,-7.4223],[110.28358,-7.42219],[110.28358,-7.42215],[110.28357,-7.42214],[110.28357,-7.42213],[110.28358,-7.42206],[110.28359,-7.42202],[110.2836,-7.422],[110.28361,-7.42197],[110.28366,-7.42188],[110.28368,-7.42185],[110.28371,-7.42182],[110.28376,-7.42178],[110.28392,-7.4217],[110.284,-7.42169],[110.28406,-7.42168],[110.28412,-7.4217],[110.28415,-7.42172],[110.2842,-7.42176],[110.28424,-7.42183],[110.28429,-7.42196],[110.28435,-7.42208],[110.2844,-7.42217],[110.28444,-7.42222],[110.28447,-7.42225],[110.28456,-7.42228],[110.28466,-7.42228],[110.28472,-7.42227],[110.28479,-7.42226],[110.28486,-7.42224],[110.28493,-7.42221],[110.28496,-7.4222],[110.285,-7.42219],[110.28504,-7.42217],[110.28509,-7.42214],[110.28516,-7.4221],[110.28522,-7.42206],[110.28529,-7.42203],[110.28541,-7.42198],[110.28548,-7.42196],[110.28549,-7.42196],[110.28558,-7.42192],[110.28568,-7.42188],[110.28569,-7.42187],[110.28572,-7.42186],[110.28573,-7.42185],[110.28574,-7.42185],[110.28575,-7.42184],[110.28581,-7.4218],[110.28583,-7.42177],[110.28586,-7.42173],[110.28588,-7.42167],[110.28589,-7.42161],[110.28589,-7.42156],[110.28588,-7.42151],[110.28584,-7.42144],[110.28581,-7.42137],[110.2858,-7.42136],[110.28577,-7.4213],[110.28575,-7.42123],[110.28574,-7.42115],[110.28574,-7.42094],[110.28575,-7.42085],[110.28576,-7.42078],[110.28579,-7.42074],[110.28587,-7.42068],[110.28597,-7.42062],[110.28607,-7.4206],[110.28612,-7.42058],[110.28625,-7.42055],[110.28632,-7.42054],[110.28641,-7.42054],[110.28645,-7.42056],[110.28651,-7.42058],[110.28654,-7.4206],[110.2866,-7.4207],[110.28663,-7.42078],[110.28664,-7.42085],[110.28664,-7.42089],[110.28665,-7.42094],[110.28663,-7.42106],[110.2866,-7.42115],[110.2866,-7.42116],[110.28659,-7.42121],[110.28656,-7.4213],[110.28654,-7.42138],[110.28652,-7.42145],[110.28652,-7.42157],[110.28653,-7.42168],[110.28654,-7.4217],[110.28655,-7.42179],[110.28657,-7.42187],[110.28659,-7.42194],[110.28661,-7.42198],[110.28665,-7.42204],[110.2867,-7.42209],[110.28675,-7.42213],[110.28679,-7.42215],[110.28683,-7.42216],[110.28688,-7.42216],[110.28694,-7.42214],[110.28699,-7.42211],[110.28703,-7.42206],[110.28708,-7.42199],[110.28713,-7.42195],[110.28719,-7.4219],[110.28725,-7.42184],[110.28737,-7.4217],[110.28738,-7.42169],[110.28744,-7.42162],[110.28745,-7.42158],[110.28746,-7.42155],[110.28746,-7.42151],[110.28745,-7.42146],[110.28744,-7.42142],[110.28742,-7.42139],[110.28738,-7.42135],[110.28735,-7.4213],[110.2873,-7.42124],[110.28725,-7.4212],[110.28724,-7.42118],[110.28721,-7.42114],[110.28719,-7.42112],[110.28719,-7.42111],[110.28717,-7.42109],[110.28711,-7.42102],[110.28707,-7.42096],[110.28705,-7.42094],[110.28699,-7.42084],[110.28697,-7.42082],[110.28696,-7.42079],[110.28695,-7.42078],[110.28694,-7.42076],[110.28693,-7.42073],[110.28692,-7.42071],[110.28692,-7.42057],[110.28693,-7.42052],[110.28699,-7.42042],[110.28705,-7.42033],[110.2871,-7.42025],[110.2872,-7.42005],[110.28721,-7.42004],[110.28725,-7.41997],[110.28725,-7.41995],[110.28732,-7.41984],[110.28741,-7.41968],[110.28747,-7.41955],[110.28751,-7.41945],[110.28753,-7.41938],[110.28754,-7.41935],[110.28757,-7.41927],[110.28761,-7.41918],[110.28761,-7.41915],[110.28762,-7.41915],[110.28764,-7.41907],[110.28769,-7.41898],[110.28775,-7.41887],[110.28787,-7.41871],[110.28795,-7.4186],[110.28801,-7.41852],[110.28808,-7.41843],[110.2881,-7.41841],[110.28816,-7.41833],[110.28822,-7.41827],[110.28824,-7.41824],[110.28827,-7.41822],[110.28827,-7.41821],[110.28828,-7.41821],[110.2883,-7.41819],[110.28831,-7.41819],[110.28832,-7.41818],[110.2884,-7.41814],[110.28845,-7.4181],[110.28848,-7.41807],[110.28855,-7.41793],[110.28861,-7.41779],[110.28862,-7.41775],[110.28866,-7.41763],[110.2887,-7.4175],[110.28873,-7.41738],[110.28874,-7.41732],[110.28874,-7.41724],[110.28872,-7.41717],[110.28867,-7.41702],[110.28866,-7.417],[110.28865,-7.41691],[110.28865,-7.4169],[110.28864,-7.41682],[110.28865,-7.41676],[110.28868,-7.4167],[110.28872,-7.41665],[110.28882,-7.41661],[110.28886,-7.4166],[110.28894,-7.4166],[110.28914,-7.41664],[110.28923,-7.41666],[110.28929,-7.41667],[110.28944,-7.41667],[110.28954,-7.41666],[110.28961,-7.41665],[110.28969,-7.41663],[110.28971,-7.41662],[110.28972,-7.41661],[110.28973,-7.41661],[110.28978,-7.41657],[110.28981,-7.41654],[110.28982,-7.41651],[110.28983,-7.41649],[110.28983,-7.41644],[110.28982,-7.41639],[110.28978,-7.41631],[110.28973,-7.41619],[110.28969,-7.41608],[110.28966,-7.41599],[110.28963,-7.41586],[110.28962,-7.41585],[110.28962,-7.41573],[110.28964,-7.41569],[110.28965,-7.41566],[110.28966,-7.41564],[110.28968,-7.41562],[110.28978,-7.4155],[110.28987,-7.4154],[110.28988,-7.41539],[110.28979,-7.41527],[110.28973,-7.41518],[110.28971,-7.41513],[110.28957,-7.41501],[110.28947,-7.41495],[110.2894,-7.41511],[110.28926,-7.41539],[110.28917,-7.41556],[110.28909,-7.41563],[110.289,-7.41571],[110.28886,-7.41578],[110.28859,-7.41563],[110.2884,-7.41552],[110.2883,-7.41535],[110.28822,-7.41515],[110.28813,-7.415],[110.288,-7.41493],[110.28783,-7.41488],[110.28768,-7.41484],[110.2876,-7.41479],[110.28753,-7.4147],[110.28747,-7.41464],[110.28732,-7.41464],[110.28712,-7.41467],[110.28669,-7.41477],[110.28647,-7.41487],[110.28613,-7.41494],[110.28604,-7.41495],[110.28584,-7.41484],[110.28571,-7.41474],[110.28568,-7.41463],[110.28575,-7.41442],[110.28604,-7.41424],[110.28623,-7.41402],[110.28623,-7.41401],[110.28636,-7.41375],[110.28639,-7.41363],[110.28646,-7.41361],[110.28653,-7.41361],[110.28657,-7.4136],[110.28667,-7.41355],[110.28676,-7.41349],[110.28682,-7.41348],[110.28688,-7.41349],[110.28693,-7.41349],[110.28702,-7.41347],[110.2871,-7.41345],[110.28714,-7.41342],[110.28717,-7.41333],[110.28718,-7.41333],[110.28718,-7.41323],[110.28713,-7.41309],[110.28709,-7.41301],[110.28714,-7.41287],[110.28718,-7.41282],[110.28709,-7.41273],[110.28707,-7.41254],[110.28711,-7.41244],[110.28722,-7.4124],[110.28737,-7.41247],[110.28756,-7.41256],[110.28767,-7.41254],[110.28772,-7.4125],[110.28783,-7.41246],[110.28793,-7.41249],[110.28805,-7.41249],[110.28811,-7.41248],[110.2882,-7.41253],[110.2882,-7.41255],[110.28824,-7.41264],[110.2883,-7.41276],[110.28836,-7.41282],[110.28851,-7.41287],[110.28866,-7.41289],[110.28871,-7.41291],[110.28877,-7.41297],[110.2888,-7.41297],[110.28888,-7.41296],[110.2889,-7.41293],[110.28889,-7.41283],[110.28892,-7.41273],[110.28892,-7.41271],[110.28889,-7.4125],[110.28891,-7.41246],[110.28894,-7.41243],[110.28901,-7.41241],[110.28908,-7.41238],[110.28908,-7.41235],[110.28907,-7.41232],[110.28905,-7.4123],[110.28895,-7.41228],[110.28896,-7.41202],[110.28898,-7.41185],[110.28904,-7.41164],[110.28908,-7.41133],[110.28914,-7.41121],[110.28926,-7.41096],[110.2892,-7.41086],[110.28914,-7.41078],[110.28911,-7.41072],[110.28915,-7.41062],[110.28925,-7.41067],[110.28941,-7.41067],[110.28951,-7.41064],[110.28957,-7.41057],[110.28961,-7.41048],[110.28964,-7.41037],[110.28967,-7.41025],[110.2897,-7.41011],[110.28974,-7.40992],[110.28975,-7.40991],[110.2898,-7.40974],[110.28984,-7.40964],[110.28988,-7.40957],[110.28997,-7.40948],[110.29004,-7.40939],[110.29011,-7.40923],[110.29015,-7.40916],[110.29019,-7.40904],[110.29024,-7.40894],[110.29038,-7.40884],[110.29046,-7.40879],[110.29063,-7.40869],[110.29077,-7.4086],[110.29065,-7.40857],[110.29042,-7.4085],[110.29014,-7.40841],[110.28994,-7.40833],[110.28984,-7.4083],[110.28971,-7.4083],[110.28966,-7.40831],[110.28954,-7.40836],[110.28941,-7.4084],[110.28893,-7.4086],[110.28885,-7.40848],[110.28906,-7.40838],[110.28916,-7.40832],[110.28922,-7.4082],[110.28927,-7.40814],[110.28936,-7.40809],[110.28946,-7.40804],[110.28953,-7.40792],[110.28964,-7.40765],[110.28951,-7.40774],[110.2894,-7.40781],[110.28933,-7.40781],[110.28923,-7.4078],[110.28912,-7.40778],[110.28899,-7.40774],[110.28894,-7.40772],[110.28894,-7.40766],[110.28897,-7.40762],[110.28906,-7.4076],[110.28917,-7.40756],[110.28923,-7.40751],[110.28929,-7.40742],[110.28936,-7.40725],[110.2894,-7.40714],[110.28949,-7.40714],[110.28957,-7.40716],[110.28966,-7.40717],[110.28956,-7.40702],[110.28948,-7.40697],[110.28945,-7.40695],[110.28937,-7.40685],[110.2893,-7.40682],[110.28919,-7.40677],[110.28905,-7.4067],[110.28891,-7.40669],[110.28912,-7.4066],[110.2893,-7.40657],[110.28941,-7.40653],[110.2894,-7.40646],[110.28928,-7.40637],[110.28921,-7.40626],[110.28917,-7.4062],[110.28916,-7.40612],[110.2891,-7.40602],[110.28901,-7.40596],[110.28872,-7.4059],[110.28862,-7.4059],[110.28856,-7.40594],[110.28841,-7.40598],[110.28824,-7.4059],[110.28831,-7.40579],[110.28835,-7.40573],[110.28837,-7.40563],[110.28842,-7.40552],[110.28846,-7.40548],[110.28856,-7.40545],[110.28872,-7.40546],[110.28882,-7.40548],[110.28896,-7.40547],[110.28906,-7.40543],[110.28913,-7.40537],[110.28923,-7.40535],[110.28928,-7.40538],[110.2894,-7.40543],[110.28951,-7.4055],[110.28957,-7.40551],[110.28959,-7.4055],[110.28968,-7.40543],[110.2897,-7.40536],[110.28968,-7.40529],[110.28954,-7.40516],[110.2895,-7.40512],[110.28949,-7.40506],[110.28952,-7.40497],[110.28966,-7.40484],[110.28974,-7.40478],[110.28997,-7.40457],[110.29023,-7.40436],[110.29038,-7.40418],[110.29054,-7.40399],[110.29065,-7.4038],[110.29069,-7.40371],[110.29071,-7.40366],[110.29071,-7.40358],[110.29067,-7.40345],[110.29065,-7.40341],[110.2906,-7.4033],[110.29054,-7.40315],[110.2905,-7.40302],[110.2905,-7.40294],[110.29056,-7.40289],[110.29065,-7.40284],[110.29066,-7.40284],[110.29072,-7.40278],[110.2908,-7.4026],[110.29094,-7.40238],[110.29103,-7.40225],[110.29107,-7.4022],[110.29116,-7.40205],[110.29122,-7.40193],[110.29123,-7.40184],[110.2912,-7.40174],[110.29115,-7.40168],[110.29107,-7.40164],[110.29095,-7.40162],[110.29094,-7.40162],[110.29085,-7.4016],[110.29084,-7.40156],[110.29084,-7.40142],[110.29085,-7.40135],[110.29086,-7.40132],[110.29088,-7.40128],[110.29092,-7.40122],[110.29096,-7.40109],[110.29097,-7.40101],[110.29093,-7.40079],[110.29084,-7.40053],[110.2908,-7.40042],[110.2908,-7.40033],[110.29081,-7.40023],[110.29084,-7.40015],[110.29086,-7.40009],[110.29088,-7.40005],[110.29098,-7.39993],[110.29109,-7.39984],[110.29124,-7.39972],[110.29142,-7.39953],[110.29195,-7.39907],[110.29231,-7.39873],[110.29239,-7.39865],[110.29318,-7.39804],[110.29323,-7.39801],[110.29369,-7.39775],[110.29401,-7.39766],[110.29431,-7.39758],[110.29434,-7.39757],[110.29442,-7.39756],[110.29501,-7.39746],[110.29549,-7.3974],[110.29576,-7.39737],[110.29609,-7.39734],[110.29626,-7.39728],[110.29648,-7.39722],[110.29656,-7.39715],[110.29661,-7.39707],[110.29661,-7.39698],[110.29656,-7.39678],[110.29645,-7.39655],[110.29644,-7.39651],[110.29631,-7.39614],[110.29624,-7.39583],[110.29624,-7.39561],[110.29626,-7.39541],[110.29633,-7.39528],[110.29656,-7.39494],[110.29689,-7.39437],[110.29704,-7.39406],[110.2972,-7.39378],[110.29734,-7.39353],[110.2975,-7.39336],[110.29753,-7.39334],[110.29757,-7.39324],[110.29766,-7.39323],[110.29783,-7.39318],[110.29798,-7.3931],[110.29814,-7.39301],[110.29833,-7.39288],[110.29851,-7.39277],[110.29852,-7.39276],[110.29864,-7.3927],[110.29887,-7.3926],[110.29893,-7.39257],[110.299,-7.39253],[110.29902,-7.39252],[110.2992,-7.39245],[110.29924,-7.39243],[110.29954,-7.39231],[110.29971,-7.39224],[110.29979,-7.39221],[110.29997,-7.3921],[110.30021,-7.39197],[110.29985,-7.3916],[110.29946,-7.39119],[110.29939,-7.39115],[110.29887,-7.39088],[110.29788,-7.39054],[110.29731,-7.39007],[110.29692,-7.38973],[110.29661,-7.38957],[110.29583,-7.38953],[110.29529,-7.38988],[110.29488,-7.39014],[110.29453,-7.39025],[110.29415,-7.39026],[110.29388,-7.39005],[110.29364,-7.38975],[110.2927,-7.38988],[110.29093,-7.3901],[110.29083,-7.39011],[110.28992,-7.39025],[110.28895,-7.39068],[110.28816,-7.39113],[110.28728,-7.39115],[110.28651,-7.39085],[110.28622,-7.39075],[110.28582,-7.39075],[110.28526,-7.3908],[110.28457,-7.39085],[110.28455,-7.39063],[110.28454,-7.39044],[110.28456,-7.39035],[110.28456,-7.39028],[110.28457,-7.39023],[110.28461,-7.3902],[110.28469,-7.39017],[110.28473,-7.39019],[110.28491,-7.39038],[110.28508,-7.39045],[110.28512,-7.39044],[110.2852,-7.39043],[110.28529,-7.39037],[110.28538,-7.39023],[110.28543,-7.39011],[110.28558,-7.38978],[110.28562,-7.38967],[110.28563,-7.38965],[110.28567,-7.38952],[110.28573,-7.38927],[110.28623,-7.38857],[110.28641,-7.38846],[110.28653,-7.38838],[110.28667,-7.3883],[110.28679,-7.38822],[110.28685,-7.38811],[110.28688,-7.38799],[110.28688,-7.38783],[110.28685,-7.38768],[110.28685,-7.38751],[110.28696,-7.38734],[110.28739,-7.38687],[110.28742,-7.38671],[110.28744,-7.38654],[110.28749,-7.38644],[110.28757,-7.38639],[110.28764,-7.38637],[110.28767,-7.38637],[110.28792,-7.3864],[110.28797,-7.38638],[110.28804,-7.38634],[110.28818,-7.3862],[110.2883,-7.38604],[110.28835,-7.38595],[110.28843,-7.38583],[110.28856,-7.38576],[110.2887,-7.38575],[110.28884,-7.38568],[110.2889,-7.38562],[110.28895,-7.38542],[110.28899,-7.38518],[110.28905,-7.38499],[110.28928,-7.38478],[110.28939,-7.38468],[110.28947,-7.38461],[110.28933,-7.38461],[110.28923,-7.38458],[110.28923,-7.3845],[110.28946,-7.38422],[110.28953,-7.3841],[110.28948,-7.38401],[110.28945,-7.38389],[110.2895,-7.38382],[110.28959,-7.3838],[110.28966,-7.38381],[110.28986,-7.3838],[110.28997,-7.38374],[110.29004,-7.38364],[110.28987,-7.38356],[110.28982,-7.38355],[110.28968,-7.38352],[110.28951,-7.38349],[110.28947,-7.38347],[110.28919,-7.38338],[110.28899,-7.38331],[110.28881,-7.3832],[110.28866,-7.38305],[110.28845,-7.38277],[110.28809,-7.38283],[110.28775,-7.38277],[110.28759,-7.3827],[110.2875,-7.38249],[110.28672,-7.38295],[110.28668,-7.3832],[110.28656,-7.38331],[110.28642,-7.38343],[110.28631,-7.38357],[110.28617,-7.38357],[110.28609,-7.38351],[110.28606,-7.38338],[110.28531,-7.38385],[110.28519,-7.38358],[110.28515,-7.3835],[110.28512,-7.38342],[110.28509,-7.38324],[110.28515,-7.38317],[110.28529,-7.38308],[110.28542,-7.38302],[110.28574,-7.3829],[110.28586,-7.38278],[110.2861,-7.38247],[110.28616,-7.38234],[110.28603,-7.38233],[110.28588,-7.38255],[110.28575,-7.38269],[110.2856,-7.38279],[110.28538,-7.38287],[110.28528,-7.38288],[110.28514,-7.38289],[110.28498,-7.38297],[110.28481,-7.38308],[110.28456,-7.38314],[110.28453,-7.38315],[110.28432,-7.38318],[110.28418,-7.38323],[110.2841,-7.38332],[110.28402,-7.38352],[110.28399,-7.38362],[110.28397,-7.38372],[110.28387,-7.38381],[110.2837,-7.38394],[110.28357,-7.38397],[110.28346,-7.38398],[110.28329,-7.38392],[110.28314,-7.38389],[110.28302,-7.38389],[110.28284,-7.38399],[110.28283,-7.384],[110.28253,-7.38434],[110.28239,-7.38441],[110.28236,-7.38443],[110.28231,-7.38445],[110.28226,-7.38446],[110.28218,-7.38448],[110.28207,-7.38451],[110.28188,-7.38456],[110.28184,-7.38457],[110.2817,-7.38462],[110.28169,-7.38463],[110.28163,-7.38468],[110.28159,-7.38481],[110.28157,-7.38494],[110.28147,-7.385],[110.28134,-7.38503],[110.28128,-7.38504],[110.28109,-7.38512],[110.281,-7.38528],[110.28092,-7.38552],[110.28084,-7.3857],[110.28069,-7.38578],[110.2803,-7.3858],[110.28014,-7.38585],[110.28006,-7.38602],[110.28005,-7.38602],[110.28,-7.3862],[110.2798,-7.38663],[110.27946,-7.38693],[110.27928,-7.3868],[110.27908,-7.38676],[110.27896,-7.38676],[110.27885,-7.3868],[110.27869,-7.38717],[110.2787,-7.38723],[110.27875,-7.38731],[110.27877,-7.38734],[110.27867,-7.38743],[110.27863,-7.3876],[110.27864,-7.3877],[110.27865,-7.38791],[110.2786,-7.38805],[110.27854,-7.38807],[110.27852,-7.38808],[110.27845,-7.38806],[110.27831,-7.38805],[110.27819,-7.3881],[110.27811,-7.38819],[110.27808,-7.38829],[110.27804,-7.38935],[110.27803,-7.38941],[110.27782,-7.38933],[110.27769,-7.38924],[110.27754,-7.38918],[110.27768,-7.38888],[110.27762,-7.38881],[110.27747,-7.38874],[110.27754,-7.38856],[110.27744,-7.38845],[110.27733,-7.38825],[110.27693,-7.38848],[110.27677,-7.38855],[110.27665,-7.3886],[110.27638,-7.38841],[110.27632,-7.38832],[110.27632,-7.38827],[110.27636,-7.3882],[110.27631,-7.38805],[110.27624,-7.38786],[110.27607,-7.38765],[110.27583,-7.38733],[110.27574,-7.38725],[110.27563,-7.3872],[110.2756,-7.38715],[110.27545,-7.38698],[110.27531,-7.38688],[110.27508,-7.38676],[110.27483,-7.38666],[110.27475,-7.38669],[110.27444,-7.38664],[110.2743,-7.38661],[110.27426,-7.38661],[110.27412,-7.38668],[110.27392,-7.38676],[110.27373,-7.38688],[110.27368,-7.38699],[110.27348,-7.38692],[110.27322,-7.3868],[110.27316,-7.38683],[110.27314,-7.38688],[110.27312,-7.38696],[110.27308,-7.38702],[110.27301,-7.38697],[110.27294,-7.38686],[110.27286,-7.38665],[110.27281,-7.38654],[110.27252,-7.3862],[110.2724,-7.38614],[110.27222,-7.38604],[110.27204,-7.38597],[110.27189,-7.38591],[110.27179,-7.38585],[110.27167,-7.38579],[110.27124,-7.3858],[110.27108,-7.38585],[110.27102,-7.38587],[110.27098,-7.38589],[110.27095,-7.38595],[110.27095,-7.38603],[110.27093,-7.3861],[110.27085,-7.38613],[110.27084,-7.38614],[110.27075,-7.38613],[110.27058,-7.38607],[110.27037,-7.38594],[110.27025,-7.38576],[110.27012,-7.38554],[110.27002,-7.38541],[110.26995,-7.38536],[110.26967,-7.38534],[110.26939,-7.38531],[110.26902,-7.38518],[110.269,-7.38517],[110.26881,-7.38502],[110.2686,-7.38481],[110.26859,-7.38477],[110.26859,-7.38466],[110.2686,-7.38462],[110.26862,-7.38458],[110.26864,-7.38452],[110.26865,-7.38451],[110.26868,-7.38445],[110.26881,-7.38422],[110.26887,-7.3841],[110.26892,-7.38397],[110.26894,-7.38392],[110.26895,-7.38389],[110.26901,-7.38377],[110.26918,-7.38336],[110.26923,-7.38325],[110.26926,-7.3832],[110.2693,-7.38308],[110.26931,-7.38306],[110.26931,-7.38302],[110.26935,-7.38291],[110.26936,-7.38286],[110.26938,-7.3828],[110.26939,-7.38276],[110.26939,-7.38273],[110.26944,-7.38263],[110.26954,-7.38248],[110.26956,-7.38244],[110.26958,-7.38239],[110.2696,-7.38232],[110.26961,-7.38227],[110.26962,-7.38224],[110.26965,-7.38218],[110.26969,-7.38214],[110.26969,-7.38213],[110.26973,-7.3821],[110.26975,-7.38209],[110.26976,-7.38208],[110.2698,-7.38205],[110.26992,-7.38193],[110.26992,-7.38192],[110.26994,-7.38189],[110.27,-7.38177],[110.27006,-7.38168],[110.2701,-7.3816],[110.27013,-7.38151],[110.27013,-7.38147],[110.27011,-7.38143],[110.27011,-7.38142],[110.27008,-7.38136],[110.27006,-7.38134],[110.27006,-7.38133],[110.27004,-7.38132],[110.27001,-7.38131],[110.26994,-7.38131],[110.26988,-7.38133],[110.26977,-7.38135],[110.26967,-7.38137],[110.26964,-7.38137],[110.26961,-7.38135],[110.26955,-7.38127],[110.26954,-7.38117],[110.26955,-7.38114],[110.26956,-7.3811],[110.26958,-7.38107],[110.26961,-7.38104],[110.26958,-7.38101],[110.26957,-7.38097],[110.26955,-7.38093],[110.26951,-7.38089],[110.26946,-7.38087],[110.26938,-7.38089],[110.26934,-7.38091],[110.26931,-7.38092],[110.26927,-7.3809],[110.26923,-7.38089],[110.26911,-7.38088],[110.26895,-7.38088],[110.26889,-7.38089],[110.26885,-7.38092],[110.26879,-7.38099],[110.26876,-7.3811],[110.26874,-7.38116],[110.26868,-7.38119],[110.26864,-7.3812],[110.26861,-7.38122],[110.26859,-7.38123],[110.26858,-7.38123],[110.26859,-7.3812],[110.26859,-7.38117],[110.26857,-7.38114],[110.26855,-7.38112],[110.26851,-7.38113],[110.2685,-7.38113],[110.26847,-7.38114],[110.26842,-7.38115],[110.26839,-7.38116],[110.26836,-7.38116],[110.26834,-7.38115],[110.26833,-7.38114],[110.26828,-7.38114],[110.26824,-7.38115],[110.26824,-7.38116],[110.26806,-7.38134],[110.26724,-7.38157],[110.26657,-7.38193],[110.26554,-7.3817],[110.26409,-7.38147],[110.26283,-7.38093],[110.26161,-7.38022],[110.2611,-7.38012],[110.25901,-7.38021],[110.25733,-7.38034],[110.25672,-7.38085],[110.25643,-7.38172],[110.2562,-7.38236],[110.25582,-7.38258],[110.25533,-7.38258],[110.25488,-7.38223],[110.25501,-7.38076],[110.25514,-7.3798],[110.25463,-7.37897],[110.2546,-7.37794],[110.25447,-7.37649],[110.25389,-7.37543],[110.25354,-7.37434],[110.25387,-7.37267],[110.2538,-7.37177],[110.25332,-7.37091],[110.25252,-7.37039],[110.25236,-7.37038],[110.25197,-7.37036],[110.25149,-7.37055],[110.25107,-7.37094],[110.25018,-7.37128],[110.24935,-7.37151],[110.24809,-7.37144],[110.24665,-7.37086],[110.24613,-7.37086],[110.2455,-7.37111],[110.24549,-7.37112],[110.24484,-7.37185],[110.24397,-7.37217],[110.24339,-7.37201],[110.2433,-7.37172],[110.24294,-7.37147],[110.24253,-7.37137],[110.2415,-7.37159],[110.24099,-7.37176],[110.23966,-7.3722],[110.23858,-7.37246],[110.23799,-7.37261],[110.23673,-7.37267],[110.23658,-7.37263],[110.23602,-7.37248],[110.23554,-7.37245],[110.23506,-7.3727],[110.23485,-7.37323],[110.23487,-7.37334],[110.23501,-7.3741],[110.23494,-7.37526],[110.23478,-7.37612],[110.23443,-7.37638],[110.23394,-7.37676],[110.23365,-7.37708],[110.23349,-7.37753],[110.23352,-7.37894],[110.23323,-7.37981],[110.23329,-7.38081],[110.23329,-7.38083],[110.23326,-7.38254],[110.23303,-7.38315],[110.23284,-7.38337],[110.23248,-7.3835],[110.23139,-7.38331],[110.23062,-7.3833],[110.2301,-7.3834],[110.22923,-7.38346],[110.22846,-7.38343],[110.22907,-7.38459],[110.22865,-7.38503],[110.22778,-7.38545],[110.22665,-7.38593],[110.22614,-7.38596],[110.22508,-7.38551],[110.22498,-7.38493],[110.22498,-7.3848],[110.22492,-7.38394],[110.2247,-7.38323],[110.22425,-7.38217],[110.2237,-7.38166],[110.22326,-7.38157],[110.22322,-7.38156],[110.22315,-7.3816],[110.22274,-7.38185],[110.22248,-7.38217],[110.2227,-7.38271],[110.22318,-7.38328],[110.22366,-7.38389],[110.22392,-7.38456],[110.22427,-7.38543],[110.22456,-7.38678],[110.22456,-7.38691],[110.22459,-7.38813],[110.22411,-7.38906],[110.22381,-7.38973],[110.22378,-7.39047],[110.22401,-7.39162],[110.22407,-7.39188],[110.22381,-7.39294],[110.22328,-7.39335],[110.2232,-7.39342],[110.22275,-7.39368],[110.2222,-7.39371],[110.22168,-7.39355],[110.22149,-7.39319],[110.22114,-7.39316],[110.22075,-7.39329],[110.21991,-7.39366],[110.21894,-7.39398],[110.21833,-7.39446],[110.21797,-7.39488],[110.21775,-7.39542],[110.21739,-7.39584],[110.21678,-7.39596],[110.21675,-7.39597],[110.21611,-7.39596],[110.21598,-7.39635],[110.21604,-7.39702],[110.21575,-7.39767],[110.2153,-7.39888],[110.21494,-7.4003],[110.21479,-7.40137],[110.21479,-7.40138],[110.21477,-7.40155],[110.21471,-7.40197],[110.21508,-7.40215],[110.21512,-7.40217],[110.21514,-7.40221],[110.21525,-7.40248],[110.21532,-7.40265],[110.21552,-7.40302],[110.21554,-7.40305],[110.21567,-7.40327],[110.21596,-7.40388],[110.21616,-7.40432],[110.21636,-7.40484],[110.21645,-7.40514],[110.21655,-7.40548],[110.21655,-7.4065],[110.21653,-7.40662],[110.21639,-7.40715],[110.21618,-7.40774],[110.2159,-7.40828],[110.21575,-7.40871],[110.21559,-7.40904],[110.21549,-7.40922],[110.21523,-7.40958],[110.21519,-7.40963],[110.21496,-7.41],[110.21495,-7.41001],[110.21492,-7.4101],[110.21483,-7.41043],[110.21478,-7.41107],[110.21478,-7.41108],[110.21471,-7.4115],[110.21451,-7.41193],[110.21397,-7.41284],[110.21372,-7.41343],[110.21368,-7.41379],[110.21363,-7.41439],[110.21365,-7.41462],[110.21366,-7.41475],[110.21368,-7.4148],[110.21384,-7.41527],[110.21385,-7.41533],[110.21393,-7.41554],[110.21395,-7.41558],[110.214,-7.41573],[110.21401,-7.41575],[110.21405,-7.41623],[110.214,-7.41666],[110.21398,-7.41684],[110.21389,-7.41727],[110.21389,-7.41728],[110.21376,-7.41769],[110.21359,-7.41803],[110.21322,-7.41852],[110.21291,-7.41905],[110.21279,-7.41923],[110.21269,-7.41939],[110.21271,-7.41956],[110.21274,-7.41974],[110.21275,-7.41983],[110.21296,-7.42031],[110.21299,-7.42039],[110.21325,-7.42096],[110.21327,-7.421],[110.21365,-7.42169],[110.21384,-7.4221],[110.21391,-7.42223],[110.21427,-7.42282],[110.21429,-7.42286],[110.21426,-7.4234],[110.21419,-7.42357],[110.21397,-7.42406],[110.21375,-7.42447],[110.21359,-7.42466],[110.21337,-7.42512],[110.21325,-7.42535],[110.21295,-7.42603],[110.21293,-7.42617],[110.21285,-7.42682],[110.21284,-7.42722],[110.21283,-7.42737],[110.21282,-7.42763],[110.21283,-7.428],[110.21285,-7.42849],[110.21286,-7.42864],[110.21287,-7.4289],[110.21291,-7.42916],[110.21296,-7.42939],[110.21299,-7.4295],[110.21325,-7.42983],[110.21371,-7.42997],[110.2141,-7.43001],[110.21502,-7.43003],[110.21529,-7.43004],[110.21553,-7.43004],[110.21595,-7.43005],[110.21632,-7.43013],[110.21666,-7.43023],[110.21691,-7.43031],[110.21715,-7.43049],[110.21735,-7.43067],[110.21741,-7.43086],[110.21742,-7.43105],[110.21737,-7.43121],[110.21725,-7.43128],[110.21708,-7.43127],[110.21681,-7.43125],[110.21676,-7.43125],[110.21662,-7.4313],[110.21648,-7.43143],[110.21623,-7.43169],[110.21588,-7.43217],[110.21562,-7.4326],[110.21541,-7.4332],[110.21537,-7.43377],[110.21532,-7.43402],[110.21516,-7.43448],[110.21513,-7.43461],[110.21515,-7.43473],[110.21533,-7.43522],[110.21547,-7.43566],[110.21551,-7.43578],[110.21556,-7.43601],[110.21558,-7.43623],[110.21558,-7.43639],[110.21546,-7.43662],[110.21533,-7.43676],[110.21508,-7.43707],[110.21432,-7.43797],[110.21408,-7.43841],[110.21396,-7.43868],[110.21372,-7.43926],[110.21339,-7.43971],[110.21315,-7.44001],[110.21285,-7.44034],[110.21235,-7.44095],[110.21206,-7.44138],[110.21196,-7.44163],[110.21185,-7.44209],[110.21183,-7.44244]]]}}]}