{"type":"FeatureCollection","features":[{"type":"Feature","properties":{"KECAMATAN":"Srumbung"},"geometry":{"type":"Polygon","coordinates":[[[110.30082,-7.58737],[110.30086,-7.5874],[110.30119,-7.58764],[110.30144,-7.5878],[110.30174,-7.58796],[110.30182,-7.58808],[110.30189,-7.58821],[110.30196,-7.58824],[110.30209,-7.58823],[110.30221,-7.58825],[110.30228,-7.58829],[110.30234,-7.58847],[110.30243,-7.58877],[110.30245,-7.58885],[110.30246,-7.58887],[110.3025,-7.58891],[110.30253,-7.58898],[110.30261,-7.58905],[110.3027,-7.58908],[110.3028,-7.5891],[110.30282,-7.5891],[110.3029,-7.58913],[110.30303,-7.58905],[110.3031,-7.58897],[110.30317,-7.58893],[110.30326,-7.58891],[110.30337,-7.58891],[110.30348,-7.5889],[110.30355,-7.58886],[110.30365,-7.58876],[110.30374,-7.58865],[110.30394,-7.58842],[110.30406,-7.58834],[110.30422,-7.58829],[110.30435,-7.58827],[110.30451,-7.58823],[110.30458,-7.58814],[110.30464,-7.58805],[110.30468,-7.58796],[110.30481,-7.5877],[110.30488,-7.58764],[110.30514,-7.58752],[110.30515,-7.58752],[110.30534,-7.58744],[110.30545,-7.58744],[110.30556,-7.58747],[110.30568,-7.58751],[110.3058,-7.58752],[110.30591,-7.58751],[110.30602,-7.58747],[110.30609,-7.5874],[110.30627,-7.58723],[110.30633,-7.58717],[110.30644,-7.58714],[110.3066,-7.58714],[110.30685,-7.58724],[110.30694,-7.58725],[110.30701,-7.58723],[110.30705,-7.58719],[110.30712,-7.58714],[110.30717,-7.5871],[110.3072,-7.58707],[110.30725,-7.58704],[110.30729,-7.58702],[110.30735,-7.58701],[110.3074,-7.58703],[110.30747,-7.58708],[110.30751,-7.58712],[110.3075,-7.58717],[110.30746,-7.58724],[110.30737,-7.58736],[110.30729,-7.58761],[110.30712,-7.5878],[110.3068,-7.588],[110.30634,-7.58815],[110.30619,-7.58825],[110.30601,-7.5884],[110.30592,-7.5885],[110.30584,-7.58864],[110.30584,-7.58868],[110.30588,-7.58918],[110.30588,-7.5893],[110.30587,-7.58952],[110.30589,-7.58975],[110.30588,-7.58988],[110.30587,-7.59005],[110.30587,-7.59014],[110.30574,-7.5902],[110.30563,-7.59026],[110.30554,-7.59031],[110.30542,-7.59038],[110.30533,-7.59044],[110.30529,-7.59046],[110.30526,-7.59049],[110.3051,-7.59062],[110.30504,-7.59068],[110.30489,-7.59082],[110.30485,-7.59085],[110.30469,-7.59107],[110.30502,-7.59148],[110.3052,-7.59167],[110.30538,-7.59188],[110.30544,-7.59199],[110.3054,-7.59218],[110.30564,-7.59248],[110.30573,-7.59263],[110.30587,-7.59291],[110.30591,-7.59308],[110.30594,-7.59327],[110.30595,-7.59335],[110.3061,-7.59369],[110.30618,-7.59389],[110.3062,-7.59411],[110.30611,-7.59428],[110.30602,-7.59442],[110.30581,-7.59454],[110.30606,-7.59466],[110.30615,-7.59471],[110.30617,-7.59476],[110.30624,-7.59473],[110.30629,-7.5947],[110.30647,-7.59464],[110.30657,-7.59462],[110.30692,-7.5946],[110.30738,-7.59446],[110.3076,-7.59441],[110.30777,-7.59439],[110.30787,-7.59442],[110.30796,-7.5945],[110.30802,-7.59463],[110.30813,-7.5948],[110.30814,-7.59481],[110.30822,-7.59495],[110.30828,-7.59501],[110.30834,-7.59501],[110.30844,-7.59499],[110.30851,-7.59492],[110.30866,-7.59481],[110.30879,-7.59485],[110.30887,-7.59486],[110.30892,-7.59489],[110.30903,-7.59489],[110.30911,-7.59485],[110.30919,-7.59476],[110.30924,-7.59465],[110.30928,-7.59448],[110.30931,-7.59446],[110.30936,-7.59449],[110.30941,-7.59456],[110.30947,-7.59465],[110.30951,-7.59474],[110.30953,-7.59483],[110.30957,-7.59492],[110.30961,-7.595],[110.30963,-7.595],[110.30969,-7.59489],[110.3097,-7.59481],[110.3097,-7.5947],[110.30971,-7.59461],[110.30973,-7.59457],[110.30975,-7.59457],[110.3098,-7.59464],[110.30994,-7.59482],[110.31009,-7.59501],[110.31021,-7.59514],[110.31035,-7.59528],[110.31046,-7.59518],[110.31058,-7.59505],[110.31065,-7.59522],[110.31073,-7.59536],[110.31085,-7.59548],[110.31092,-7.59554],[110.311,-7.59561],[110.31109,-7.59571],[110.31127,-7.5958],[110.31135,-7.59591],[110.31142,-7.59603],[110.31147,-7.59613],[110.31153,-7.59635],[110.31159,-7.59649],[110.31163,-7.5966],[110.31171,-7.59671],[110.31177,-7.59681],[110.31179,-7.59693],[110.3118,-7.59703],[110.3118,-7.59717],[110.31186,-7.59729],[110.31191,-7.59735],[110.31196,-7.59748],[110.31202,-7.59757],[110.31203,-7.59765],[110.31202,-7.59772],[110.31203,-7.5979],[110.31206,-7.59802],[110.31214,-7.5981],[110.31227,-7.5982],[110.31233,-7.59824],[110.31237,-7.59823],[110.31242,-7.5982],[110.31259,-7.59835],[110.31274,-7.59867],[110.31275,-7.59867],[110.31298,-7.5988],[110.31299,-7.5988],[110.31311,-7.5989],[110.31319,-7.59896],[110.31331,-7.59897],[110.31338,-7.59896],[110.31353,-7.5989],[110.31362,-7.59884],[110.31373,-7.59876],[110.31381,-7.59873],[110.31392,-7.59869],[110.314,-7.59865],[110.31403,-7.59856],[110.31402,-7.59852],[110.31401,-7.59847],[110.31401,-7.59845],[110.31399,-7.59841],[110.31397,-7.59835],[110.31394,-7.59827],[110.31394,-7.59823],[110.31399,-7.59813],[110.31402,-7.59811],[110.31407,-7.5981],[110.31437,-7.5981],[110.31452,-7.59805],[110.31442,-7.59821],[110.31441,-7.59834],[110.31442,-7.59841],[110.31449,-7.59848],[110.31457,-7.59853],[110.31471,-7.59858],[110.31482,-7.59872],[110.31488,-7.59881],[110.31491,-7.59888],[110.31494,-7.59904],[110.31497,-7.59914],[110.31505,-7.59925],[110.31526,-7.59953],[110.31533,-7.59956],[110.3155,-7.59979],[110.31558,-7.5999],[110.31565,-7.59996],[110.31575,-7.60002],[110.31585,-7.60005],[110.31598,-7.60005],[110.31618,-7.60008],[110.31639,-7.6001],[110.31664,-7.60014],[110.31676,-7.6002],[110.31679,-7.60026],[110.31684,-7.60056],[110.31692,-7.60079],[110.31703,-7.60104],[110.31709,-7.60125],[110.3171,-7.60127],[110.31724,-7.60159],[110.31729,-7.60184],[110.31735,-7.60205],[110.31733,-7.60215],[110.31707,-7.60218],[110.31686,-7.60222],[110.31661,-7.60225],[110.31636,-7.60235],[110.31608,-7.60251],[110.31589,-7.60261],[110.31569,-7.60269],[110.31559,-7.60271],[110.31557,-7.60289],[110.31551,-7.6036],[110.31551,-7.60365],[110.31561,-7.60387],[110.31562,-7.60388],[110.31571,-7.60385],[110.31576,-7.60398],[110.31578,-7.60401],[110.31582,-7.6041],[110.31587,-7.60423],[110.31595,-7.60441],[110.31624,-7.60482],[110.31636,-7.60494],[110.31645,-7.60504],[110.31651,-7.60512],[110.31665,-7.60522],[110.31675,-7.60528],[110.31685,-7.60532],[110.31692,-7.60536],[110.3167,-7.60558],[110.31661,-7.60573],[110.31638,-7.60595],[110.31623,-7.60618],[110.31598,-7.60638],[110.3158,-7.60654],[110.31554,-7.60669],[110.31537,-7.60679],[110.31514,-7.60692],[110.31444,-7.60732],[110.3143,-7.60742],[110.31435,-7.60765],[110.31439,-7.60779],[110.31446,-7.60799],[110.31448,-7.60812],[110.31457,-7.60839],[110.31436,-7.6086],[110.31424,-7.60877],[110.31389,-7.60926],[110.31357,-7.60964],[110.31338,-7.60987],[110.31307,-7.61021],[110.31316,-7.6103],[110.31328,-7.61037],[110.31345,-7.61049],[110.31357,-7.61058],[110.31375,-7.61068],[110.31415,-7.6109],[110.3143,-7.61098],[110.31443,-7.61105],[110.31453,-7.61112],[110.31452,-7.61113],[110.31452,-7.61116],[110.3144,-7.61139],[110.31435,-7.61147],[110.3143,-7.61156],[110.31436,-7.61171],[110.31451,-7.61183],[110.31481,-7.61199],[110.31529,-7.61222],[110.31573,-7.61242],[110.31558,-7.61257],[110.31543,-7.61273],[110.3152,-7.61312],[110.31472,-7.61354],[110.31471,-7.61355],[110.31453,-7.6137],[110.31445,-7.61372],[110.3145,-7.61384],[110.31463,-7.614],[110.31474,-7.6142],[110.31483,-7.6143],[110.31491,-7.61439],[110.31507,-7.61451],[110.3151,-7.61453],[110.31503,-7.61463],[110.31511,-7.61475],[110.31523,-7.6149],[110.31532,-7.61508],[110.31554,-7.61527],[110.31583,-7.61556],[110.31575,-7.61568],[110.31574,-7.61569],[110.31562,-7.61576],[110.31549,-7.61588],[110.31541,-7.61594],[110.31508,-7.61617],[110.31505,-7.61618],[110.31499,-7.61618],[110.3149,-7.61615],[110.31489,-7.61615],[110.31477,-7.6161],[110.31465,-7.61607],[110.3145,-7.61621],[110.31449,-7.61622],[110.31445,-7.61636],[110.31443,-7.6166],[110.31451,-7.61678],[110.31469,-7.6169],[110.31482,-7.61704],[110.31494,-7.61716],[110.31517,-7.61727],[110.31537,-7.61734],[110.31545,-7.61743],[110.31557,-7.61762],[110.31562,-7.61772],[110.31569,-7.61777],[110.31584,-7.61781],[110.31602,-7.6178],[110.31602,-7.61774],[110.31625,-7.61754],[110.31651,-7.61702],[110.31705,-7.61679],[110.31704,-7.61644],[110.31719,-7.61595],[110.31726,-7.61575],[110.31724,-7.61567],[110.3173,-7.61568],[110.31737,-7.61568],[110.31744,-7.61567],[110.31756,-7.61567],[110.31759,-7.616],[110.31764,-7.61613],[110.3178,-7.61637],[110.31784,-7.61648],[110.31784,-7.61661],[110.31782,-7.61668],[110.31777,-7.6168],[110.31771,-7.61691],[110.31747,-7.61723],[110.31746,-7.6174],[110.31742,-7.61747],[110.31742,-7.61752],[110.31747,-7.61762],[110.3175,-7.61771],[110.31759,-7.61775],[110.31773,-7.61779],[110.31801,-7.61783],[110.31813,-7.6179],[110.31825,-7.618],[110.31847,-7.61819],[110.31857,-7.61823],[110.31875,-7.61824],[110.31901,-7.61829],[110.31918,-7.61829],[110.31935,-7.61824],[110.32006,-7.61804],[110.32059,-7.61767],[110.32076,-7.61756],[110.32101,-7.61747],[110.32112,-7.61767],[110.32102,-7.61775],[110.32108,-7.61785],[110.32107,-7.61795],[110.32107,-7.61808],[110.32108,-7.61815],[110.3211,-7.61818],[110.32111,-7.61824],[110.32111,-7.61829],[110.3211,-7.61838],[110.32113,-7.61846],[110.32117,-7.61854],[110.32133,-7.61871],[110.32165,-7.61848],[110.32171,-7.61843],[110.32176,-7.6184],[110.32187,-7.61835],[110.32193,-7.61831],[110.322,-7.61826],[110.32209,-7.61813],[110.32178,-7.61787],[110.32169,-7.61774],[110.32167,-7.61764],[110.32169,-7.61755],[110.32169,-7.61748],[110.32167,-7.61742],[110.32162,-7.61731],[110.32167,-7.61729],[110.32207,-7.61691],[110.32227,-7.6167],[110.32242,-7.61659],[110.32259,-7.61652],[110.32273,-7.6165],[110.32314,-7.61667],[110.32336,-7.61692],[110.32345,-7.61697],[110.32351,-7.61704],[110.32355,-7.61711],[110.32356,-7.61731],[110.3236,-7.61752],[110.32366,-7.61765],[110.32381,-7.61777],[110.32393,-7.61783],[110.32408,-7.61791],[110.32422,-7.618],[110.32426,-7.61807],[110.32427,-7.61823],[110.32423,-7.61835],[110.32413,-7.61864],[110.32401,-7.61886],[110.32377,-7.61918],[110.32401,-7.61933],[110.32389,-7.61946],[110.32453,-7.61943],[110.32429,-7.61965],[110.32389,-7.62007],[110.32359,-7.62046],[110.32324,-7.62117],[110.32287,-7.62205],[110.32248,-7.62279],[110.32224,-7.62324],[110.3221,-7.62347],[110.32193,-7.62362],[110.32178,-7.62374],[110.32181,-7.6238],[110.32186,-7.6238],[110.32194,-7.62378],[110.32199,-7.62381],[110.32211,-7.62378],[110.32229,-7.62366],[110.32263,-7.6235],[110.32288,-7.62339],[110.32321,-7.62326],[110.32355,-7.62315],[110.32376,-7.62313],[110.32394,-7.62318],[110.32402,-7.62322],[110.32426,-7.62344],[110.32453,-7.62365],[110.32482,-7.62386],[110.32497,-7.62389],[110.32507,-7.62389],[110.32517,-7.62385],[110.32525,-7.62375],[110.32529,-7.62358],[110.32531,-7.62342],[110.32535,-7.62331],[110.32541,-7.62318],[110.32549,-7.62313],[110.32558,-7.62309],[110.32574,-7.62301],[110.32583,-7.62292],[110.32595,-7.62278],[110.32597,-7.62275],[110.32617,-7.62255],[110.32631,-7.6224],[110.32633,-7.62234],[110.32636,-7.62226],[110.3264,-7.6221],[110.32643,-7.62203],[110.32646,-7.62199],[110.32652,-7.62196],[110.32675,-7.62185],[110.32694,-7.62174],[110.3271,-7.62167],[110.32723,-7.62161],[110.3273,-7.62153],[110.32736,-7.62148],[110.32744,-7.62137],[110.3275,-7.62128],[110.32755,-7.62122],[110.3276,-7.62119],[110.32767,-7.62117],[110.32776,-7.62114],[110.32778,-7.62113],[110.32788,-7.62106],[110.32805,-7.62089],[110.32819,-7.62077],[110.32825,-7.62065],[110.32826,-7.62055],[110.32826,-7.62041],[110.32828,-7.62035],[110.32837,-7.62023],[110.32843,-7.62014],[110.32843,-7.6201],[110.32844,-7.62004],[110.32844,-7.61978],[110.32851,-7.61962],[110.32861,-7.61949],[110.32863,-7.61946],[110.32866,-7.61941],[110.32867,-7.61934],[110.32868,-7.61923],[110.3287,-7.61911],[110.32872,-7.61904],[110.32876,-7.61889],[110.32881,-7.61882],[110.32887,-7.61877],[110.32897,-7.61874],[110.32901,-7.61872],[110.32929,-7.61862],[110.32943,-7.6189],[110.3297,-7.61938],[110.32995,-7.61952],[110.33011,-7.61953],[110.33023,-7.61966],[110.33024,-7.61972],[110.33024,-7.61981],[110.33022,-7.61991],[110.33013,-7.62002],[110.33006,-7.62016],[110.33005,-7.62021],[110.33006,-7.62056],[110.33009,-7.62064],[110.33021,-7.62082],[110.33025,-7.62091],[110.33034,-7.62107],[110.3304,-7.62109],[110.33046,-7.62109],[110.3305,-7.62108],[110.33057,-7.62104],[110.33072,-7.62092],[110.33114,-7.62137],[110.33114,-7.62143],[110.33115,-7.62152],[110.33128,-7.62165],[110.33117,-7.62175],[110.33096,-7.62188],[110.33075,-7.62202],[110.33049,-7.62215],[110.33048,-7.62215],[110.3304,-7.62221],[110.3302,-7.62234],[110.33015,-7.6224],[110.33,-7.6226],[110.32992,-7.62273],[110.32991,-7.62273],[110.32977,-7.62291],[110.32978,-7.62291],[110.33023,-7.62336],[110.33064,-7.62355],[110.33144,-7.62394],[110.33176,-7.62417],[110.33216,-7.62443],[110.33213,-7.62454],[110.33203,-7.62464],[110.33175,-7.62474],[110.33167,-7.62485],[110.33176,-7.62496],[110.33187,-7.62504],[110.33203,-7.62513],[110.33218,-7.62519],[110.33225,-7.62531],[110.33224,-7.62532],[110.33213,-7.62557],[110.33201,-7.62565],[110.33183,-7.6257],[110.33142,-7.62581],[110.33132,-7.6259],[110.3313,-7.62599],[110.33137,-7.62632],[110.33129,-7.62688],[110.33122,-7.62704],[110.33116,-7.62716],[110.331,-7.62739],[110.33093,-7.62745],[110.33086,-7.62749],[110.33095,-7.62785],[110.33079,-7.62825],[110.33078,-7.62828],[110.33061,-7.62852],[110.33056,-7.62884],[110.33061,-7.62906],[110.33072,-7.62921],[110.33077,-7.62927],[110.33081,-7.6294],[110.33081,-7.62943],[110.33079,-7.62948],[110.33069,-7.62963],[110.33066,-7.62969],[110.33065,-7.6297],[110.3304,-7.63],[110.33048,-7.63007],[110.33068,-7.63025],[110.33071,-7.63029],[110.33072,-7.63033],[110.33072,-7.6304],[110.3307,-7.63045],[110.33072,-7.63049],[110.33073,-7.6305],[110.33078,-7.63053],[110.33082,-7.63055],[110.33085,-7.63057],[110.33095,-7.63062],[110.33099,-7.63067],[110.33099,-7.63071],[110.33101,-7.63077],[110.33106,-7.63081],[110.33109,-7.63082],[110.33114,-7.63081],[110.33116,-7.6308],[110.33121,-7.63095],[110.33137,-7.63103],[110.33138,-7.63107],[110.33141,-7.63114],[110.33146,-7.63119],[110.33162,-7.6313],[110.3321,-7.63174],[110.33217,-7.63181],[110.33219,-7.63184],[110.33237,-7.63198],[110.33247,-7.63211],[110.33271,-7.63243],[110.33258,-7.63255],[110.33253,-7.63259],[110.33242,-7.63267],[110.33236,-7.63269],[110.33227,-7.63271],[110.33218,-7.6327],[110.33212,-7.63267],[110.33207,-7.63265],[110.33199,-7.63263],[110.33186,-7.63262],[110.33183,-7.63264],[110.33178,-7.63267],[110.33159,-7.63285],[110.33158,-7.63287],[110.3314,-7.63313],[110.33131,-7.63329],[110.33126,-7.63342],[110.33122,-7.63349],[110.33114,-7.63359],[110.33107,-7.63364],[110.33099,-7.63369],[110.33098,-7.63369],[110.33084,-7.63377],[110.33073,-7.63378],[110.33063,-7.63374],[110.33053,-7.63372],[110.33032,-7.63369],[110.33024,-7.6337],[110.33015,-7.63371],[110.33014,-7.63371],[110.33006,-7.63379],[110.32999,-7.63385],[110.32998,-7.63387],[110.32993,-7.634],[110.32991,-7.63406],[110.3299,-7.63407],[110.3298,-7.63414],[110.32964,-7.63424],[110.32951,-7.63426],[110.3295,-7.63426],[110.32944,-7.63427],[110.3293,-7.6343],[110.32917,-7.63437],[110.32898,-7.63458],[110.32894,-7.6349],[110.32893,-7.63506],[110.32898,-7.63523],[110.32903,-7.63536],[110.32906,-7.63542],[110.32912,-7.63547],[110.3292,-7.6355],[110.3293,-7.63556],[110.32943,-7.63571],[110.32927,-7.63579],[110.32898,-7.63594],[110.32912,-7.6361],[110.3291,-7.63611],[110.32909,-7.63612],[110.32901,-7.63615],[110.32898,-7.63617],[110.32895,-7.63618],[110.32893,-7.6362],[110.32888,-7.63624],[110.32872,-7.6364],[110.32866,-7.63647],[110.32841,-7.63672],[110.32829,-7.63681],[110.32803,-7.63698],[110.32799,-7.63702],[110.32797,-7.63703],[110.32794,-7.63706],[110.32794,-7.63707],[110.32793,-7.63707],[110.32789,-7.63714],[110.32787,-7.63719],[110.32786,-7.63722],[110.32805,-7.63741],[110.32828,-7.6377],[110.32851,-7.63798],[110.32877,-7.6383],[110.32927,-7.63889],[110.32932,-7.63887],[110.32948,-7.63879],[110.32957,-7.63875],[110.32965,-7.6387],[110.32973,-7.63866],[110.32989,-7.63856],[110.32996,-7.63851],[110.33004,-7.63845],[110.33011,-7.6384],[110.33025,-7.63828],[110.33033,-7.63822],[110.3304,-7.63816],[110.3304,-7.63815],[110.33047,-7.6381],[110.33082,-7.6378],[110.3309,-7.63775],[110.33097,-7.63769],[110.33121,-7.63754],[110.33129,-7.6375],[110.33145,-7.6374],[110.33153,-7.63736],[110.33162,-7.63732],[110.3317,-7.63727],[110.33179,-7.63723],[110.33195,-7.63713],[110.33209,-7.63701],[110.33215,-7.63695],[110.3322,-7.63688],[110.33225,-7.6368],[110.33229,-7.63672],[110.33237,-7.63654],[110.3324,-7.63646],[110.33248,-7.63628],[110.33252,-7.6362],[110.33262,-7.63604],[110.3328,-7.63583],[110.33293,-7.6357],[110.33299,-7.63563],[110.33306,-7.63556],[110.33312,-7.63549],[110.33317,-7.63541],[110.33329,-7.63527],[110.33335,-7.63519],[110.33347,-7.63505],[110.33354,-7.63499],[110.3336,-7.63493],[110.33368,-7.63487],[110.33375,-7.63482],[110.33383,-7.63477],[110.33391,-7.63471],[110.33399,-7.63466],[110.33406,-7.63461],[110.33414,-7.63455],[110.33435,-7.63437],[110.33437,-7.63435],[110.33442,-7.63431],[110.33449,-7.63425],[110.33455,-7.63418],[110.33462,-7.63412],[110.33482,-7.63392],[110.33488,-7.63385],[110.33501,-7.63372],[110.33513,-7.63358],[110.3352,-7.63351],[110.33532,-7.63337],[110.33533,-7.63335],[110.33572,-7.63293],[110.33582,-7.63281],[110.33652,-7.63203],[110.3366,-7.63195],[110.33667,-7.63187],[110.33675,-7.63179],[110.33682,-7.6317],[110.33688,-7.63161],[110.33693,-7.63152],[110.33698,-7.63142],[110.33702,-7.63131],[110.33705,-7.63121],[110.33711,-7.63099],[110.33719,-7.63079],[110.33724,-7.63069],[110.33728,-7.63059],[110.33773,-7.62969],[110.33778,-7.6296],[110.33783,-7.62952],[110.33784,-7.6295],[110.3379,-7.62942],[110.33798,-7.62933],[110.33806,-7.62925],[110.33814,-7.62918],[110.33823,-7.62912],[110.33832,-7.62905],[110.33852,-7.62895],[110.33862,-7.62891],[110.33873,-7.62887],[110.33883,-7.62883],[110.33894,-7.62879],[110.33904,-7.62876],[110.33926,-7.6287],[110.33936,-7.62867],[110.33958,-7.62861],[110.33968,-7.62858],[110.3399,-7.62852],[110.34,-7.62849],[110.34022,-7.62843],[110.34032,-7.6284],[110.34043,-7.62836],[110.34053,-7.62833],[110.34063,-7.62829],[110.34074,-7.62825],[110.34084,-7.62821],[110.34104,-7.62811],[110.34114,-7.62807],[110.34164,-7.62782],[110.34184,-7.62774],[110.34194,-7.62769],[110.34205,-7.62766],[110.34215,-7.62762],[110.34226,-7.62759],[110.34236,-7.62756],[110.34247,-7.62752],[110.34258,-7.62749],[110.34268,-7.62746],[110.34279,-7.62743],[110.34289,-7.62739],[110.343,-7.62735],[110.3432,-7.62727],[110.3433,-7.62722],[110.3434,-7.62718],[110.3436,-7.62708],[110.3437,-7.62704],[110.3438,-7.62699],[110.34391,-7.62695],[110.34395,-7.62693],[110.34401,-7.62691],[110.34411,-7.62687],[110.34422,-7.62684],[110.34432,-7.62681],[110.34443,-7.62677],[110.34454,-7.62675],[110.34464,-7.62672],[110.34486,-7.62666],[110.34497,-7.62664],[110.34507,-7.62661],[110.34518,-7.62658],[110.34529,-7.62656],[110.3454,-7.62653],[110.3455,-7.6265],[110.34561,-7.62647],[110.34572,-7.62645],[110.34582,-7.62642],[110.34604,-7.62636],[110.34614,-7.62634],[110.34647,-7.62625],[110.34657,-7.62623],[110.34679,-7.62617],[110.3469,-7.62615],[110.34712,-7.62609],[110.34722,-7.62606],[110.34733,-7.62603],[110.34743,-7.626],[110.34754,-7.62596],[110.34764,-7.62591],[110.34773,-7.62586],[110.34783,-7.62581],[110.34792,-7.62575],[110.34802,-7.62569],[110.34811,-7.62564],[110.34831,-7.62552],[110.34841,-7.62547],[110.34851,-7.62543],[110.34861,-7.62538],[110.34872,-7.62534],[110.34892,-7.62524],[110.34901,-7.62519],[110.3491,-7.62512],[110.34912,-7.6251],[110.34918,-7.62505],[110.34921,-7.62502],[110.34925,-7.62497],[110.34928,-7.62494],[110.34932,-7.62489],[110.34939,-7.6248],[110.34945,-7.62471],[110.3495,-7.62465],[110.3495,-7.62464],[110.34952,-7.62462],[110.34958,-7.62453],[110.34965,-7.62444],[110.34981,-7.62428],[110.34989,-7.62421],[110.34998,-7.62415],[110.35008,-7.62409],[110.35017,-7.62403],[110.35027,-7.62398],[110.35037,-7.62392],[110.35047,-7.62387],[110.35056,-7.62381],[110.35076,-7.62371],[110.35086,-7.62365],[110.35095,-7.6236],[110.35105,-7.62355],[110.35112,-7.62351],[110.35115,-7.6235],[110.35145,-7.62335],[110.35175,-7.62323],[110.35186,-7.6232],[110.35196,-7.62316],[110.35229,-7.62307],[110.35244,-7.62304],[110.3525,-7.62303],[110.35283,-7.62297],[110.35294,-7.62296],[110.35338,-7.62288],[110.35348,-7.62285],[110.35359,-7.62281],[110.35379,-7.62273],[110.35389,-7.62268],[110.35399,-7.62262],[110.35409,-7.62257],[110.35427,-7.62245],[110.35436,-7.62238],[110.35445,-7.62232],[110.35506,-7.62199],[110.35533,-7.6218],[110.35551,-7.62168],[110.35562,-7.62162],[110.35573,-7.62157],[110.35583,-7.62151],[110.35594,-7.62145],[110.35604,-7.62138],[110.35614,-7.62132],[110.35624,-7.62125],[110.35633,-7.62118],[110.35643,-7.62111],[110.35647,-7.62108],[110.35648,-7.62107],[110.35653,-7.62103],[110.35662,-7.62096],[110.35663,-7.62095],[110.35671,-7.62089],[110.35671,-7.62088],[110.35681,-7.6208],[110.3569,-7.62072],[110.35695,-7.62068],[110.35699,-7.62064],[110.35705,-7.62059],[110.35708,-7.62056],[110.35717,-7.62048],[110.35724,-7.62042],[110.35725,-7.6204],[110.35726,-7.6204],[110.35735,-7.62032],[110.35742,-7.62026],[110.35744,-7.62024],[110.35762,-7.62008],[110.35765,-7.62006],[110.3577,-7.62001],[110.35772,-7.62],[110.35781,-7.61993],[110.35791,-7.61985],[110.358,-7.61978],[110.3581,-7.61971],[110.3583,-7.61959],[110.35841,-7.61953],[110.35851,-7.61947],[110.35884,-7.61932],[110.3589,-7.61929],[110.35895,-7.61927],[110.35906,-7.61922],[110.35917,-7.61918],[110.35928,-7.61913],[110.3594,-7.61909],[110.35951,-7.61904],[110.35962,-7.619],[110.35974,-7.61896],[110.35985,-7.61891],[110.35996,-7.61887],[110.36008,-7.61882],[110.36063,-7.61857],[110.36073,-7.61851],[110.36084,-7.61846],[110.36095,-7.6184],[110.36105,-7.61834],[110.36116,-7.61828],[110.36126,-7.61822],[110.36128,-7.61821],[110.36137,-7.61816],[110.36157,-7.61804],[110.36168,-7.61798],[110.36178,-7.61792],[110.36188,-7.61785],[110.36198,-7.61779],[110.36209,-7.61772],[110.36219,-7.61766],[110.36229,-7.61759],[110.36239,-7.61753],[110.36249,-7.61746],[110.36259,-7.6174],[110.36289,-7.61719],[110.36299,-7.61713],[110.36309,-7.61706],[110.36317,-7.61701],[110.36319,-7.617],[110.36329,-7.61693],[110.3634,-7.61687],[110.3635,-7.6168],[110.3636,-7.61674],[110.36371,-7.61668],[110.36437,-7.61626],[110.36442,-7.61623],[110.36483,-7.61594],[110.36491,-7.61587],[110.36498,-7.6158],[110.36503,-7.61576],[110.36506,-7.61574],[110.36514,-7.61567],[110.36521,-7.6156],[110.36529,-7.61554],[110.36538,-7.61547],[110.36546,-7.61541],[110.36552,-7.61536],[110.36554,-7.61535],[110.36562,-7.61528],[110.36576,-7.61514],[110.36582,-7.61507],[110.36587,-7.61498],[110.36592,-7.6149],[110.36596,-7.61481],[110.36599,-7.61472],[110.36602,-7.61462],[110.36604,-7.61452],[110.36607,-7.61442],[110.36613,-7.61412],[110.36616,-7.61402],[110.36618,-7.61392],[110.36621,-7.61382],[110.36625,-7.61372],[110.36633,-7.61354],[110.36638,-7.61345],[110.36644,-7.61337],[110.3665,-7.61328],[110.36662,-7.61312],[110.36669,-7.61305],[110.36676,-7.61297],[110.36683,-7.6129],[110.3669,-7.61282],[110.36704,-7.61268],[110.36712,-7.61261],[110.36719,-7.61254],[110.36727,-7.61248],[110.36735,-7.61241],[110.36742,-7.61235],[110.3675,-7.61229],[110.36759,-7.61223],[110.36767,-7.61217],[110.36775,-7.61212],[110.36793,-7.61202],[110.36801,-7.61197],[110.36819,-7.61187],[110.36828,-7.61183],[110.36837,-7.61178],[110.36847,-7.61174],[110.36856,-7.6117],[110.36865,-7.61165],[110.36874,-7.61161],[110.36883,-7.61156],[110.36892,-7.61152],[110.36919,-7.61137],[110.36927,-7.61132],[110.36936,-7.61127],[110.36944,-7.61122],[110.36953,-7.61116],[110.36993,-7.61086],[110.37001,-7.61079],[110.37009,-7.61073],[110.37017,-7.61066],[110.37025,-7.6106],[110.37032,-7.61053],[110.3704,-7.61047],[110.371,-7.61008],[110.37172,-7.60967],[110.37182,-7.60963],[110.37204,-7.60955],[110.37214,-7.60951],[110.37225,-7.60946],[110.37236,-7.60942],[110.37246,-7.60938],[110.37286,-7.60918],[110.37296,-7.60912],[110.37314,-7.609],[110.37322,-7.60894],[110.3733,-7.60886],[110.37338,-7.60879],[110.37346,-7.60871],[110.37353,-7.60862],[110.3736,-7.60854],[110.37366,-7.60845],[110.37372,-7.60835],[110.37378,-7.60826],[110.3739,-7.60806],[110.3739,-7.60805],[110.37396,-7.60796],[110.37406,-7.60776],[110.37412,-7.60766],[110.37417,-7.60755],[110.37422,-7.60745],[110.37428,-7.60735],[110.37433,-7.60725],[110.37439,-7.60716],[110.37444,-7.60706],[110.3745,-7.60696],[110.37456,-7.60687],[110.3746,-7.60682],[110.37462,-7.60678],[110.37476,-7.6066],[110.37483,-7.60652],[110.3749,-7.60643],[110.37506,-7.60627],[110.37513,-7.60621],[110.37522,-7.60612],[110.37531,-7.60605],[110.37539,-7.60597],[110.37548,-7.6059],[110.37564,-7.60574],[110.37571,-7.60566],[110.37579,-7.60557],[110.37586,-7.60549],[110.37592,-7.60539],[110.37598,-7.6053],[110.37603,-7.6052],[110.37609,-7.6051],[110.37621,-7.60492],[110.37628,-7.60483],[110.37636,-7.60475],[110.37644,-7.60468],[110.37652,-7.6046],[110.37661,-7.60452],[110.37669,-7.60444],[110.37676,-7.60436],[110.37683,-7.60427],[110.37689,-7.60417],[110.37696,-7.60408],[110.37702,-7.60399],[110.37709,-7.60391],[110.37717,-7.60383],[110.37726,-7.60376],[110.37735,-7.60371],[110.37745,-7.60365],[110.37765,-7.60355],[110.37776,-7.60351],[110.37787,-7.60346],[110.37807,-7.60336],[110.37817,-7.6033],[110.37827,-7.60325],[110.37836,-7.60318],[110.37841,-7.60315],[110.37845,-7.60312],[110.37854,-7.60306],[110.37863,-7.60299],[110.37921,-7.60264],[110.37954,-7.60244],[110.37974,-7.60227],[110.37985,-7.60217],[110.37984,-7.60212],[110.37993,-7.60206],[110.37995,-7.60204],[110.38001,-7.602],[110.38007,-7.60197],[110.38008,-7.60196],[110.3801,-7.60195],[110.38019,-7.60189],[110.38027,-7.60184],[110.38036,-7.60178],[110.38054,-7.60168],[110.38063,-7.60162],[110.38072,-7.60157],[110.38081,-7.60153],[110.3809,-7.60148],[110.381,-7.60143],[110.38109,-7.60139],[110.38113,-7.60137],[110.38119,-7.60135],[110.38128,-7.6013],[110.38138,-7.60127],[110.38147,-7.60123],[110.38157,-7.60119],[110.38197,-7.60107],[110.38208,-7.60105],[110.38218,-7.60103],[110.38229,-7.60101],[110.38239,-7.60099],[110.3825,-7.60097],[110.3826,-7.60095],[110.38267,-7.60093],[110.3827,-7.60093],[110.38281,-7.6009],[110.38291,-7.60087],[110.383,-7.60084],[110.3831,-7.60081],[110.38319,-7.60077],[110.38328,-7.60072],[110.38352,-7.60054],[110.38389,-7.60017],[110.38397,-7.60011],[110.38406,-7.60005],[110.38414,-7.59999],[110.38423,-7.59994],[110.38478,-7.59958],[110.38512,-7.59944],[110.38548,-7.59929],[110.38579,-7.59909],[110.38603,-7.59885],[110.3861,-7.59877],[110.38618,-7.59869],[110.38625,-7.59861],[110.38633,-7.59853],[110.3864,-7.59845],[110.38647,-7.59836],[110.38655,-7.59828],[110.38662,-7.5982],[110.38685,-7.59797],[110.38694,-7.5979],[110.3871,-7.59776],[110.38719,-7.59769],[110.38728,-7.59763],[110.38737,-7.59756],[110.38755,-7.59744],[110.38764,-7.59737],[110.38773,-7.59731],[110.38783,-7.59725],[110.3881,-7.59707],[110.38819,-7.597],[110.38837,-7.59688],[110.38846,-7.59681],[110.38864,-7.59669],[110.38873,-7.59662],[110.38882,-7.59656],[110.3889,-7.59649],[110.38908,-7.59635],[110.38916,-7.59629],[110.38925,-7.59622],[110.38933,-7.59614],[110.38942,-7.59607],[110.38958,-7.59593],[110.38967,-7.59586],[110.38975,-7.59578],[110.38991,-7.59564],[110.38999,-7.59556],[110.39008,-7.59549],[110.39024,-7.59535],[110.39033,-7.59528],[110.39049,-7.59514],[110.39058,-7.59507],[110.39066,-7.595],[110.39093,-7.59479],[110.39102,-7.59473],[110.3912,-7.59459],[110.39128,-7.59451],[110.39137,-7.59444],[110.39151,-7.59428],[110.39158,-7.59419],[110.39163,-7.5941],[110.39175,-7.5938],[110.39178,-7.59369],[110.3918,-7.59358],[110.39183,-7.59348],[110.39189,-7.59326],[110.39193,-7.59316],[110.39197,-7.59305],[110.39207,-7.59285],[110.39219,-7.59267],[110.39225,-7.59257],[110.39231,-7.59249],[110.39238,-7.5924],[110.39246,-7.59232],[110.39253,-7.59224],[110.39269,-7.59208],[110.39277,-7.59201],[110.39285,-7.59193],[110.39301,-7.59179],[110.39309,-7.59171],[110.39318,-7.59164],[110.39326,-7.59156],[110.39334,-7.59149],[110.39342,-7.59141],[110.39349,-7.59133],[110.39357,-7.59126],[110.39364,-7.59117],[110.39372,-7.59109],[110.39379,-7.59101],[110.39386,-7.59092],[110.3939,-7.59087],[110.39393,-7.59084],[110.39399,-7.59075],[110.39406,-7.59066],[110.39413,-7.59058],[110.39419,-7.59049],[110.39426,-7.5904],[110.39432,-7.59031],[110.39439,-7.59022],[110.39451,-7.59004],[110.39458,-7.58995],[110.39464,-7.58986],[110.39471,-7.58977],[110.39473,-7.58974],[110.39478,-7.58969],[110.39485,-7.5896],[110.39499,-7.58944],[110.39515,-7.58928],[110.39531,-7.58914],[110.3954,-7.58906],[110.39548,-7.58899],[110.39553,-7.58895],[110.39557,-7.58893],[110.39565,-7.58886],[110.39583,-7.58872],[110.39592,-7.58866],[110.39601,-7.58859],[110.39609,-7.58853],[110.39618,-7.58846],[110.39628,-7.5884],[110.39655,-7.58822],[110.39665,-7.58817],[110.3968,-7.58807],[110.39684,-7.58805],[110.39693,-7.58798],[110.39702,-7.58792],[110.39718,-7.58778],[110.39733,-7.58763],[110.39733,-7.58762],[110.39734,-7.58761],[110.39736,-7.5876],[110.39737,-7.58758],[110.3974,-7.58754],[110.39742,-7.58751],[110.39747,-7.58745],[110.39747,-7.58744],[110.39751,-7.58736],[110.39753,-7.58734],[110.39773,-7.58692],[110.3979,-7.58601],[110.39791,-7.58598],[110.39798,-7.5856],[110.39804,-7.5853],[110.39806,-7.58521],[110.39809,-7.58511],[110.39815,-7.58493],[110.39819,-7.58484],[110.39823,-7.58478],[110.39824,-7.58476],[110.39829,-7.58467],[110.39847,-7.58443],[110.39854,-7.58436],[110.39861,-7.58428],[110.39867,-7.58421],[110.39874,-7.58413],[110.39881,-7.58406],[110.39888,-7.58398],[110.39895,-7.58391],[110.39901,-7.58383],[110.39908,-7.58376],[110.39914,-7.58368],[110.39921,-7.5836],[110.39927,-7.58353],[110.39934,-7.58345],[110.3994,-7.58337],[110.39947,-7.58329],[110.39953,-7.58321],[110.3996,-7.58313],[110.39978,-7.58289],[110.39983,-7.5828],[110.39989,-7.58272],[110.39994,-7.58263],[110.39998,-7.58254],[110.40003,-7.58245],[110.40006,-7.58236],[110.4001,-7.58227],[110.40013,-7.58217],[110.40015,-7.58208],[110.40023,-7.58168],[110.40025,-7.58148],[110.40027,-7.58138],[110.40028,-7.58128],[110.4003,-7.58118],[110.40031,-7.58108],[110.40033,-7.58098],[110.40036,-7.58088],[110.40038,-7.58079],[110.40041,-7.58069],[110.40044,-7.5806],[110.40048,-7.5805],[110.40051,-7.58041],[110.40055,-7.58031],[110.40059,-7.58022],[110.40062,-7.58013],[110.40066,-7.58003],[110.40074,-7.57985],[110.40079,-7.57976],[110.40087,-7.57958],[110.4009,-7.57953],[110.40092,-7.57949],[110.40094,-7.57946],[110.40097,-7.5794],[110.40102,-7.57931],[110.40107,-7.57923],[110.40112,-7.57914],[110.40118,-7.57906],[110.40124,-7.57897],[110.40142,-7.57873],[110.40149,-7.57866],[110.40155,-7.57858],[110.40169,-7.57844],[110.40177,-7.57837],[110.40184,-7.5783],[110.40192,-7.57823],[110.40199,-7.57817],[110.40206,-7.5781],[110.40214,-7.57803],[110.40228,-7.57789],[110.40235,-7.57781],[110.40242,-7.57774],[110.40266,-7.57742],[110.40272,-7.57733],[110.40277,-7.57725],[110.40281,-7.57716],[110.40285,-7.57706],[110.40287,-7.57697],[110.4029,-7.57687],[110.40291,-7.57677],[110.40293,-7.57667],[110.40294,-7.57657],[110.40296,-7.57647],[110.40299,-7.57637],[110.40303,-7.57628],[110.40308,-7.57619],[110.40313,-7.57611],[110.40319,-7.57603],[110.40333,-7.57587],[110.4034,-7.5758],[110.40348,-7.57573],[110.40356,-7.57567],[110.40363,-7.57561],[110.40372,-7.57555],[110.40388,-7.57543],[110.40396,-7.57538],[110.40405,-7.57532],[110.40413,-7.57527],[110.40422,-7.57521],[110.40446,-7.57503],[110.40454,-7.57496],[110.40461,-7.5749],[110.40468,-7.57482],[110.40474,-7.57475],[110.4048,-7.57467],[110.40486,-7.57458],[110.40491,-7.5745],[110.40496,-7.57441],[110.405,-7.57432],[110.40504,-7.57422],[110.40508,-7.57413],[110.40512,-7.57403],[110.40515,-7.57394],[110.40524,-7.57364],[110.40527,-7.57355],[110.40531,-7.57345],[110.40534,-7.57336],[110.40542,-7.57318],[110.40552,-7.573],[110.40558,-7.57292],[110.40565,-7.57284],[110.40572,-7.57277],[110.40588,-7.57265],[110.40597,-7.5726],[110.40606,-7.57256],[110.40616,-7.57252],[110.40625,-7.57249],[110.40635,-7.57246],[110.40665,-7.5724],[110.40715,-7.57235],[110.40726,-7.57234],[110.40746,-7.57234],[110.40756,-7.57233],[110.41037,-7.57233],[110.41047,-7.57234],[110.41118,-7.57234],[110.41128,-7.57233],[110.41138,-7.57233],[110.41168,-7.5723],[110.41178,-7.57228],[110.41198,-7.57226],[110.41208,-7.57224],[110.41218,-7.57223],[110.41227,-7.57221],[110.41237,-7.5722],[110.41247,-7.57218],[110.41257,-7.57217],[110.41307,-7.57207],[110.41318,-7.57205],[110.41328,-7.57203],[110.41337,-7.572],[110.41357,-7.57194],[110.41375,-7.57186],[110.41383,-7.57181],[110.41392,-7.57175],[110.41406,-7.57163],[110.41413,-7.57156],[110.4142,-7.57148],[110.41427,-7.57141],[110.41439,-7.57125],[110.41445,-7.57116],[110.41451,-7.57108],[110.41458,-7.571],[110.41464,-7.57092],[110.41471,-7.57084],[110.41477,-7.57076],[110.41491,-7.57062],[110.41499,-7.57055],[110.41506,-7.57048],[110.41514,-7.57041],[110.41521,-7.57035],[110.41529,-7.57028],[110.41531,-7.57026],[110.41536,-7.57022],[110.41544,-7.57015],[110.41551,-7.57008],[110.41559,-7.57001],[110.4158,-7.5698],[110.41586,-7.56972],[110.41593,-7.56964],[110.41623,-7.56924],[110.41637,-7.5691],[110.41644,-7.56904],[110.41652,-7.56898],[110.4167,-7.56888],[110.41697,-7.56876],[110.41707,-7.56872],[110.41727,-7.56866],[110.41737,-7.56862],[110.41747,-7.56859],[110.41756,-7.56856],[110.41776,-7.5685],[110.41786,-7.56846],[110.41813,-7.56834],[110.41821,-7.56828],[110.41829,-7.56823],[110.41837,-7.56816],[110.41844,-7.5681],[110.41851,-7.56803],[110.41858,-7.56795],[110.41865,-7.56788],[110.41872,-7.5678],[110.41878,-7.56772],[110.41885,-7.56765],[110.41892,-7.56757],[110.41899,-7.5675],[110.41907,-7.56743],[110.41914,-7.56737],[110.41922,-7.5673],[110.4193,-7.56724],[110.41938,-7.56717],[110.41945,-7.56711],[110.41953,-7.56704],[110.41961,-7.56698],[110.41996,-7.56663],[110.42003,-7.56655],[110.4201,-7.56648],[110.42016,-7.5664],[110.42023,-7.56633],[110.42029,-7.56625],[110.42036,-7.56618],[110.42043,-7.5661],[110.4205,-7.56603],[110.42056,-7.56595],[110.42063,-7.56588],[110.4207,-7.5658],[110.42077,-7.56573],[110.42085,-7.56566],[110.42106,-7.56545],[110.42114,-7.56538],[110.42135,-7.56517],[110.42141,-7.56509],[110.42148,-7.56501],[110.42154,-7.56494],[110.4216,-7.56485],[110.42165,-7.56477],[110.42171,-7.56469],[110.42181,-7.56451],[110.42186,-7.56443],[110.42192,-7.56434],[110.42197,-7.56426],[110.42209,-7.5641],[110.42216,-7.56402],[110.42222,-7.56394],[110.42236,-7.5638],[110.42244,-7.56373],[110.42258,-7.56359],[110.42266,-7.56353],[110.42274,-7.56346],[110.42281,-7.5634],[110.42289,-7.56334],[110.42298,-7.56328],[110.42306,-7.56323],[110.42314,-7.56317],[110.42323,-7.56312],[110.42331,-7.56306],[110.4234,-7.56301],[110.42348,-7.56295],[110.42357,-7.5629],[110.42373,-7.56278],[110.42382,-7.56273],[110.4239,-7.56267],[110.42398,-7.56262],[110.42407,-7.56256],[110.42415,-7.56251],[110.42424,-7.56245],[110.42432,-7.5624],[110.42448,-7.56228],[110.42455,-7.56221],[110.42462,-7.56213],[110.4247,-7.56206],[110.42477,-7.562],[110.42485,-7.56193],[110.42492,-7.56187],[110.42499,-7.56179],[110.42505,-7.56171],[110.4251,-7.56163],[110.42515,-7.56154],[110.42519,-7.56144],[110.42527,-7.56126],[110.42531,-7.56116],[110.42535,-7.56107],[110.4254,-7.56098],[110.42544,-7.56089],[110.4255,-7.56069],[110.42554,-7.5606],[110.42559,-7.56051],[110.42565,-7.56045],[110.42574,-7.5604],[110.42583,-7.56037],[110.42594,-7.56034],[110.42604,-7.56032],[110.42615,-7.56029],[110.42624,-7.56027],[110.42644,-7.56021],[110.42653,-7.56018],[110.4268,-7.56006],[110.4269,-7.56002],[110.42708,-7.55994],[110.42718,-7.55991],[110.42727,-7.55989],[110.42737,-7.55986],[110.42757,-7.55982],[110.42767,-7.55979],[110.42776,-7.55976],[110.42786,-7.55972],[110.42795,-7.55968],[110.42804,-7.55963],[110.42812,-7.55957],[110.4282,-7.5595],[110.42827,-7.55943],[110.42833,-7.55936],[110.4284,-7.55928],[110.42847,-7.55921],[110.42855,-7.55914],[110.42863,-7.55908],[110.42871,-7.55903],[110.4288,-7.55898],[110.42889,-7.55892],[110.42897,-7.55887],[110.42913,-7.55875],[110.42927,-7.55861],[110.42939,-7.55845],[110.42944,-7.55836],[110.4295,-7.55827],[110.42955,-7.55819],[110.42961,-7.5581],[110.42973,-7.55794],[110.43001,-7.55766],[110.43017,-7.55754],[110.43025,-7.55747],[110.43034,-7.55742],[110.43058,-7.55724],[110.43067,-7.55718],[110.43083,-7.55706],[110.43091,-7.55701],[110.431,-7.55695],[110.43108,-7.5569],[110.43135,-7.55675],[110.43143,-7.55669],[110.4315,-7.55662],[110.43156,-7.55655],[110.43162,-7.55646],[110.43168,-7.55638],[110.43173,-7.55629],[110.43185,-7.55613],[110.43186,-7.55611],[110.43191,-7.55605],[110.43197,-7.55597],[110.43202,-7.55588],[110.43232,-7.55548],[110.43237,-7.55539],[110.43242,-7.55531],[110.43247,-7.55522],[110.43251,-7.55512],[110.43255,-7.55503],[110.43256,-7.555],[110.43259,-7.55494],[110.43263,-7.55485],[110.43267,-7.55475],[110.43275,-7.55457],[110.4328,-7.55448],[110.43285,-7.5544],[110.43291,-7.55432],[110.43298,-7.55424],[110.43304,-7.55416],[110.43318,-7.55402],[110.43325,-7.55394],[110.43346,-7.55373],[110.43354,-7.55366],[110.4337,-7.55354],[110.43379,-7.55349],[110.43388,-7.55345],[110.43408,-7.55337],[110.43417,-7.55333],[110.43427,-7.55329],[110.43436,-7.55325],[110.43445,-7.5532],[110.43453,-7.55314],[110.4346,-7.55308],[110.43466,-7.553],[110.43471,-7.55292],[110.43486,-7.55265],[110.43492,-7.55256],[110.43497,-7.55248],[110.43521,-7.55216],[110.43528,-7.55208],[110.43534,-7.55201],[110.43548,-7.55185],[110.43554,-7.55178],[110.43561,-7.5517],[110.43568,-7.55163],[110.43574,-7.55155],[110.43588,-7.55141],[110.43594,-7.55133],[110.43601,-7.55126],[110.43608,-7.55118],[110.43615,-7.55111],[110.43622,-7.55103],[110.43628,-7.55096],[110.43635,-7.55089],[110.43642,-7.55081],[110.43649,-7.55074],[110.43656,-7.55066],[110.43662,-7.55059],[110.43669,-7.55051],[110.43675,-7.55044],[110.43682,-7.55036],[110.437,-7.55012],[110.43707,-7.55004],[110.43719,-7.54988],[110.43725,-7.54981],[110.43732,-7.54973],[110.43738,-7.54965],[110.43752,-7.54951],[110.4376,-7.54944],[110.43774,-7.5493],[110.43782,-7.54923],[110.43789,-7.54917],[110.43797,-7.5491],[110.43805,-7.54904],[110.43812,-7.54897],[110.4382,-7.5489],[110.43827,-7.54884],[110.43834,-7.54877],[110.43842,-7.5487],[110.43849,-7.54863],[110.43856,-7.54855],[110.43862,-7.54848],[110.43869,-7.5484],[110.43876,-7.54833],[110.43882,-7.54825],[110.43889,-7.54817],[110.43895,-7.5481],[110.43902,-7.54802],[110.43914,-7.54786],[110.43921,-7.54778],[110.43927,-7.5477],[110.43934,-7.54763],[110.4394,-7.54755],[110.43947,-7.54748],[110.43953,-7.5474],[110.4396,-7.54733],[110.43967,-7.54725],[110.43974,-7.54718],[110.43982,-7.54712],[110.43996,-7.54698],[110.44052,-7.54656],[110.44061,-7.5465],[110.44065,-7.54646],[110.44077,-7.54637],[110.44084,-7.54631],[110.44092,-7.54624],[110.441,-7.54618],[110.44107,-7.54611],[110.44115,-7.54604],[110.44136,-7.54583],[110.44142,-7.54575],[110.44149,-7.54567],[110.44173,-7.54535],[110.44178,-7.54527],[110.4419,-7.54511],[110.44197,-7.54503],[110.44203,-7.54495],[110.44217,-7.54481],[110.44225,-7.54474],[110.44232,-7.54467],[110.4424,-7.5446],[110.44247,-7.54453],[110.44254,-7.54447],[110.44255,-7.54446],[110.44261,-7.54439],[110.44268,-7.54431],[110.44273,-7.54423],[110.44278,-7.54414],[110.44286,-7.54396],[110.4429,-7.54386],[110.44294,-7.54377],[110.44299,-7.54368],[110.44304,-7.5436],[110.4431,-7.54352],[110.44324,-7.54338],[110.4434,-7.54326],[110.44349,-7.54321],[110.44358,-7.54315],[110.44366,-7.54309],[110.44375,-7.54303],[110.44391,-7.54291],[110.44412,-7.5427],[110.44419,-7.54262],[110.44433,-7.54248],[110.44439,-7.54241],[110.44439,-7.5424],[110.44446,-7.54233],[110.44453,-7.54225],[110.44462,-7.54216],[110.4433,-7.5424],[110.443,-7.54248],[110.44,-7.54324],[110.43685,-7.54329],[110.43329,-7.54329],[110.432,-7.54303],[110.43179,-7.54298],[110.43177,-7.54298],[110.43087,-7.5428],[110.42852,-7.5426],[110.42732,-7.54304],[110.42645,-7.54361],[110.42615,-7.54383],[110.42592,-7.544],[110.42585,-7.54403],[110.42515,-7.54426],[110.42482,-7.5445],[110.42458,-7.54468],[110.42452,-7.54469],[110.42394,-7.54481],[110.42375,-7.54465],[110.4235,-7.5444],[110.42309,-7.54426],[110.42271,-7.54401],[110.42232,-7.5439],[110.4222,-7.54393],[110.42205,-7.54396],[110.42191,-7.544],[110.42185,-7.54402],[110.4213,-7.54423],[110.42072,-7.54451],[110.42047,-7.54461],[110.42025,-7.54471],[110.42003,-7.5448],[110.41954,-7.54489],[110.41914,-7.54524],[110.41887,-7.54561],[110.41811,-7.54573],[110.41754,-7.54607],[110.41681,-7.54649],[110.41574,-7.54672],[110.41511,-7.54697],[110.41464,-7.54744],[110.41403,-7.5477],[110.41347,-7.54808],[110.41305,-7.54809],[110.41244,-7.54848],[110.41218,-7.54871],[110.41176,-7.54902],[110.41137,-7.54922],[110.41105,-7.54941],[110.41074,-7.54975],[110.41065,-7.55003],[110.4106,-7.55054],[110.41042,-7.55077],[110.41015,-7.55122],[110.41,-7.55185],[110.40983,-7.5525],[110.40935,-7.55326],[110.40872,-7.55358],[110.40855,-7.55367],[110.4082,-7.55374],[110.40791,-7.5538],[110.40761,-7.55386],[110.40738,-7.5542],[110.40732,-7.5543],[110.40719,-7.55453],[110.40705,-7.55469],[110.40685,-7.5548],[110.40656,-7.55489],[110.40594,-7.55508],[110.40525,-7.55565],[110.4046,-7.55617],[110.40435,-7.55642],[110.40388,-7.55691],[110.4034,-7.55751],[110.40309,-7.5575],[110.40193,-7.5575],[110.40093,-7.55771],[110.40067,-7.55774],[110.4005,-7.55776],[110.3996,-7.55811],[110.39896,-7.55863],[110.39845,-7.55879],[110.39778,-7.55882],[110.3955,-7.55882],[110.39469,-7.55898],[110.39336,-7.55922],[110.39175,-7.56095],[110.39119,-7.5615],[110.39044,-7.56196],[110.38988,-7.56242],[110.38892,-7.56278],[110.38859,-7.56283],[110.38819,-7.5633],[110.38797,-7.5634],[110.38737,-7.5635],[110.38671,-7.56393],[110.38667,-7.56397],[110.38643,-7.56428],[110.38614,-7.56457],[110.38569,-7.56494],[110.3854,-7.56498],[110.3848,-7.56498],[110.38477,-7.56502],[110.38444,-7.56535],[110.38414,-7.56558],[110.38411,-7.56559],[110.38402,-7.56563],[110.38398,-7.56566],[110.38388,-7.56572],[110.38384,-7.56574],[110.38379,-7.56577],[110.38355,-7.56586],[110.38343,-7.5659],[110.38335,-7.56595],[110.38328,-7.56601],[110.38322,-7.56606],[110.38315,-7.56608],[110.38304,-7.56608],[110.38293,-7.56607],[110.38284,-7.56609],[110.38279,-7.5661],[110.38266,-7.56614],[110.38252,-7.5662],[110.38239,-7.56625],[110.3823,-7.5663],[110.38206,-7.56637],[110.38198,-7.56644],[110.38182,-7.56647],[110.38137,-7.56644],[110.38101,-7.56625],[110.3809,-7.56615],[110.38047,-7.56605],[110.38018,-7.56604],[110.37985,-7.56605],[110.37944,-7.56602],[110.37911,-7.56597],[110.37884,-7.56607],[110.37857,-7.56615],[110.37837,-7.56631],[110.37797,-7.56639],[110.37761,-7.56649],[110.37743,-7.56666],[110.37718,-7.5668],[110.37684,-7.56694],[110.37636,-7.56701],[110.37599,-7.56689],[110.37557,-7.56672],[110.37554,-7.56671],[110.37517,-7.56652],[110.37484,-7.56637],[110.3745,-7.5661],[110.37436,-7.56614],[110.37407,-7.56613],[110.37384,-7.56612],[110.37342,-7.56612],[110.37283,-7.56613],[110.37231,-7.56614],[110.37187,-7.56613],[110.37134,-7.56612],[110.37111,-7.56609],[110.37081,-7.56603],[110.37071,-7.56599],[110.37058,-7.56595],[110.37031,-7.56586],[110.37021,-7.56573],[110.37015,-7.56562],[110.37012,-7.56552],[110.37013,-7.5655],[110.37012,-7.56542],[110.37009,-7.56535],[110.37002,-7.56532],[110.36992,-7.56531],[110.36984,-7.56529],[110.36982,-7.56529],[110.36978,-7.56528],[110.36973,-7.56527],[110.36969,-7.56527],[110.36967,-7.56526],[110.36965,-7.56526],[110.3696,-7.56525],[110.36957,-7.56524],[110.36956,-7.56524],[110.36953,-7.56525],[110.36951,-7.56525],[110.36948,-7.56524],[110.36944,-7.56523],[110.36943,-7.56522],[110.3694,-7.5652],[110.36938,-7.56517],[110.36935,-7.56516],[110.36933,-7.56515],[110.3693,-7.56514],[110.36927,-7.56514],[110.36923,-7.56516],[110.36921,-7.56516],[110.36917,-7.56514],[110.36915,-7.56511],[110.36913,-7.56509],[110.36908,-7.56505],[110.36902,-7.56501],[110.36901,-7.56499],[110.36899,-7.56497],[110.36896,-7.56495],[110.36894,-7.56494],[110.36892,-7.56492],[110.36891,-7.56489],[110.36889,-7.56486],[110.36886,-7.56483],[110.36883,-7.56479],[110.36879,-7.56476],[110.36869,-7.56471],[110.36864,-7.56469],[110.36859,-7.56468],[110.36855,-7.56469],[110.3685,-7.5647],[110.36847,-7.56472],[110.36843,-7.56472],[110.36839,-7.56474],[110.36834,-7.56475],[110.36831,-7.56475],[110.36826,-7.56474],[110.36825,-7.56474],[110.36823,-7.56472],[110.3682,-7.56466],[110.36818,-7.56465],[110.36816,-7.56465],[110.36814,-7.56466],[110.36814,-7.56468],[110.36813,-7.5647],[110.36807,-7.5647],[110.36805,-7.56468],[110.36802,-7.56467],[110.36798,-7.56463],[110.36797,-7.56461],[110.36795,-7.56459],[110.36789,-7.56457],[110.36786,-7.56455],[110.36778,-7.56451],[110.36775,-7.5645],[110.36772,-7.5645],[110.36771,-7.56451],[110.3677,-7.56451],[110.36767,-7.56452],[110.36763,-7.56454],[110.36753,-7.56454],[110.36751,-7.56452],[110.36748,-7.5645],[110.36747,-7.5645],[110.36744,-7.56451],[110.36739,-7.56453],[110.36733,-7.56454],[110.36731,-7.56454],[110.36728,-7.56455],[110.3672,-7.56455],[110.36712,-7.56459],[110.36709,-7.56464],[110.36704,-7.56469],[110.36703,-7.56472],[110.367,-7.56475],[110.36697,-7.56479],[110.36693,-7.56483],[110.36689,-7.56488],[110.36687,-7.56493],[110.36686,-7.56499],[110.36687,-7.56501],[110.36687,-7.56504],[110.36685,-7.56505],[110.36675,-7.56511],[110.36669,-7.56514],[110.36659,-7.56518],[110.36655,-7.5652],[110.36646,-7.5652],[110.3664,-7.56518],[110.36636,-7.56519],[110.36628,-7.56519],[110.36625,-7.56518],[110.36625,-7.56517],[110.36621,-7.56516],[110.3662,-7.56516],[110.36616,-7.56515],[110.3661,-7.56513],[110.36609,-7.56513],[110.36607,-7.56512],[110.36603,-7.56508],[110.36603,-7.56507],[110.366,-7.56504],[110.36595,-7.56501],[110.3659,-7.565],[110.36586,-7.565],[110.36578,-7.56496],[110.36575,-7.56495],[110.36573,-7.56494],[110.36569,-7.56491],[110.3656,-7.56482],[110.3655,-7.56474],[110.36548,-7.56473],[110.36546,-7.56471],[110.36542,-7.5647],[110.36537,-7.56469],[110.36532,-7.5647],[110.36524,-7.56472],[110.3652,-7.56471],[110.36516,-7.56471],[110.3651,-7.56469],[110.36507,-7.56469],[110.36504,-7.56468],[110.36501,-7.56468],[110.36499,-7.56467],[110.36498,-7.56465],[110.36496,-7.56463],[110.36496,-7.56461],[110.36493,-7.56459],[110.36492,-7.56459],[110.36488,-7.56458],[110.36484,-7.56458],[110.3648,-7.56459],[110.36478,-7.56461],[110.36474,-7.56464],[110.3647,-7.56469],[110.36469,-7.56469],[110.36462,-7.56476],[110.36458,-7.56481],[110.36456,-7.56483],[110.36452,-7.56486],[110.3645,-7.56488],[110.36448,-7.56489],[110.36441,-7.56489],[110.36437,-7.56487],[110.36429,-7.56485],[110.36425,-7.56485],[110.36422,-7.56486],[110.36419,-7.56488],[110.36415,-7.56492],[110.36411,-7.56492],[110.36408,-7.56493],[110.36405,-7.56493],[110.36404,-7.56492],[110.364,-7.5649],[110.36398,-7.56491],[110.36398,-7.56493],[110.36397,-7.56494],[110.36392,-7.56495],[110.36385,-7.56494],[110.36385,-7.56493],[110.36383,-7.56492],[110.36379,-7.56489],[110.36376,-7.56487],[110.3637,-7.56481],[110.36366,-7.56481],[110.36361,-7.56482],[110.36357,-7.56484],[110.36347,-7.56488],[110.36337,-7.56491],[110.36329,-7.56495],[110.36323,-7.565],[110.3632,-7.56501],[110.36308,-7.56501],[110.36301,-7.56503],[110.36294,-7.56503],[110.3629,-7.56501],[110.36287,-7.56498],[110.36283,-7.56489],[110.36279,-7.56481],[110.36273,-7.56475],[110.36265,-7.56469],[110.36262,-7.56468],[110.36257,-7.56467],[110.36256,-7.56466],[110.36249,-7.56463],[110.3624,-7.5646],[110.36233,-7.56458],[110.36213,-7.56458],[110.36205,-7.56459],[110.36203,-7.56459],[110.36199,-7.5646],[110.36192,-7.56463],[110.36184,-7.56466],[110.36183,-7.56467],[110.36175,-7.5647],[110.36169,-7.56473],[110.36167,-7.56476],[110.36162,-7.5648],[110.36158,-7.56482],[110.36158,-7.56483],[110.3615,-7.56485],[110.36146,-7.56487],[110.36143,-7.56487],[110.36141,-7.56489],[110.36141,-7.56491],[110.36139,-7.56497],[110.36136,-7.56499],[110.36135,-7.56501],[110.36134,-7.56502],[110.36132,-7.56503],[110.36129,-7.56504],[110.36128,-7.56503],[110.36126,-7.56502],[110.36123,-7.56499],[110.36119,-7.56498],[110.36118,-7.56497],[110.36114,-7.56496],[110.36111,-7.56495],[110.36099,-7.56495],[110.36099,-7.56496],[110.36092,-7.56496],[110.36088,-7.56495],[110.36082,-7.56493],[110.36076,-7.56492],[110.36073,-7.5649],[110.3607,-7.5649],[110.36069,-7.56489],[110.36057,-7.56486],[110.36055,-7.56485],[110.3605,-7.56483],[110.36046,-7.56481],[110.36036,-7.56481],[110.36032,-7.5648],[110.36028,-7.56478],[110.36024,-7.56477],[110.36021,-7.56475],[110.36018,-7.56474],[110.36016,-7.56473],[110.36006,-7.56473],[110.36004,-7.56472],[110.36001,-7.5647],[110.36,-7.5647],[110.35998,-7.56469],[110.35997,-7.56467],[110.35996,-7.56464],[110.35995,-7.56462],[110.35993,-7.5646],[110.35989,-7.5646],[110.35981,-7.56462],[110.35972,-7.56459],[110.35958,-7.56452],[110.35956,-7.5645],[110.35954,-7.56449],[110.35951,-7.56449],[110.35949,-7.5645],[110.35948,-7.56449],[110.35946,-7.56448],[110.35942,-7.56448],[110.35937,-7.56449],[110.35934,-7.5645],[110.35926,-7.56452],[110.35923,-7.56453],[110.35919,-7.56452],[110.35915,-7.56452],[110.35909,-7.56454],[110.35904,-7.56458],[110.35895,-7.56467],[110.35893,-7.56468],[110.35891,-7.56467],[110.35888,-7.56467],[110.35884,-7.56469],[110.3588,-7.5647],[110.35875,-7.56471],[110.35859,-7.56475],[110.35858,-7.56475],[110.35854,-7.56476],[110.35848,-7.56473],[110.35847,-7.56471],[110.35846,-7.56471],[110.35844,-7.56467],[110.35838,-7.56459],[110.35836,-7.56454],[110.35832,-7.56451],[110.35829,-7.56451],[110.35824,-7.56452],[110.35821,-7.56453],[110.35819,-7.56454],[110.35819,-7.56455],[110.35818,-7.56456],[110.35817,-7.56458],[110.35811,-7.56461],[110.35809,-7.56461],[110.358,-7.56463],[110.35793,-7.56464],[110.35785,-7.56464],[110.35777,-7.56463],[110.35775,-7.56463],[110.35769,-7.56462],[110.35761,-7.56461],[110.35754,-7.56459],[110.35748,-7.56457],[110.35744,-7.56454],[110.35741,-7.56453],[110.35735,-7.56452],[110.35731,-7.56451],[110.35728,-7.5645],[110.35723,-7.56448],[110.35719,-7.56447],[110.35713,-7.56447],[110.35709,-7.56448],[110.35703,-7.56449],[110.35696,-7.56449],[110.35688,-7.56452],[110.35682,-7.56457],[110.35676,-7.56463],[110.3567,-7.56467],[110.35664,-7.56467],[110.35657,-7.56466],[110.35653,-7.56463],[110.35647,-7.5646],[110.35642,-7.5646],[110.35632,-7.56462],[110.35619,-7.56467],[110.35604,-7.56476],[110.35596,-7.56486],[110.35587,-7.56497],[110.35574,-7.56507],[110.35565,-7.56511],[110.35557,-7.56513],[110.35548,-7.56511],[110.35541,-7.56509],[110.35527,-7.56507],[110.35514,-7.56508],[110.35504,-7.56509],[110.3549,-7.56511],[110.35465,-7.56514],[110.35453,-7.56511],[110.35446,-7.56509],[110.35441,-7.56509],[110.35436,-7.56511],[110.35431,-7.56516],[110.35425,-7.56524],[110.35418,-7.56529],[110.35404,-7.56538],[110.35395,-7.56545],[110.35386,-7.5656],[110.35373,-7.56574],[110.35361,-7.56572],[110.35346,-7.56568],[110.35326,-7.5656],[110.35315,-7.56553],[110.35311,-7.56551],[110.35291,-7.5654],[110.35275,-7.56533],[110.35267,-7.56528],[110.35256,-7.56517],[110.35243,-7.56511],[110.35229,-7.56509],[110.35217,-7.56506],[110.35212,-7.56505],[110.35207,-7.56505],[110.352,-7.56502],[110.35194,-7.56496],[110.35185,-7.56483],[110.35176,-7.5648],[110.35165,-7.56479],[110.35146,-7.56479],[110.35141,-7.56478],[110.35131,-7.56471],[110.35124,-7.5647],[110.35095,-7.5647],[110.35076,-7.56474],[110.35058,-7.56475],[110.35037,-7.56475],[110.35035,-7.56481],[110.35023,-7.56485],[110.35014,-7.56486],[110.35007,-7.56482],[110.35,-7.56479],[110.3499,-7.56475],[110.34975,-7.56473],[110.34956,-7.56475],[110.34949,-7.56478],[110.34941,-7.5648],[110.34921,-7.56483],[110.34907,-7.56483],[110.34897,-7.56482],[110.34887,-7.56482],[110.34878,-7.56487],[110.3487,-7.5649],[110.34859,-7.56496],[110.34851,-7.565],[110.34848,-7.56502],[110.34823,-7.5651],[110.34806,-7.56513],[110.34795,-7.56517],[110.34784,-7.56518],[110.34774,-7.56518],[110.34757,-7.56515],[110.34738,-7.56512],[110.34722,-7.56507],[110.34716,-7.56504],[110.3471,-7.56502],[110.34703,-7.56497],[110.34699,-7.5649],[110.34693,-7.56487],[110.34677,-7.56485],[110.34665,-7.56481],[110.3465,-7.56478],[110.34639,-7.56476],[110.34631,-7.56468],[110.34622,-7.56463],[110.34614,-7.56461],[110.34604,-7.5646],[110.34592,-7.56458],[110.34584,-7.56458],[110.34579,-7.56462],[110.34572,-7.56466],[110.34569,-7.56468],[110.34564,-7.56471],[110.34554,-7.56472],[110.34547,-7.56472],[110.34541,-7.56468],[110.34533,-7.56461],[110.34528,-7.56453],[110.34524,-7.5645],[110.34513,-7.56445],[110.34492,-7.5644],[110.34471,-7.56442],[110.34446,-7.5645],[110.34436,-7.56454],[110.34427,-7.56457],[110.34417,-7.56461],[110.34411,-7.56463],[110.34402,-7.56472],[110.34393,-7.56479],[110.3438,-7.56486],[110.34378,-7.56487],[110.34371,-7.5649],[110.34364,-7.56488],[110.34352,-7.56485],[110.34326,-7.56476],[110.34312,-7.56474],[110.343,-7.56475],[110.34285,-7.56481],[110.34257,-7.56491],[110.34241,-7.56499],[110.34226,-7.56508],[110.34217,-7.56513],[110.3421,-7.56515],[110.34203,-7.56523],[110.34192,-7.56532],[110.34185,-7.56539],[110.34184,-7.56539],[110.34171,-7.56543],[110.34162,-7.56546],[110.34149,-7.56546],[110.3414,-7.56541],[110.34135,-7.56539],[110.34113,-7.56528],[110.34104,-7.56525],[110.34092,-7.56524],[110.34075,-7.56529],[110.3406,-7.56534],[110.34048,-7.56536],[110.34034,-7.56538],[110.3403,-7.56538],[110.34017,-7.56539],[110.34004,-7.56541],[110.33992,-7.56544],[110.33983,-7.56548],[110.33973,-7.56557],[110.33971,-7.5656],[110.33965,-7.56568],[110.3395,-7.56582],[110.33941,-7.56587],[110.33929,-7.5659],[110.33919,-7.56589],[110.33902,-7.56584],[110.33893,-7.56581],[110.33883,-7.56581],[110.33877,-7.56583],[110.33869,-7.56591],[110.33866,-7.56593],[110.33861,-7.56597],[110.33851,-7.566],[110.33823,-7.56607],[110.33804,-7.56616],[110.33785,-7.56623],[110.33763,-7.56635],[110.33747,-7.56646],[110.3374,-7.56654],[110.33738,-7.56665],[110.33735,-7.56668],[110.33732,-7.56673],[110.33725,-7.56682],[110.33715,-7.56689],[110.33705,-7.56692],[110.33692,-7.56692],[110.33677,-7.56688],[110.33663,-7.5668],[110.3365,-7.56675],[110.33634,-7.5667],[110.33609,-7.56663],[110.33607,-7.56662],[110.33574,-7.56651],[110.33543,-7.56643],[110.33535,-7.56639],[110.33523,-7.56631],[110.33517,-7.56622],[110.33509,-7.56611],[110.33499,-7.56592],[110.33497,-7.56588],[110.33494,-7.56566],[110.33492,-7.56555],[110.33491,-7.5655],[110.33485,-7.5653],[110.33482,-7.56525],[110.33471,-7.56522],[110.33455,-7.56525],[110.33445,-7.56526],[110.33444,-7.56527],[110.33434,-7.5653],[110.33421,-7.56532],[110.33418,-7.56532],[110.33409,-7.56533],[110.33394,-7.56535],[110.33378,-7.56536],[110.33369,-7.56537],[110.33363,-7.56535],[110.33356,-7.56531],[110.33346,-7.56526],[110.33337,-7.56522],[110.33327,-7.56517],[110.33323,-7.56513],[110.33317,-7.56504],[110.33307,-7.56499],[110.33298,-7.56498],[110.33288,-7.56502],[110.33284,-7.56505],[110.33278,-7.5651],[110.33275,-7.56511],[110.33272,-7.56513],[110.33254,-7.56516],[110.33248,-7.56515],[110.33242,-7.5651],[110.33239,-7.56508],[110.33237,-7.56506],[110.33222,-7.56501],[110.33209,-7.56499],[110.33197,-7.56494],[110.33182,-7.5649],[110.33171,-7.56488],[110.33159,-7.56488],[110.33146,-7.5649],[110.33133,-7.56494],[110.33123,-7.56498],[110.33105,-7.5651],[110.33095,-7.56518],[110.33084,-7.56527],[110.33077,-7.56532],[110.33067,-7.56537],[110.33059,-7.5654],[110.33049,-7.56538],[110.33039,-7.56533],[110.33022,-7.56527],[110.33014,-7.56526],[110.33006,-7.56526],[110.32998,-7.56529],[110.32985,-7.56535],[110.32978,-7.5654],[110.32967,-7.56549],[110.32962,-7.5655],[110.32954,-7.5655],[110.32948,-7.56548],[110.32943,-7.56543],[110.3294,-7.56541],[110.32934,-7.5654],[110.32925,-7.56538],[110.32917,-7.56538],[110.3291,-7.56536],[110.32904,-7.56532],[110.32897,-7.56528],[110.32887,-7.56525],[110.32874,-7.5653],[110.32868,-7.56533],[110.32858,-7.56534],[110.32845,-7.56537],[110.32833,-7.56544],[110.32825,-7.56553],[110.32822,-7.56555],[110.32808,-7.56567],[110.32797,-7.56581],[110.32787,-7.56595],[110.3278,-7.56605],[110.32765,-7.56621],[110.32751,-7.56632],[110.3274,-7.56637],[110.32726,-7.56639],[110.32716,-7.56638],[110.32703,-7.56634],[110.32694,-7.56628],[110.32685,-7.56625],[110.3266,-7.56622],[110.32648,-7.56621],[110.32628,-7.56618],[110.32616,-7.56616],[110.32611,-7.56615],[110.32585,-7.56615],[110.32572,-7.5662],[110.32564,-7.56626],[110.32557,-7.56638],[110.32556,-7.56642],[110.32549,-7.56657],[110.32544,-7.56668],[110.32535,-7.56676],[110.32528,-7.56682],[110.32505,-7.56706],[110.32492,-7.56713],[110.32475,-7.56719],[110.32462,-7.56723],[110.3245,-7.56728],[110.3244,-7.56734],[110.32436,-7.56738],[110.32431,-7.56742],[110.32409,-7.56786],[110.32396,-7.56808],[110.32375,-7.56827],[110.32356,-7.56834],[110.32331,-7.56844],[110.32311,-7.56846],[110.32304,-7.56847],[110.3228,-7.56848],[110.32262,-7.56849],[110.32251,-7.56856],[110.32244,-7.56863],[110.32239,-7.56875],[110.32228,-7.56891],[110.3222,-7.56912],[110.32209,-7.56929],[110.32198,-7.56935],[110.32163,-7.56935],[110.32141,-7.56934],[110.3214,-7.56935],[110.32119,-7.56939],[110.3209,-7.56952],[110.32067,-7.56966],[110.32044,-7.56983],[110.32011,-7.56998],[110.31989,-7.57],[110.31972,-7.57001],[110.31951,-7.56998],[110.31937,-7.56989],[110.31922,-7.56973],[110.31891,-7.56958],[110.3187,-7.56963],[110.31856,-7.56978],[110.31839,-7.56995],[110.31817,-7.57031],[110.31805,-7.57051],[110.31793,-7.5707],[110.31765,-7.57087],[110.31745,-7.57093],[110.31733,-7.57093],[110.31724,-7.57094],[110.31692,-7.57094],[110.3168,-7.57097],[110.31675,-7.57098],[110.31632,-7.57101],[110.31602,-7.57107],[110.31587,-7.57118],[110.31577,-7.57132],[110.3157,-7.57144],[110.31568,-7.57149],[110.31558,-7.57157],[110.3153,-7.57173],[110.31503,-7.57191],[110.3149,-7.57213],[110.31465,-7.57244],[110.31454,-7.57261],[110.31438,-7.57276],[110.31415,-7.57288],[110.31392,-7.57303],[110.31381,-7.57317],[110.31378,-7.57329],[110.31364,-7.57344],[110.31342,-7.57362],[110.31325,-7.57386],[110.31308,-7.574],[110.31272,-7.57422],[110.31246,-7.57437],[110.31239,-7.57441],[110.3122,-7.57456],[110.31214,-7.57461],[110.31173,-7.57501],[110.31159,-7.57509],[110.31131,-7.57513],[110.31128,-7.57514],[110.31116,-7.57516],[110.31108,-7.57516],[110.31098,-7.5752],[110.31092,-7.57522],[110.31085,-7.57525],[110.31081,-7.57528],[110.31075,-7.57534],[110.31068,-7.57539],[110.31056,-7.57552],[110.31054,-7.57553],[110.31048,-7.57559],[110.31032,-7.57578],[110.31027,-7.57583],[110.31021,-7.57591],[110.31019,-7.57596],[110.31004,-7.5763],[110.30979,-7.57669],[110.30976,-7.57676],[110.30974,-7.57686],[110.30973,-7.57695],[110.30972,-7.57698],[110.30972,-7.57705],[110.30968,-7.57731],[110.30964,-7.57741],[110.30958,-7.57748],[110.30949,-7.57758],[110.30941,-7.57766],[110.30935,-7.5777],[110.30931,-7.57772],[110.30901,-7.57782],[110.30886,-7.57785],[110.30873,-7.57788],[110.30863,-7.57792],[110.30854,-7.57794],[110.30844,-7.57798],[110.30842,-7.57802],[110.30835,-7.57814],[110.3083,-7.57825],[110.30825,-7.57857],[110.30825,-7.57859],[110.30828,-7.57884],[110.30825,-7.5791],[110.30823,-7.57923],[110.30817,-7.57932],[110.30807,-7.57942],[110.30794,-7.57947],[110.30781,-7.57951],[110.30762,-7.57955],[110.30747,-7.57955],[110.30737,-7.57957],[110.30724,-7.57958],[110.30705,-7.57965],[110.307,-7.57967],[110.30668,-7.57978],[110.3065,-7.57983],[110.30645,-7.57984],[110.30641,-7.57987],[110.3064,-7.57988],[110.3063,-7.57995],[110.30621,-7.58002],[110.30608,-7.58007],[110.30598,-7.58007],[110.30583,-7.58003],[110.30562,-7.58003],[110.30549,-7.58009],[110.30526,-7.58027],[110.30519,-7.58039],[110.30518,-7.58041],[110.30505,-7.58058],[110.30502,-7.58061],[110.30485,-7.58076],[110.30473,-7.58093],[110.30472,-7.58097],[110.30468,-7.58109],[110.30468,-7.58112],[110.30457,-7.58144],[110.30447,-7.58159],[110.30416,-7.58188],[110.30393,-7.58211],[110.30378,-7.58231],[110.30375,-7.58234],[110.30374,-7.58236],[110.30354,-7.58267],[110.30346,-7.58287],[110.30339,-7.58313],[110.30339,-7.58316],[110.30334,-7.58335],[110.30332,-7.58365],[110.30329,-7.58381],[110.30329,-7.58384],[110.30324,-7.58418],[110.30317,-7.58439],[110.30309,-7.58454],[110.30294,-7.58465],[110.30255,-7.58486],[110.30248,-7.5849],[110.30246,-7.58491],[110.30244,-7.58491],[110.3022,-7.58504],[110.30199,-7.58511],[110.30182,-7.5852],[110.30164,-7.5853],[110.30142,-7.58557],[110.30131,-7.58572],[110.30128,-7.58576],[110.30122,-7.5858],[110.30109,-7.5859],[110.301,-7.58604],[110.301,-7.58622],[110.30106,-7.58643],[110.30112,-7.58661],[110.30116,-7.58682],[110.30117,-7.58695],[110.30117,-7.58699],[110.30113,-7.58709],[110.30112,-7.5871],[110.3011,-7.58715],[110.30099,-7.58726],[110.30082,-7.58737]]]}}]}