{"type":"FeatureCollection","features":[{"type":"Feature","properties":{"KECAMATAN":"Tegalrejo"},"geometry":{"type":"Polygon","coordinates":[[[110.2299,-7.46666],[110.22991,-7.4667],[110.22993,-7.46675],[110.22997,-7.4668],[110.23001,-7.46684],[110.23005,-7.46687],[110.23009,-7.46691],[110.23012,-7.46693],[110.2302,-7.46697],[110.23023,-7.46698],[110.23027,-7.46698],[110.23032,-7.46697],[110.23041,-7.46697],[110.2305,-7.46696],[110.23056,-7.46697],[110.23061,-7.46699],[110.23067,-7.46703],[110.23071,-7.46706],[110.23076,-7.4671],[110.23078,-7.46715],[110.2308,-7.46719],[110.2308,-7.46723],[110.23079,-7.46729],[110.23076,-7.46736],[110.23073,-7.46739],[110.23067,-7.46748],[110.23062,-7.46753],[110.23057,-7.4676],[110.23025,-7.468],[110.23022,-7.46804],[110.2302,-7.46808],[110.2302,-7.46813],[110.23021,-7.46817],[110.23024,-7.46822],[110.23026,-7.46825],[110.23029,-7.4683],[110.23033,-7.46839],[110.2304,-7.46844],[110.23042,-7.46846],[110.23043,-7.46846],[110.23048,-7.46849],[110.23058,-7.46853],[110.23069,-7.46858],[110.23076,-7.46862],[110.23101,-7.4687],[110.23107,-7.46873],[110.23112,-7.46876],[110.23117,-7.4688],[110.23121,-7.46884],[110.23122,-7.46888],[110.23123,-7.46893],[110.23123,-7.46894],[110.23122,-7.46899],[110.23121,-7.469],[110.23117,-7.46912],[110.23112,-7.46916],[110.23106,-7.46919],[110.231,-7.46923],[110.23095,-7.46926],[110.23086,-7.46935],[110.23085,-7.4694],[110.23086,-7.46944],[110.23086,-7.46948],[110.23089,-7.46953],[110.23089,-7.46954],[110.23092,-7.46958],[110.23096,-7.46961],[110.23102,-7.46965],[110.23109,-7.46967],[110.23118,-7.46968],[110.23156,-7.46964],[110.23161,-7.46963],[110.23182,-7.46961],[110.23186,-7.46961],[110.23201,-7.46962],[110.23219,-7.46965],[110.23225,-7.46967],[110.23231,-7.4697],[110.23235,-7.46974],[110.23236,-7.46979],[110.23237,-7.46983],[110.23236,-7.46987],[110.23235,-7.46992],[110.23233,-7.46996],[110.23228,-7.47002],[110.23223,-7.47007],[110.23217,-7.4701],[110.23206,-7.47014],[110.23194,-7.47017],[110.23193,-7.47017],[110.23181,-7.47021],[110.23168,-7.47024],[110.23156,-7.47026],[110.23147,-7.47029],[110.2314,-7.47032],[110.23135,-7.47034],[110.23131,-7.47037],[110.23129,-7.4704],[110.23128,-7.47042],[110.23128,-7.47053],[110.23129,-7.47057],[110.23131,-7.47061],[110.23135,-7.47065],[110.2314,-7.47067],[110.23146,-7.47069],[110.23153,-7.4707],[110.23156,-7.4707],[110.23156,-7.47071],[110.2316,-7.47071],[110.23165,-7.47073],[110.23166,-7.47073],[110.23168,-7.47074],[110.23169,-7.47074],[110.23169,-7.47075],[110.23173,-7.47078],[110.23175,-7.47081],[110.23176,-7.47085],[110.23177,-7.47088],[110.23177,-7.47089],[110.23176,-7.47093],[110.23174,-7.47096],[110.23171,-7.47099],[110.23166,-7.47101],[110.23156,-7.47101],[110.23149,-7.47103],[110.23141,-7.47107],[110.23137,-7.47111],[110.23135,-7.47115],[110.23134,-7.4712],[110.23134,-7.47136],[110.23136,-7.47139],[110.2314,-7.47143],[110.23143,-7.47144],[110.23157,-7.47144],[110.23162,-7.47143],[110.23187,-7.47143],[110.23192,-7.47144],[110.23197,-7.47146],[110.23201,-7.47148],[110.23204,-7.47152],[110.23206,-7.47156],[110.23207,-7.4716],[110.23206,-7.47165],[110.23205,-7.47169],[110.23203,-7.47173],[110.23199,-7.47176],[110.23194,-7.4718],[110.23189,-7.47183],[110.23186,-7.47185],[110.23184,-7.47186],[110.23184,-7.47187],[110.23181,-7.4719],[110.2318,-7.47194],[110.2318,-7.47199],[110.23181,-7.47206],[110.23181,-7.47207],[110.23182,-7.47208],[110.23183,-7.47221],[110.23183,-7.47228],[110.23182,-7.47234],[110.23181,-7.47245],[110.2318,-7.47251],[110.2318,-7.47252],[110.23179,-7.47257],[110.23178,-7.4726],[110.23175,-7.47267],[110.23171,-7.47272],[110.23166,-7.47279],[110.23165,-7.4728],[110.23165,-7.47281],[110.23159,-7.47289],[110.23147,-7.47304],[110.23144,-7.47308],[110.23143,-7.47312],[110.23143,-7.47316],[110.23147,-7.47328],[110.2315,-7.47334],[110.23154,-7.47339],[110.23156,-7.47343],[110.23157,-7.47344],[110.23158,-7.47348],[110.23159,-7.4735],[110.23158,-7.47378],[110.23158,-7.47396],[110.23159,-7.47404],[110.23161,-7.47416],[110.23161,-7.47426],[110.23147,-7.47454],[110.23147,-7.47455],[110.23144,-7.47461],[110.23135,-7.47485],[110.23132,-7.47491],[110.23128,-7.47501],[110.23121,-7.47517],[110.23128,-7.4752],[110.23131,-7.4753],[110.23132,-7.47532],[110.23132,-7.47537],[110.23134,-7.47548],[110.23151,-7.47658],[110.23151,-7.47659],[110.23154,-7.47677],[110.2317,-7.47717],[110.23176,-7.47733],[110.23199,-7.47758],[110.2321,-7.4777],[110.23283,-7.47803],[110.23332,-7.47829],[110.23334,-7.47836],[110.23335,-7.4784],[110.23321,-7.47858],[110.23303,-7.47882],[110.23298,-7.4789],[110.23293,-7.47896],[110.23281,-7.47912],[110.23272,-7.47922],[110.23273,-7.47926],[110.23277,-7.47936],[110.23311,-7.47969],[110.23337,-7.47976],[110.23346,-7.47977],[110.23365,-7.47979],[110.23399,-7.47981],[110.23421,-7.47981],[110.2344,-7.47985],[110.23454,-7.47993],[110.23463,-7.48004],[110.23469,-7.48019],[110.2347,-7.48032],[110.23468,-7.48043],[110.23466,-7.48056],[110.23454,-7.48072],[110.23434,-7.48089],[110.23414,-7.48101],[110.23413,-7.48102],[110.23396,-7.48112],[110.23387,-7.48117],[110.23381,-7.48121],[110.23372,-7.48132],[110.23372,-7.48144],[110.23375,-7.48154],[110.23382,-7.48162],[110.23416,-7.48179],[110.23437,-7.48189],[110.23447,-7.48196],[110.23456,-7.48206],[110.23459,-7.48212],[110.23462,-7.48219],[110.23463,-7.48224],[110.23465,-7.48228],[110.23462,-7.48238],[110.23454,-7.48257],[110.23441,-7.48289],[110.2344,-7.48295],[110.2344,-7.48301],[110.23443,-7.48305],[110.23447,-7.4831],[110.23456,-7.48316],[110.23472,-7.48324],[110.23486,-7.48326],[110.23519,-7.48332],[110.2355,-7.48336],[110.23551,-7.48336],[110.2356,-7.48338],[110.23564,-7.48339],[110.23579,-7.48345],[110.23599,-7.48355],[110.23604,-7.4836],[110.23606,-7.48361],[110.23626,-7.48379],[110.23637,-7.48396],[110.23641,-7.4841],[110.23639,-7.48421],[110.23635,-7.48437],[110.23626,-7.48452],[110.23603,-7.48473],[110.23564,-7.485],[110.23536,-7.48521],[110.23528,-7.48531],[110.23525,-7.48539],[110.23522,-7.48549],[110.23524,-7.48561],[110.23529,-7.48574],[110.23538,-7.4859],[110.23551,-7.48606],[110.23606,-7.48663],[110.23609,-7.48666],[110.23657,-7.48711],[110.23697,-7.4875],[110.23712,-7.48767],[110.2372,-7.48778],[110.23724,-7.48788],[110.23724,-7.48789],[110.23725,-7.48789],[110.23733,-7.48775],[110.23738,-7.48768],[110.23736,-7.48742],[110.23735,-7.48732],[110.2374,-7.48718],[110.2376,-7.48703],[110.23772,-7.48697],[110.23782,-7.48684],[110.23805,-7.48682],[110.23815,-7.48682],[110.23862,-7.48662],[110.23873,-7.48657],[110.2394,-7.48659],[110.23942,-7.48659],[110.23955,-7.48656],[110.23958,-7.48663],[110.23959,-7.48663],[110.23967,-7.48665],[110.23978,-7.48667],[110.24002,-7.48669],[110.24035,-7.48678],[110.24043,-7.48671],[110.2406,-7.48658],[110.24071,-7.48644],[110.24105,-7.48641],[110.24109,-7.48641],[110.24141,-7.48614],[110.24142,-7.48612],[110.24175,-7.48575],[110.24196,-7.48535],[110.24206,-7.48518],[110.24213,-7.48514],[110.24236,-7.48527],[110.24245,-7.48533],[110.24246,-7.48533],[110.24269,-7.48534],[110.24323,-7.48554],[110.2439,-7.48542],[110.24462,-7.48516],[110.24492,-7.48509],[110.24504,-7.48508],[110.24515,-7.48519],[110.2451,-7.48537],[110.24552,-7.48583],[110.24626,-7.4866],[110.24661,-7.48705],[110.24707,-7.48744],[110.24725,-7.48716],[110.24738,-7.48687],[110.24757,-7.48682],[110.24776,-7.48701],[110.24787,-7.4872],[110.2479,-7.48725],[110.24803,-7.48751],[110.24811,-7.48758],[110.24839,-7.48739],[110.24859,-7.48713],[110.24891,-7.48695],[110.249,-7.48698],[110.24928,-7.48707],[110.24945,-7.4871],[110.24956,-7.4871],[110.24983,-7.48709],[110.25009,-7.48709],[110.25016,-7.48708],[110.25035,-7.48706],[110.25049,-7.48692],[110.25063,-7.48682],[110.25064,-7.48682],[110.25095,-7.48691],[110.25124,-7.487],[110.25143,-7.48692],[110.2516,-7.48664],[110.25172,-7.48633],[110.2518,-7.48613],[110.25199,-7.48578],[110.25212,-7.48564],[110.2523,-7.48561],[110.25241,-7.48572],[110.25242,-7.48576],[110.25246,-7.48588],[110.25269,-7.48608],[110.25289,-7.4862],[110.25295,-7.48616],[110.25307,-7.48609],[110.2533,-7.48573],[110.2534,-7.48563],[110.25348,-7.4856],[110.25367,-7.48554],[110.25397,-7.48532],[110.25423,-7.48523],[110.25423,-7.48522],[110.25449,-7.48524],[110.2545,-7.48524],[110.25483,-7.48537],[110.25501,-7.48546],[110.25518,-7.48547],[110.25545,-7.48536],[110.25561,-7.48508],[110.25568,-7.48495],[110.25587,-7.48471],[110.25608,-7.48462],[110.25635,-7.48466],[110.25649,-7.48481],[110.25676,-7.48494],[110.25676,-7.48493],[110.25697,-7.48481],[110.25695,-7.48469],[110.25694,-7.48458],[110.25687,-7.48435],[110.25687,-7.48414],[110.25704,-7.48406],[110.25725,-7.48406],[110.25747,-7.48421],[110.25765,-7.48428],[110.25773,-7.48432],[110.25798,-7.48445],[110.25812,-7.48448],[110.25827,-7.4845],[110.25843,-7.4845],[110.25874,-7.48436],[110.25906,-7.48421],[110.25919,-7.48403],[110.25951,-7.48395],[110.25991,-7.4841],[110.26033,-7.4843],[110.26054,-7.48441],[110.26105,-7.48421],[110.26121,-7.48409],[110.26149,-7.48407],[110.26173,-7.48418],[110.26183,-7.48423],[110.26188,-7.48425],[110.26195,-7.48426],[110.26214,-7.48405],[110.2622,-7.48386],[110.2622,-7.48385],[110.26244,-7.48326],[110.26281,-7.48231],[110.26289,-7.48219],[110.26311,-7.48183],[110.2637,-7.48203],[110.26396,-7.48206],[110.26443,-7.482],[110.26476,-7.48162],[110.26478,-7.4816],[110.26508,-7.48113],[110.26535,-7.48105],[110.26543,-7.481],[110.26546,-7.48097],[110.26548,-7.48094],[110.26568,-7.4808],[110.26584,-7.48073],[110.26598,-7.48071],[110.26607,-7.48071],[110.26621,-7.48081],[110.26625,-7.48083],[110.2663,-7.48083],[110.2666,-7.48081],[110.26686,-7.48076],[110.26712,-7.48064],[110.26726,-7.48053],[110.26725,-7.48043],[110.26725,-7.48036],[110.26739,-7.48006],[110.2675,-7.47981],[110.26771,-7.47967],[110.26803,-7.47969],[110.26825,-7.4797],[110.26841,-7.4797],[110.26845,-7.4795],[110.26846,-7.47944],[110.26853,-7.47913],[110.26864,-7.47909],[110.26886,-7.4791],[110.26922,-7.47908],[110.26924,-7.47908],[110.26948,-7.47901],[110.26954,-7.47896],[110.26975,-7.47878],[110.27001,-7.47851],[110.27022,-7.47826],[110.27046,-7.47814],[110.27054,-7.478],[110.27053,-7.4778],[110.27069,-7.47771],[110.2708,-7.4778],[110.27103,-7.47778],[110.27129,-7.47771],[110.27146,-7.47767],[110.27164,-7.47754],[110.27178,-7.47744],[110.27206,-7.47732],[110.27231,-7.47727],[110.27253,-7.47731],[110.27258,-7.47738],[110.27264,-7.47745],[110.27269,-7.47767],[110.27277,-7.47792],[110.27286,-7.478],[110.27299,-7.47802],[110.2733,-7.47802],[110.27342,-7.47795],[110.27356,-7.47788],[110.27369,-7.47775],[110.27399,-7.47728],[110.27402,-7.47723],[110.27407,-7.47713],[110.27422,-7.47695],[110.27436,-7.4769],[110.27454,-7.47694],[110.27473,-7.47703],[110.27486,-7.47711],[110.27499,-7.47716],[110.27508,-7.4772],[110.27534,-7.47719],[110.27547,-7.4771],[110.27563,-7.47702],[110.2757,-7.47706],[110.27583,-7.47712],[110.27601,-7.47716],[110.27615,-7.47711],[110.27641,-7.47708],[110.27659,-7.477],[110.27666,-7.47692],[110.27675,-7.47677],[110.27682,-7.47672],[110.27709,-7.47653],[110.2774,-7.47632],[110.27755,-7.47626],[110.27794,-7.47609],[110.27816,-7.47593],[110.27823,-7.47586],[110.2784,-7.47565],[110.27834,-7.47517],[110.27838,-7.47476],[110.27846,-7.47434],[110.27861,-7.47366],[110.27861,-7.47331],[110.27864,-7.47299],[110.27862,-7.47278],[110.27855,-7.47266],[110.2785,-7.47252],[110.27841,-7.47241],[110.27851,-7.4724],[110.27852,-7.4724],[110.27869,-7.47242],[110.27881,-7.47248],[110.279,-7.47243],[110.27904,-7.47238],[110.27921,-7.47226],[110.27941,-7.4722],[110.27965,-7.47213],[110.27965,-7.47212],[110.27969,-7.4721],[110.27981,-7.472],[110.27995,-7.4718],[110.27998,-7.47175],[110.28009,-7.47157],[110.2801,-7.47156],[110.28014,-7.4715],[110.28023,-7.47132],[110.28011,-7.47121],[110.28009,-7.47113],[110.28016,-7.47099],[110.28024,-7.4709],[110.28039,-7.47083],[110.28054,-7.47075],[110.28064,-7.47079],[110.28077,-7.47062],[110.28078,-7.47061],[110.28105,-7.47023],[110.28123,-7.46994],[110.28125,-7.46984],[110.28133,-7.46966],[110.2815,-7.46939],[110.28145,-7.46923],[110.28148,-7.46914],[110.28147,-7.46887],[110.28159,-7.46836],[110.28169,-7.46797],[110.28186,-7.46763],[110.28209,-7.46775],[110.28228,-7.46788],[110.2822,-7.46805],[110.28214,-7.46825],[110.28221,-7.46834],[110.28234,-7.46836],[110.28261,-7.46834],[110.28283,-7.46844],[110.283,-7.46859],[110.28314,-7.46874],[110.28333,-7.46892],[110.2835,-7.46906],[110.28371,-7.46913],[110.28389,-7.46916],[110.28404,-7.46932],[110.28409,-7.46943],[110.2841,-7.46952],[110.28417,-7.46966],[110.28426,-7.46976],[110.28415,-7.46975],[110.2841,-7.46989],[110.28424,-7.47009],[110.28418,-7.47042],[110.28412,-7.47063],[110.28423,-7.47089],[110.28437,-7.47106],[110.28437,-7.47107],[110.28452,-7.47127],[110.28456,-7.47135],[110.28465,-7.4715],[110.28475,-7.47157],[110.28481,-7.47169],[110.28487,-7.4718],[110.285,-7.4718],[110.28517,-7.47177],[110.28534,-7.47181],[110.28546,-7.47177],[110.28572,-7.4718],[110.28574,-7.4718],[110.28588,-7.47194],[110.28597,-7.472],[110.28616,-7.47199],[110.28658,-7.472],[110.28661,-7.47201],[110.28717,-7.4721],[110.28718,-7.4721],[110.2874,-7.47226],[110.28787,-7.47222],[110.2881,-7.47216],[110.28834,-7.47208],[110.28836,-7.47208],[110.28846,-7.47201],[110.28892,-7.47189],[110.28931,-7.47174],[110.2894,-7.47171],[110.28977,-7.47156],[110.29001,-7.47147],[110.29032,-7.47135],[110.29048,-7.47135],[110.29074,-7.47134],[110.29077,-7.47121],[110.29092,-7.47101],[110.29121,-7.47085],[110.29141,-7.47078],[110.2916,-7.47068],[110.29164,-7.47062],[110.29175,-7.47056],[110.29187,-7.47052],[110.29204,-7.47048],[110.29223,-7.4704],[110.29239,-7.47039],[110.29256,-7.47038],[110.29276,-7.47039],[110.29296,-7.47035],[110.29322,-7.47022],[110.29347,-7.47019],[110.29355,-7.47025],[110.29369,-7.47027],[110.29386,-7.4703],[110.29397,-7.47001],[110.29423,-7.46982],[110.29422,-7.46973],[110.29421,-7.46956],[110.29413,-7.46947],[110.29394,-7.46938],[110.29397,-7.46929],[110.29399,-7.46898],[110.29428,-7.46864],[110.29454,-7.46833],[110.29458,-7.4683],[110.29479,-7.4681],[110.29484,-7.46804],[110.29497,-7.46793],[110.29525,-7.46768],[110.29528,-7.46765],[110.29561,-7.46736],[110.29567,-7.46729],[110.2957,-7.46725],[110.29601,-7.46629],[110.29614,-7.46612],[110.29645,-7.46576],[110.29674,-7.46552],[110.29715,-7.46523],[110.29719,-7.46521],[110.29723,-7.46477],[110.29713,-7.46341],[110.29674,-7.46222],[110.29647,-7.46233],[110.29638,-7.46202],[110.29618,-7.46188],[110.29588,-7.46175],[110.29601,-7.45953],[110.29656,-7.4595],[110.29731,-7.45934],[110.29765,-7.45925],[110.29767,-7.45925],[110.29787,-7.45921],[110.2983,-7.45928],[110.29836,-7.45929],[110.29896,-7.45927],[110.29888,-7.45738],[110.29888,-7.45712],[110.29905,-7.45603],[110.29919,-7.45606],[110.29953,-7.45614],[110.29989,-7.45628],[110.2999,-7.45629],[110.30034,-7.45643],[110.30036,-7.45644],[110.30073,-7.45652],[110.30097,-7.45667],[110.30118,-7.45667],[110.3014,-7.45645],[110.30151,-7.45628],[110.30175,-7.45609],[110.30176,-7.45608],[110.30197,-7.45591],[110.30199,-7.45589],[110.3023,-7.45573],[110.30259,-7.45551],[110.30276,-7.45521],[110.30276,-7.45438],[110.30326,-7.45416],[110.30329,-7.45415],[110.30357,-7.45352],[110.30363,-7.4534],[110.30371,-7.45327],[110.30375,-7.45319],[110.30386,-7.45296],[110.30396,-7.45282],[110.30418,-7.45251],[110.3043,-7.45226],[110.3045,-7.45193],[110.30468,-7.45168],[110.30516,-7.45108],[110.30519,-7.45105],[110.30582,-7.4506],[110.30591,-7.45051],[110.30594,-7.45046],[110.30596,-7.45047],[110.30672,-7.45091],[110.3068,-7.45081],[110.30704,-7.45063],[110.30713,-7.45055],[110.30717,-7.45051],[110.30781,-7.44962],[110.30812,-7.44948],[110.30871,-7.44922],[110.30933,-7.44872],[110.30956,-7.44844],[110.30967,-7.44849],[110.30971,-7.44851],[110.30996,-7.4486],[110.31008,-7.44862],[110.31019,-7.44866],[110.31032,-7.44871],[110.31057,-7.44861],[110.3109,-7.44866],[110.31102,-7.44832],[110.31105,-7.44804],[110.31106,-7.44792],[110.3111,-7.4477],[110.31119,-7.44737],[110.3113,-7.4472],[110.31169,-7.44695],[110.31214,-7.44677],[110.31244,-7.44643],[110.31245,-7.44643],[110.31267,-7.44621],[110.31306,-7.44642],[110.31323,-7.44651],[110.31346,-7.44665],[110.31347,-7.44665],[110.31364,-7.4467],[110.31392,-7.44677],[110.31434,-7.44679],[110.31465,-7.44673],[110.31485,-7.44669],[110.31494,-7.44667],[110.31495,-7.44667],[110.3151,-7.44664],[110.31544,-7.44671],[110.31583,-7.44676],[110.31611,-7.44676],[110.31643,-7.44692],[110.31682,-7.44719],[110.31716,-7.44718],[110.3175,-7.44687],[110.31758,-7.44668],[110.31753,-7.44652],[110.31739,-7.44637],[110.31732,-7.44633],[110.31716,-7.44635],[110.31707,-7.44624],[110.31704,-7.44613],[110.31705,-7.44601],[110.31693,-7.44577],[110.31634,-7.44487],[110.3158,-7.44491],[110.31562,-7.44493],[110.31557,-7.44493],[110.31523,-7.44488],[110.31484,-7.44482],[110.3143,-7.44473],[110.31404,-7.44469],[110.31394,-7.44468],[110.31349,-7.4445],[110.31333,-7.44443],[110.31319,-7.4443],[110.31319,-7.44429],[110.31314,-7.44409],[110.31311,-7.44398],[110.3131,-7.4438],[110.31311,-7.44366],[110.31315,-7.44353],[110.31316,-7.44346],[110.31323,-7.44339],[110.31331,-7.44332],[110.31339,-7.44326],[110.31343,-7.4432],[110.31346,-7.44313],[110.31347,-7.44305],[110.31347,-7.443],[110.31359,-7.44308],[110.31376,-7.4432],[110.314,-7.44322],[110.31427,-7.4431],[110.31439,-7.44295],[110.31467,-7.44272],[110.31479,-7.44268],[110.31498,-7.44265],[110.3154,-7.44266],[110.31567,-7.44262],[110.31571,-7.44262],[110.31592,-7.44249],[110.31608,-7.44242],[110.31609,-7.44241],[110.31628,-7.44229],[110.31633,-7.44219],[110.31646,-7.44199],[110.3167,-7.44186],[110.31689,-7.44178],[110.31711,-7.44179],[110.3173,-7.44174],[110.31731,-7.44174],[110.31739,-7.4417],[110.3175,-7.44164],[110.31777,-7.44153],[110.31759,-7.44123],[110.3171,-7.44111],[110.31691,-7.44084],[110.31691,-7.44072],[110.31689,-7.4407],[110.3169,-7.44058],[110.31689,-7.44055],[110.31692,-7.44052],[110.31696,-7.44047],[110.31696,-7.44039],[110.31695,-7.44034],[110.3169,-7.44035],[110.3169,-7.44022],[110.31687,-7.44012],[110.31682,-7.44008],[110.31675,-7.44006],[110.31671,-7.44004],[110.31678,-7.43989],[110.31675,-7.43965],[110.31689,-7.43969],[110.31695,-7.43966],[110.31688,-7.43954],[110.31683,-7.43937],[110.31685,-7.43925],[110.31684,-7.43919],[110.31685,-7.43913],[110.31692,-7.43906],[110.31697,-7.43899],[110.31703,-7.43889],[110.31703,-7.43882],[110.31706,-7.43877],[110.31708,-7.4386],[110.31714,-7.43853],[110.31741,-7.43852],[110.31752,-7.4387],[110.31778,-7.43877],[110.31785,-7.43866],[110.31788,-7.43854],[110.31816,-7.43859],[110.31827,-7.43861],[110.31839,-7.43854],[110.31855,-7.43847],[110.31881,-7.43848],[110.31902,-7.43845],[110.31925,-7.43845],[110.31919,-7.43806],[110.31919,-7.43769],[110.31911,-7.4373],[110.31922,-7.43709],[110.31938,-7.43661],[110.31907,-7.4363],[110.31911,-7.43605],[110.31876,-7.43581],[110.3184,-7.43562],[110.31797,-7.43554],[110.31802,-7.43519],[110.31809,-7.43514],[110.31812,-7.43508],[110.31812,-7.43496],[110.31802,-7.43492],[110.31802,-7.43477],[110.31793,-7.43474],[110.31785,-7.43469],[110.31767,-7.43444],[110.31749,-7.43418],[110.31741,-7.43415],[110.31741,-7.43409],[110.31745,-7.43395],[110.31747,-7.43389],[110.31751,-7.43382],[110.31755,-7.43373],[110.31755,-7.43363],[110.3176,-7.43353],[110.31766,-7.43343],[110.31773,-7.43329],[110.31784,-7.43308],[110.31757,-7.43299],[110.31743,-7.43294],[110.31752,-7.43251],[110.31746,-7.43223],[110.31745,-7.43206],[110.31746,-7.43186],[110.31745,-7.43186],[110.31695,-7.43207],[110.31667,-7.43218],[110.31611,-7.43245],[110.31529,-7.43268],[110.31437,-7.43297],[110.31426,-7.433],[110.314,-7.433],[110.31366,-7.43281],[110.31365,-7.43281],[110.3134,-7.43274],[110.31335,-7.43273],[110.31334,-7.43273],[110.31315,-7.43281],[110.31308,-7.43284],[110.31307,-7.43285],[110.31283,-7.43324],[110.31279,-7.4333],[110.31265,-7.43333],[110.3125,-7.43337],[110.31246,-7.43337],[110.31212,-7.4334],[110.31186,-7.43343],[110.31181,-7.43343],[110.31154,-7.43362],[110.31134,-7.43379],[110.31123,-7.43379],[110.31099,-7.43381],[110.31039,-7.43366],[110.31009,-7.43353],[110.30988,-7.43346],[110.30959,-7.43352],[110.30928,-7.43363],[110.30892,-7.43384],[110.30887,-7.43387],[110.30877,-7.43402],[110.30861,-7.43425],[110.30849,-7.43432],[110.30831,-7.43428],[110.30806,-7.43422],[110.30791,-7.43424],[110.30786,-7.4344],[110.30782,-7.43447],[110.30771,-7.43471],[110.30768,-7.43475],[110.30757,-7.43481],[110.30754,-7.43482],[110.30723,-7.43482],[110.30721,-7.43483],[110.30711,-7.4349],[110.30707,-7.43506],[110.30699,-7.43541],[110.30698,-7.43544],[110.30695,-7.4355],[110.30681,-7.4355],[110.30661,-7.43548],[110.30642,-7.43546],[110.30634,-7.43546],[110.30622,-7.43548],[110.30619,-7.4355],[110.30615,-7.43554],[110.30611,-7.43557],[110.3061,-7.43557],[110.30605,-7.4356],[110.30601,-7.43561],[110.30594,-7.43561],[110.30582,-7.43557],[110.30571,-7.43553],[110.30567,-7.43549],[110.30567,-7.43548],[110.30559,-7.43537],[110.30543,-7.43521],[110.30535,-7.43517],[110.30527,-7.43515],[110.30518,-7.43516],[110.30511,-7.43518],[110.30509,-7.43519],[110.30503,-7.43525],[110.30497,-7.43532],[110.30496,-7.43541],[110.30494,-7.43545],[110.30493,-7.43549],[110.30492,-7.43555],[110.3049,-7.43558],[110.30488,-7.43562],[110.30485,-7.43565],[110.3048,-7.43567],[110.30475,-7.43568],[110.30471,-7.43568],[110.30463,-7.43567],[110.30461,-7.43567],[110.30453,-7.43568],[110.30438,-7.43566],[110.30422,-7.43565],[110.30416,-7.43565],[110.3041,-7.43564],[110.30399,-7.4356],[110.3039,-7.43555],[110.30386,-7.43552],[110.30384,-7.43547],[110.30382,-7.43544],[110.30379,-7.43537],[110.30375,-7.43523],[110.30372,-7.43513],[110.30366,-7.43504],[110.30361,-7.43497],[110.30357,-7.43493],[110.30348,-7.43493],[110.30337,-7.43504],[110.30323,-7.43522],[110.30319,-7.43527],[110.30312,-7.43531],[110.30305,-7.43532],[110.30288,-7.43532],[110.30279,-7.4353],[110.30275,-7.4353],[110.30257,-7.43524],[110.30237,-7.43522],[110.3021,-7.43526],[110.30195,-7.43528],[110.30177,-7.43527],[110.30162,-7.43523],[110.30152,-7.4352],[110.30142,-7.4352],[110.30137,-7.43524],[110.30132,-7.43533],[110.30128,-7.4354],[110.30124,-7.43548],[110.30121,-7.43556],[110.30118,-7.43561],[110.30111,-7.43566],[110.30097,-7.43571],[110.30073,-7.43576],[110.3006,-7.43576],[110.30054,-7.43574],[110.30047,-7.43572],[110.30005,-7.43554],[110.29991,-7.43546],[110.29984,-7.43541],[110.29973,-7.43534],[110.29957,-7.43524],[110.29944,-7.43521],[110.29937,-7.43519],[110.2992,-7.43518],[110.29919,-7.43518],[110.299,-7.43524],[110.29894,-7.43529],[110.29883,-7.43531],[110.29877,-7.43531],[110.29863,-7.43528],[110.29847,-7.43519],[110.29819,-7.43507],[110.29802,-7.435],[110.29799,-7.43499],[110.29789,-7.43493],[110.2978,-7.4349],[110.2976,-7.43486],[110.29742,-7.43484],[110.29725,-7.43477],[110.29706,-7.43474],[110.29698,-7.43474],[110.29686,-7.43479],[110.29685,-7.4348],[110.29678,-7.43485],[110.2967,-7.43495],[110.29662,-7.43502],[110.29655,-7.43507],[110.29645,-7.43507],[110.29637,-7.43504],[110.29632,-7.43497],[110.29618,-7.43479],[110.2961,-7.43473],[110.29608,-7.43472],[110.29601,-7.43472],[110.29598,-7.43475],[110.29596,-7.43478],[110.29587,-7.43492],[110.29579,-7.43504],[110.29572,-7.43514],[110.29569,-7.43517],[110.29558,-7.43517],[110.29537,-7.43507],[110.29515,-7.43489],[110.29501,-7.43479],[110.29493,-7.43474],[110.29484,-7.43473],[110.29477,-7.43473],[110.29472,-7.43477],[110.29468,-7.43487],[110.29465,-7.43496],[110.29462,-7.43506],[110.29459,-7.43512],[110.29453,-7.43521],[110.29448,-7.43526],[110.29439,-7.43528],[110.29431,-7.43529],[110.29425,-7.43529],[110.29417,-7.43528],[110.29415,-7.43528],[110.29413,-7.43526],[110.29409,-7.43523],[110.29405,-7.43517],[110.29403,-7.43508],[110.29403,-7.43492],[110.29402,-7.43486],[110.29402,-7.43475],[110.294,-7.43468],[110.29398,-7.43462],[110.29388,-7.43454],[110.29377,-7.43455],[110.29345,-7.43455],[110.29333,-7.43454],[110.29316,-7.4345],[110.29315,-7.4345],[110.29304,-7.43446],[110.2929,-7.4344],[110.29273,-7.4343],[110.2926,-7.43421],[110.29246,-7.43414],[110.29232,-7.43412],[110.29217,-7.43414],[110.2921,-7.43419],[110.29203,-7.43423],[110.29192,-7.43432],[110.2918,-7.43442],[110.29169,-7.4345],[110.29158,-7.43455],[110.29147,-7.43459],[110.29132,-7.43463],[110.29113,-7.43465],[110.29112,-7.43465],[110.29103,-7.43464],[110.2909,-7.43462],[110.29061,-7.43462],[110.29051,-7.43461],[110.29034,-7.4346],[110.28994,-7.4346],[110.28966,-7.43459],[110.28945,-7.43457],[110.28928,-7.43455],[110.28916,-7.43451],[110.28914,-7.4345],[110.28905,-7.43447],[110.28899,-7.43442],[110.28893,-7.43434],[110.28891,-7.43428],[110.2889,-7.43424],[110.28883,-7.43403],[110.28876,-7.43388],[110.28873,-7.43383],[110.28868,-7.43381],[110.28858,-7.43381],[110.28846,-7.43384],[110.28836,-7.4339],[110.28826,-7.43393],[110.28818,-7.43395],[110.28808,-7.43395],[110.28795,-7.43392],[110.28788,-7.43391],[110.2878,-7.43391],[110.28768,-7.43392],[110.28736,-7.434],[110.28735,-7.43401],[110.28726,-7.43407],[110.28722,-7.43409],[110.28713,-7.43414],[110.28707,-7.43417],[110.28702,-7.43418],[110.28696,-7.43417],[110.28687,-7.43413],[110.2868,-7.43409],[110.28668,-7.43402],[110.28657,-7.43397],[110.28655,-7.43396],[110.28643,-7.43391],[110.2863,-7.43383],[110.28625,-7.43377],[110.28624,-7.43375],[110.2861,-7.43361],[110.286,-7.43357],[110.2859,-7.43356],[110.28565,-7.43353],[110.28549,-7.43348],[110.2854,-7.43343],[110.28537,-7.43341],[110.28533,-7.43337],[110.28529,-7.43322],[110.28527,-7.43317],[110.28524,-7.43304],[110.28521,-7.43296],[110.28507,-7.4329],[110.28488,-7.43292],[110.28462,-7.433],[110.28447,-7.43304],[110.28444,-7.43304],[110.28433,-7.43306],[110.28424,-7.43302],[110.28411,-7.43276],[110.28399,-7.43249],[110.28381,-7.4322],[110.2837,-7.432],[110.28361,-7.43183],[110.28355,-7.43167],[110.28349,-7.4314],[110.28346,-7.43127],[110.28341,-7.43114],[110.28334,-7.43102],[110.28327,-7.43091],[110.28317,-7.4308],[110.283,-7.43071],[110.28293,-7.43064],[110.28292,-7.43061],[110.28293,-7.43053],[110.28296,-7.43047],[110.28301,-7.43041],[110.28305,-7.43036],[110.28314,-7.43021],[110.28315,-7.43014],[110.28314,-7.43007],[110.28311,-7.43001],[110.28306,-7.42997],[110.28289,-7.42989],[110.28263,-7.42977],[110.28254,-7.42972],[110.28248,-7.42968],[110.28234,-7.42956],[110.2823,-7.42948],[110.28227,-7.42943],[110.28224,-7.42936],[110.28216,-7.4292],[110.28214,-7.4291],[110.28214,-7.42905],[110.28215,-7.42901],[110.28207,-7.42901],[110.28203,-7.429],[110.28196,-7.42901],[110.28186,-7.42901],[110.28171,-7.42899],[110.28161,-7.42897],[110.28152,-7.42893],[110.28145,-7.4289],[110.28116,-7.42879],[110.2811,-7.42878],[110.28083,-7.42869],[110.28072,-7.42864],[110.28068,-7.42862],[110.28059,-7.42857],[110.28044,-7.42852],[110.28023,-7.42844],[110.28018,-7.42841],[110.28008,-7.42836],[110.28001,-7.42832],[110.27996,-7.42829],[110.27994,-7.42829],[110.27992,-7.42828],[110.27962,-7.4281],[110.27956,-7.42806],[110.27949,-7.42802],[110.27937,-7.42794],[110.27922,-7.42785],[110.27906,-7.42779],[110.27899,-7.42777],[110.27893,-7.42776],[110.27877,-7.42774],[110.27873,-7.42775],[110.2787,-7.42775],[110.27867,-7.42777],[110.27847,-7.42788],[110.27844,-7.4279],[110.27839,-7.42795],[110.27821,-7.42809],[110.27816,-7.42813],[110.27811,-7.4282],[110.27811,-7.42821],[110.27803,-7.42828],[110.27792,-7.42835],[110.27789,-7.42836],[110.27784,-7.42836],[110.27782,-7.42835],[110.27779,-7.42834],[110.27778,-7.42833],[110.27776,-7.42832],[110.27773,-7.4283],[110.27772,-7.42829],[110.27748,-7.42811],[110.27738,-7.42804],[110.27729,-7.42797],[110.27715,-7.4279],[110.27709,-7.42788],[110.27703,-7.42787],[110.277,-7.42786],[110.27687,-7.42786],[110.27677,-7.42787],[110.27674,-7.42789],[110.27665,-7.42794],[110.27655,-7.42801],[110.2765,-7.42807],[110.27645,-7.42812],[110.27643,-7.42815],[110.27643,-7.42816],[110.27642,-7.42819],[110.27641,-7.42824],[110.27633,-7.42838],[110.27627,-7.42849],[110.27611,-7.42876],[110.27593,-7.42901],[110.27589,-7.42904],[110.27586,-7.42906],[110.2758,-7.42909],[110.27556,-7.42915],[110.27546,-7.42917],[110.27514,-7.42917],[110.27505,-7.42914],[110.27483,-7.42903],[110.27476,-7.42896],[110.27474,-7.42893],[110.27473,-7.42892],[110.27472,-7.42889],[110.27471,-7.42884],[110.2747,-7.42882],[110.27469,-7.42878],[110.27469,-7.42873],[110.27468,-7.42869],[110.27466,-7.42864],[110.27463,-7.42862],[110.27448,-7.42853],[110.27447,-7.42852],[110.27444,-7.42851],[110.27429,-7.42845],[110.27422,-7.42843],[110.27414,-7.42842],[110.27392,-7.42842],[110.27342,-7.42841],[110.27323,-7.42842],[110.27301,-7.42842],[110.27266,-7.42843],[110.27258,-7.42844],[110.27238,-7.42844],[110.27184,-7.42843],[110.2717,-7.42843],[110.27133,-7.42853],[110.2713,-7.42854],[110.27121,-7.4286],[110.27102,-7.42873],[110.27085,-7.4288],[110.2708,-7.42874],[110.27079,-7.42873],[110.27071,-7.42878],[110.27049,-7.42892],[110.27043,-7.42896],[110.27035,-7.42902],[110.27031,-7.42906],[110.27016,-7.42925],[110.27015,-7.42926],[110.27015,-7.42927],[110.27013,-7.42928],[110.27009,-7.42933],[110.27006,-7.42936],[110.27001,-7.4294],[110.26978,-7.42954],[110.26977,-7.42954],[110.26975,-7.42955],[110.26972,-7.42956],[110.26967,-7.42958],[110.26963,-7.42959],[110.2696,-7.42959],[110.26956,-7.4296],[110.2695,-7.4296],[110.26895,-7.42953],[110.26888,-7.42952],[110.26878,-7.42951],[110.26873,-7.42952],[110.26867,-7.42953],[110.26863,-7.42955],[110.26858,-7.42957],[110.26852,-7.42961],[110.26847,-7.42964],[110.26845,-7.42967],[110.26842,-7.42973],[110.26841,-7.42978],[110.26841,-7.42983],[110.26842,-7.42987],[110.26845,-7.42991],[110.26847,-7.42993],[110.26849,-7.42996],[110.26851,-7.42998],[110.26852,-7.43002],[110.26853,-7.43005],[110.26854,-7.43009],[110.26854,-7.43034],[110.26853,-7.4304],[110.26852,-7.43043],[110.26851,-7.43045],[110.26851,-7.43047],[110.26848,-7.43052],[110.26844,-7.4306],[110.26838,-7.43066],[110.26835,-7.43067],[110.26831,-7.43069],[110.26809,-7.43069],[110.26799,-7.43067],[110.26781,-7.43062],[110.26736,-7.43044],[110.26729,-7.43042],[110.26725,-7.43041],[110.26716,-7.43041],[110.26713,-7.43042],[110.26708,-7.43046],[110.26702,-7.43051],[110.26691,-7.43066],[110.26687,-7.43071],[110.26682,-7.43078],[110.2668,-7.4308],[110.26678,-7.43084],[110.26675,-7.43093],[110.26675,-7.43099],[110.26676,-7.43099],[110.26676,-7.43127],[110.26672,-7.43133],[110.2667,-7.43137],[110.26647,-7.43154],[110.26645,-7.43155],[110.26638,-7.4316],[110.26629,-7.43167],[110.26624,-7.43172],[110.26618,-7.43175],[110.26614,-7.43176],[110.26608,-7.43177],[110.26601,-7.43178],[110.26576,-7.43178],[110.26567,-7.43176],[110.26562,-7.43175],[110.26544,-7.43175],[110.26538,-7.43176],[110.26533,-7.43178],[110.26529,-7.4318],[110.26526,-7.43182],[110.26523,-7.43186],[110.2652,-7.43189],[110.26519,-7.43191],[110.26519,-7.43192],[110.26518,-7.43193],[110.26516,-7.43198],[110.26515,-7.43202],[110.26514,-7.43209],[110.26513,-7.43219],[110.26513,-7.43221],[110.26512,-7.43226],[110.26513,-7.43234],[110.26515,-7.43242],[110.26516,-7.43251],[110.26517,-7.43257],[110.26517,-7.43263],[110.26516,-7.43267],[110.26516,-7.43277],[110.26509,-7.43299],[110.26507,-7.43304],[110.26506,-7.43306],[110.26505,-7.43309],[110.26504,-7.43314],[110.265,-7.43316],[110.26494,-7.43313],[110.26476,-7.43313],[110.2647,-7.43314],[110.26462,-7.43316],[110.26456,-7.43318],[110.26438,-7.43327],[110.26436,-7.43329],[110.26428,-7.43332],[110.26416,-7.43338],[110.26404,-7.43346],[110.26396,-7.43352],[110.26385,-7.43359],[110.26377,-7.43364],[110.26363,-7.43378],[110.26357,-7.43386],[110.26351,-7.43396],[110.2635,-7.43398],[110.26343,-7.43407],[110.26337,-7.43414],[110.26333,-7.43419],[110.2633,-7.43422],[110.26328,-7.43425],[110.26326,-7.43427],[110.26321,-7.43429],[110.26315,-7.43431],[110.26312,-7.43433],[110.2631,-7.43434],[110.26305,-7.43437],[110.26285,-7.43447],[110.26278,-7.43451],[110.26248,-7.43466],[110.26243,-7.43469],[110.26238,-7.4347],[110.26235,-7.4347],[110.26234,-7.43471],[110.26226,-7.43471],[110.26219,-7.43469],[110.26218,-7.43468],[110.26214,-7.43466],[110.26211,-7.43464],[110.26205,-7.43458],[110.26203,-7.43451],[110.26202,-7.43442],[110.26204,-7.4342],[110.26208,-7.4341],[110.26211,-7.43403],[110.26212,-7.43403],[110.26212,-7.43402],[110.26217,-7.43392],[110.2622,-7.43385],[110.26221,-7.43381],[110.26221,-7.43376],[110.26222,-7.43371],[110.26221,-7.43368],[110.26221,-7.43366],[110.2622,-7.43363],[110.26208,-7.43348],[110.26199,-7.43335],[110.26196,-7.43332],[110.26193,-7.43328],[110.26188,-7.43325],[110.26183,-7.43321],[110.26178,-7.43319],[110.26163,-7.43307],[110.26133,-7.43284],[110.26125,-7.43279],[110.26119,-7.43276],[110.26112,-7.43272],[110.26104,-7.43268],[110.26096,-7.43265],[110.26088,-7.43263],[110.26083,-7.43261],[110.26021,-7.43239],[110.26012,-7.43235],[110.26002,-7.43232],[110.25999,-7.43231],[110.25989,-7.43228],[110.25978,-7.43224],[110.25904,-7.43203],[110.25877,-7.43196],[110.25864,-7.43193],[110.25853,-7.43191],[110.25843,-7.43191],[110.25831,-7.4319],[110.25824,-7.43189],[110.25816,-7.43188],[110.25781,-7.43181],[110.25773,-7.4318],[110.25767,-7.43179],[110.25755,-7.43179],[110.2575,-7.43181],[110.25735,-7.4319],[110.25729,-7.43193],[110.25725,-7.43196],[110.25722,-7.43199],[110.25719,-7.43203],[110.25718,-7.43207],[110.25717,-7.43221],[110.25718,-7.43227],[110.25719,-7.43231],[110.2572,-7.43232],[110.25721,-7.43236],[110.25724,-7.43241],[110.25733,-7.4325],[110.25739,-7.43254],[110.25744,-7.43258],[110.25751,-7.43262],[110.2576,-7.43265],[110.25766,-7.43268],[110.25767,-7.43268],[110.25769,-7.43269],[110.2578,-7.43272],[110.25787,-7.43275],[110.2579,-7.43276],[110.25807,-7.43289],[110.25812,-7.43296],[110.25813,-7.43299],[110.25814,-7.43304],[110.25816,-7.43316],[110.25819,-7.43325],[110.25822,-7.43331],[110.25824,-7.43337],[110.25826,-7.43345],[110.25828,-7.4335],[110.25831,-7.43357],[110.25844,-7.43391],[110.25844,-7.4341],[110.2584,-7.43453],[110.25838,-7.43458],[110.25836,-7.43464],[110.25833,-7.4347],[110.2583,-7.43477],[110.25809,-7.43514],[110.25803,-7.43523],[110.25798,-7.43528],[110.25797,-7.43528],[110.25797,-7.43529],[110.25792,-7.43534],[110.25787,-7.4354],[110.25783,-7.43545],[110.2578,-7.4355],[110.25778,-7.43558],[110.25777,-7.43568],[110.25778,-7.43573],[110.2578,-7.43582],[110.25784,-7.43593],[110.25787,-7.436],[110.25795,-7.43617],[110.258,-7.43628],[110.25803,-7.43637],[110.25807,-7.43646],[110.25811,-7.43656],[110.25812,-7.43659],[110.25818,-7.43672],[110.25822,-7.4368],[110.25822,-7.4369],[110.2582,-7.43695],[110.25816,-7.43699],[110.25812,-7.43704],[110.25806,-7.43708],[110.25801,-7.43711],[110.25797,-7.43711],[110.25797,-7.43712],[110.25784,-7.43712],[110.25772,-7.43714],[110.25738,-7.43718],[110.25726,-7.43718],[110.25705,-7.43719],[110.25699,-7.43721],[110.25695,-7.43722],[110.25691,-7.43725],[110.25688,-7.43727],[110.25684,-7.43732],[110.25681,-7.43738],[110.25679,-7.43743],[110.25678,-7.43749],[110.25673,-7.4378],[110.25667,-7.43792],[110.25664,-7.43796],[110.25661,-7.43802],[110.25659,-7.43805],[110.25656,-7.43809],[110.2565,-7.43813],[110.25646,-7.43815],[110.25641,-7.43816],[110.25632,-7.43816],[110.25629,-7.43815],[110.25625,-7.43815],[110.25622,-7.43813],[110.25593,-7.43793],[110.25587,-7.43788],[110.25583,-7.43783],[110.25579,-7.43774],[110.25574,-7.43764],[110.25557,-7.43727],[110.25553,-7.4372],[110.25548,-7.43709],[110.25544,-7.43703],[110.25535,-7.43688],[110.25531,-7.43683],[110.25526,-7.43677],[110.25522,-7.43673],[110.25517,-7.43667],[110.25512,-7.43662],[110.25508,-7.43657],[110.25504,-7.43653],[110.255,-7.4365],[110.25486,-7.43642],[110.25472,-7.43638],[110.25464,-7.43636],[110.25448,-7.43636],[110.25441,-7.43637],[110.25418,-7.43638],[110.25408,-7.43639],[110.25391,-7.43639],[110.25383,-7.43636],[110.25374,-7.43633],[110.25368,-7.4363],[110.2532,-7.43609],[110.25311,-7.43604],[110.25299,-7.43597],[110.25292,-7.43592],[110.25291,-7.43592],[110.25289,-7.4359],[110.25281,-7.43585],[110.25274,-7.4358],[110.25267,-7.43576],[110.25262,-7.43573],[110.25258,-7.43572],[110.25239,-7.43572],[110.25233,-7.43573],[110.25227,-7.43575],[110.25219,-7.43578],[110.25218,-7.43578],[110.2521,-7.43581],[110.25206,-7.43583],[110.25197,-7.43588],[110.25194,-7.43593],[110.2519,-7.436],[110.25188,-7.43603],[110.25187,-7.43605],[110.25181,-7.43614],[110.25173,-7.43641],[110.25168,-7.43658],[110.25161,-7.43674],[110.2516,-7.43676],[110.25155,-7.43692],[110.25146,-7.43714],[110.25142,-7.43726],[110.25142,-7.4373],[110.25141,-7.43737],[110.25141,-7.43745],[110.25142,-7.43752],[110.25142,-7.43762],[110.2514,-7.43771],[110.25137,-7.43785],[110.25131,-7.43801],[110.25129,-7.43805],[110.25125,-7.4382],[110.25125,-7.43825],[110.25124,-7.43828],[110.25122,-7.43837],[110.25121,-7.43845],[110.25118,-7.43853],[110.25114,-7.43862],[110.25112,-7.43868],[110.25108,-7.43879],[110.25106,-7.43882],[110.25089,-7.43911],[110.25082,-7.4392],[110.25074,-7.43933],[110.25068,-7.43945],[110.25052,-7.43971],[110.25051,-7.43973],[110.25051,-7.43974],[110.25049,-7.43976],[110.25048,-7.43981],[110.25047,-7.43985],[110.25047,-7.43989],[110.25048,-7.43993],[110.25049,-7.43994],[110.25051,-7.43997],[110.25057,-7.44003],[110.25058,-7.44007],[110.25058,-7.44018],[110.25056,-7.44023],[110.25055,-7.44028],[110.25054,-7.44029],[110.25043,-7.44062],[110.25039,-7.4407],[110.25034,-7.44082],[110.25017,-7.44121],[110.25008,-7.44142],[110.25004,-7.44153],[110.24987,-7.44205],[110.24982,-7.44217],[110.24975,-7.44234],[110.24974,-7.44237],[110.24969,-7.44248],[110.24964,-7.44256],[110.2496,-7.44262],[110.24955,-7.4427],[110.2495,-7.44275],[110.24943,-7.44281],[110.24939,-7.44285],[110.24924,-7.44302],[110.24915,-7.44314],[110.24914,-7.44315],[110.24909,-7.44319],[110.249,-7.44327],[110.24892,-7.44334],[110.24888,-7.44339],[110.24884,-7.44341],[110.24877,-7.44345],[110.24867,-7.4435],[110.24866,-7.4435],[110.24803,-7.44378],[110.24791,-7.44383],[110.2478,-7.44389],[110.24769,-7.44394],[110.24759,-7.444],[110.24735,-7.44418],[110.24733,-7.4442],[110.24726,-7.44426],[110.24724,-7.44427],[110.24719,-7.44433],[110.24707,-7.44448],[110.24704,-7.44452],[110.24695,-7.44459],[110.24692,-7.44461],[110.24688,-7.44464],[110.2468,-7.44468],[110.24675,-7.4447],[110.24669,-7.44472],[110.24629,-7.44482],[110.24627,-7.44482],[110.24618,-7.44483],[110.24616,-7.44484],[110.24606,-7.44484],[110.24592,-7.44485],[110.24555,-7.4449],[110.24548,-7.44491],[110.2453,-7.44496],[110.2451,-7.44499],[110.24507,-7.44499],[110.24497,-7.44501],[110.24495,-7.44501],[110.24482,-7.44506],[110.24469,-7.44509],[110.2446,-7.44511],[110.24449,-7.44512],[110.24439,-7.44513],[110.24403,-7.44512],[110.2439,-7.44511],[110.24381,-7.44508],[110.24373,-7.44504],[110.24358,-7.44495],[110.2435,-7.4449],[110.24347,-7.44486],[110.24346,-7.44486],[110.24339,-7.44479],[110.24322,-7.44468],[110.24316,-7.44465],[110.24311,-7.44464],[110.24301,-7.44464],[110.24295,-7.44466],[110.24285,-7.44468],[110.24272,-7.44472],[110.24257,-7.44478],[110.24253,-7.44479],[110.24252,-7.4448],[110.24239,-7.44487],[110.24213,-7.44502],[110.24213,-7.44503],[110.24181,-7.44526],[110.24172,-7.44532],[110.24138,-7.44552],[110.24128,-7.44557],[110.24123,-7.4456],[110.24119,-7.44562],[110.24115,-7.44565],[110.24112,-7.44568],[110.24106,-7.44572],[110.24101,-7.44575],[110.24096,-7.4458],[110.24092,-7.44583],[110.24087,-7.44587],[110.24085,-7.44589],[110.24082,-7.44593],[110.24078,-7.44598],[110.24072,-7.4461],[110.2407,-7.44615],[110.24068,-7.44622],[110.24066,-7.44628],[110.24065,-7.44634],[110.24065,-7.44648],[110.24066,-7.44679],[110.24071,-7.44693],[110.24071,-7.44696],[110.24069,-7.44709],[110.24068,-7.44719],[110.24066,-7.44729],[110.24065,-7.44736],[110.24063,-7.44742],[110.24063,-7.44743],[110.24059,-7.44752],[110.24058,-7.44755],[110.24055,-7.4476],[110.24052,-7.44766],[110.24046,-7.44774],[110.24036,-7.4478],[110.2403,-7.44782],[110.24017,-7.44782],[110.24012,-7.44781],[110.24006,-7.4478],[110.24004,-7.4478],[110.23996,-7.44778],[110.23982,-7.44776],[110.23976,-7.44777],[110.23967,-7.44778],[110.23959,-7.4478],[110.2394,-7.44784],[110.23933,-7.44784],[110.23926,-7.44783],[110.23913,-7.4478],[110.23898,-7.44775],[110.23897,-7.44775],[110.23892,-7.44773],[110.23882,-7.44768],[110.23875,-7.44765],[110.23869,-7.44763],[110.23865,-7.44762],[110.2386,-7.44761],[110.23855,-7.44762],[110.2385,-7.44764],[110.23827,-7.44776],[110.23816,-7.44779],[110.2379,-7.4474],[110.23787,-7.4473],[110.23785,-7.44717],[110.2378,-7.44713],[110.2377,-7.44712],[110.23751,-7.44717],[110.23744,-7.44706],[110.23737,-7.44711],[110.2372,-7.44719],[110.23712,-7.44724],[110.23712,-7.44728],[110.23702,-7.44741],[110.23688,-7.44755],[110.23675,-7.44772],[110.23657,-7.44797],[110.2365,-7.44815],[110.23642,-7.44825],[110.23624,-7.4484],[110.23609,-7.44854],[110.23594,-7.44873],[110.23537,-7.44814],[110.23503,-7.44828],[110.23474,-7.4484],[110.23487,-7.44875],[110.23477,-7.44879],[110.23479,-7.4489],[110.23494,-7.44887],[110.23498,-7.44896],[110.23524,-7.44999],[110.2351,-7.45006],[110.23504,-7.4501],[110.23495,-7.4502],[110.23494,-7.45023],[110.23492,-7.45035],[110.2349,-7.45045],[110.23476,-7.45061],[110.23475,-7.45066],[110.23471,-7.4507],[110.23466,-7.45082],[110.23462,-7.4509],[110.23454,-7.45095],[110.23447,-7.45099],[110.23443,-7.45103],[110.23442,-7.45108],[110.23443,-7.45116],[110.23445,-7.45129],[110.23446,-7.4514],[110.2344,-7.45148],[110.23442,-7.45151],[110.23436,-7.45154],[110.2343,-7.45167],[110.23438,-7.45172],[110.23432,-7.45173],[110.23425,-7.45178],[110.23422,-7.45183],[110.23423,-7.45188],[110.23428,-7.45192],[110.23431,-7.45196],[110.23403,-7.45199],[110.23375,-7.45208],[110.23354,-7.45225],[110.23349,-7.45239],[110.23338,-7.45257],[110.23304,-7.45273],[110.23286,-7.45284],[110.23273,-7.45292],[110.23271,-7.45299],[110.23282,-7.45335],[110.23284,-7.45351],[110.23284,-7.45362],[110.23264,-7.45377],[110.23254,-7.45385],[110.23247,-7.45397],[110.23241,-7.45445],[110.23237,-7.4546],[110.23229,-7.45464],[110.23197,-7.4547],[110.23182,-7.45476],[110.23175,-7.45484],[110.23179,-7.45495],[110.23186,-7.45506],[110.23178,-7.4552],[110.23173,-7.45548],[110.23175,-7.45563],[110.23183,-7.45579],[110.23187,-7.45595],[110.23187,-7.45611],[110.23179,-7.45638],[110.23185,-7.45654],[110.23194,-7.45662],[110.23215,-7.45667],[110.23213,-7.45681],[110.23211,-7.45703],[110.23208,-7.45739],[110.23206,-7.45748],[110.23205,-7.45755],[110.23204,-7.45764],[110.23203,-7.45765],[110.23203,-7.4577],[110.23201,-7.45777],[110.232,-7.45784],[110.23198,-7.45789],[110.23198,-7.45793],[110.23196,-7.45796],[110.23195,-7.45798],[110.23193,-7.45799],[110.2319,-7.458],[110.23186,-7.458],[110.23145,-7.45796],[110.23135,-7.45793],[110.23126,-7.45791],[110.23117,-7.45787],[110.23111,-7.45784],[110.23106,-7.45783],[110.23103,-7.45782],[110.231,-7.45782],[110.23098,-7.45783],[110.23095,-7.45784],[110.23092,-7.45786],[110.2309,-7.45789],[110.23084,-7.45799],[110.23084,-7.45848],[110.23085,-7.45879],[110.23085,-7.45897],[110.23086,-7.45901],[110.23088,-7.45904],[110.23091,-7.45906],[110.23094,-7.45907],[110.23099,-7.45908],[110.23109,-7.45907],[110.23144,-7.45898],[110.23152,-7.45896],[110.23161,-7.45894],[110.23168,-7.45893],[110.23177,-7.45894],[110.23181,-7.45896],[110.23184,-7.45898],[110.23189,-7.45901],[110.23192,-7.45904],[110.23195,-7.45909],[110.23198,-7.45916],[110.23201,-7.45926],[110.23205,-7.45938],[110.23206,-7.45944],[110.23206,-7.45951],[110.23207,-7.45962],[110.23207,-7.45974],[110.23208,-7.45986],[110.23208,-7.46019],[110.23209,-7.46027],[110.2321,-7.46036],[110.23212,-7.46046],[110.23211,-7.46068],[110.2321,-7.46075],[110.23208,-7.4608],[110.23206,-7.46086],[110.23204,-7.4609],[110.23201,-7.46092],[110.23197,-7.46093],[110.23191,-7.46092],[110.23165,-7.46086],[110.23163,-7.46086],[110.23134,-7.46079],[110.23124,-7.46078],[110.23118,-7.46077],[110.23113,-7.46077],[110.23111,-7.46078],[110.23103,-7.46083],[110.23102,-7.46084],[110.23099,-7.4609],[110.23098,-7.46095],[110.23098,-7.46105],[110.231,-7.4611],[110.23103,-7.46117],[110.23107,-7.46124],[110.23115,-7.46131],[110.23116,-7.46132],[110.23129,-7.46144],[110.23141,-7.46153],[110.23151,-7.4616],[110.23175,-7.46172],[110.23181,-7.46174],[110.23182,-7.46174],[110.23185,-7.46175],[110.23193,-7.46177],[110.23195,-7.46177],[110.2321,-7.46182],[110.23216,-7.46185],[110.2322,-7.46188],[110.23225,-7.46191],[110.23229,-7.46194],[110.23232,-7.46197],[110.23235,-7.46202],[110.23237,-7.46206],[110.23238,-7.46212],[110.23238,-7.46231],[110.23237,-7.4624],[110.23236,-7.46244],[110.23233,-7.46249],[110.23231,-7.46252],[110.23229,-7.46254],[110.23223,-7.46259],[110.23212,-7.46269],[110.23211,-7.4627],[110.23199,-7.46281],[110.23196,-7.46285],[110.23194,-7.46286],[110.2319,-7.46292],[110.23189,-7.46293],[110.23184,-7.46301],[110.23179,-7.46308],[110.23171,-7.46316],[110.2317,-7.46316],[110.23169,-7.46317],[110.23161,-7.46323],[110.2314,-7.46302],[110.23128,-7.46284],[110.23114,-7.46272],[110.23097,-7.46264],[110.23082,-7.46265],[110.23072,-7.46271],[110.23065,-7.46282],[110.23065,-7.46298],[110.23085,-7.46347],[110.23106,-7.46369],[110.23131,-7.46382],[110.23131,-7.46395],[110.23132,-7.46402],[110.23131,-7.46411],[110.23131,-7.46412],[110.23126,-7.4642],[110.23122,-7.46421],[110.2312,-7.46422],[110.23117,-7.46421],[110.23106,-7.46413],[110.23089,-7.46401],[110.23086,-7.46397],[110.23084,-7.46392],[110.23083,-7.46391],[110.23067,-7.46363],[110.23061,-7.46357],[110.23057,-7.46352],[110.23044,-7.46345],[110.23037,-7.46345],[110.23033,-7.46346],[110.2303,-7.46348],[110.23025,-7.46352],[110.23021,-7.46358],[110.23013,-7.46371],[110.23012,-7.46375],[110.23012,-7.46381],[110.23013,-7.46383],[110.23013,-7.46385],[110.23014,-7.4639],[110.23014,-7.464],[110.23015,-7.46403],[110.23016,-7.46407],[110.23019,-7.46414],[110.23031,-7.46434],[110.23037,-7.46439],[110.23038,-7.4644],[110.23043,-7.46444],[110.23048,-7.46449],[110.23052,-7.46454],[110.23057,-7.46461],[110.23061,-7.46468],[110.23066,-7.46477],[110.2307,-7.46482],[110.23071,-7.46484],[110.23072,-7.46488],[110.23073,-7.46493],[110.23073,-7.46497],[110.23072,-7.46502],[110.23068,-7.46511],[110.23062,-7.46521],[110.23058,-7.46528],[110.23057,-7.46529],[110.23041,-7.4655],[110.23036,-7.46554],[110.23031,-7.46561],[110.23028,-7.46564],[110.23026,-7.4657],[110.23026,-7.46583],[110.23028,-7.46585],[110.23032,-7.46586],[110.23044,-7.4659],[110.23055,-7.46593],[110.23065,-7.46595],[110.23073,-7.46595],[110.23078,-7.46598],[110.23082,-7.46601],[110.23085,-7.46604],[110.23088,-7.46608],[110.23089,-7.46612],[110.2309,-7.46615],[110.2309,-7.46626],[110.23089,-7.46627],[110.23086,-7.46631],[110.23081,-7.46635],[110.23072,-7.4664],[110.2306,-7.46643],[110.23049,-7.46646],[110.23036,-7.46648],[110.2303,-7.46649],[110.23025,-7.4665],[110.23014,-7.46651],[110.22995,-7.4666],[110.22992,-7.46663],[110.2299,-7.46666]]]}}]}