{"type":"FeatureCollection","features":[{"type":"Feature","properties":{"KECAMATAN":"Tempuran"},"geometry":{"type":"Polygon","coordinates":[[[110.12912,-7.49014],[110.12913,-7.49022],[110.12917,-7.49081],[110.12931,-7.49128],[110.12943,-7.49168],[110.12955,-7.49192],[110.12973,-7.49227],[110.13,-7.49259],[110.13004,-7.49263],[110.13027,-7.49291],[110.13097,-7.49412],[110.13126,-7.49469],[110.13169,-7.49555],[110.13225,-7.49628],[110.13231,-7.49636],[110.13247,-7.49654],[110.13279,-7.49688],[110.13327,-7.4974],[110.13399,-7.49841],[110.13441,-7.49908],[110.13454,-7.49978],[110.13453,-7.49979],[110.13438,-7.49992],[110.13426,-7.5],[110.13408,-7.50011],[110.13398,-7.50018],[110.1339,-7.50025],[110.13384,-7.50036],[110.13377,-7.50068],[110.1336,-7.50124],[110.13356,-7.50146],[110.13361,-7.50175],[110.13379,-7.50228],[110.13379,-7.5026],[110.13377,-7.5027],[110.13368,-7.5028],[110.13352,-7.50287],[110.13322,-7.50293],[110.133,-7.50294],[110.13269,-7.50303],[110.13252,-7.50314],[110.13246,-7.50325],[110.13235,-7.5035],[110.1323,-7.50364],[110.13225,-7.50393],[110.1321,-7.5041],[110.13199,-7.50431],[110.13189,-7.50452],[110.13182,-7.50464],[110.13169,-7.50486],[110.13162,-7.50497],[110.13146,-7.50521],[110.13145,-7.50523],[110.13134,-7.50542],[110.13133,-7.50543],[110.13133,-7.50545],[110.13131,-7.50557],[110.13128,-7.50572],[110.13126,-7.50579],[110.13118,-7.50598],[110.13117,-7.50624],[110.13116,-7.50635],[110.13117,-7.50635],[110.1312,-7.50642],[110.13127,-7.50654],[110.13134,-7.50665],[110.13147,-7.50681],[110.13156,-7.50692],[110.13158,-7.50698],[110.13161,-7.50711],[110.13163,-7.50718],[110.13166,-7.50733],[110.13176,-7.50768],[110.13182,-7.50782],[110.13188,-7.50794],[110.13191,-7.50798],[110.13194,-7.50804],[110.13203,-7.50833],[110.13209,-7.50854],[110.13218,-7.5089],[110.13221,-7.50916],[110.1322,-7.50946],[110.13219,-7.50953],[110.13216,-7.50981],[110.13219,-7.51002],[110.13223,-7.51025],[110.13225,-7.51029],[110.13226,-7.51034],[110.13229,-7.51039],[110.13266,-7.51076],[110.1327,-7.51081],[110.13282,-7.51099],[110.13287,-7.51108],[110.13291,-7.5112],[110.13298,-7.51142],[110.13306,-7.51167],[110.13308,-7.51169],[110.13313,-7.5118],[110.13317,-7.51186],[110.13322,-7.51191],[110.13333,-7.512],[110.13346,-7.5121],[110.13356,-7.51222],[110.13363,-7.51234],[110.13368,-7.51246],[110.13369,-7.51248],[110.13375,-7.51263],[110.13383,-7.51289],[110.13388,-7.5131],[110.13391,-7.51316],[110.13396,-7.51323],[110.13401,-7.51327],[110.13414,-7.51336],[110.13422,-7.51342],[110.13439,-7.51349],[110.13448,-7.51353],[110.13458,-7.51358],[110.13466,-7.51366],[110.13481,-7.51383],[110.13482,-7.51385],[110.13491,-7.51395],[110.13495,-7.51404],[110.13498,-7.51414],[110.13502,-7.51432],[110.13507,-7.51445],[110.13512,-7.51459],[110.13526,-7.51483],[110.13535,-7.51502],[110.13541,-7.51514],[110.13549,-7.5154],[110.13551,-7.51551],[110.1355,-7.51566],[110.13549,-7.51578],[110.13546,-7.51601],[110.13545,-7.51608],[110.13544,-7.51613],[110.1354,-7.51644],[110.13538,-7.51662],[110.13539,-7.51714],[110.13541,-7.51727],[110.13544,-7.51739],[110.13548,-7.51748],[110.13553,-7.51757],[110.13556,-7.51761],[110.13562,-7.51767],[110.13566,-7.51776],[110.1357,-7.51787],[110.13571,-7.51795],[110.13574,-7.51829],[110.13576,-7.51844],[110.13591,-7.51891],[110.13597,-7.51902],[110.13601,-7.51907],[110.13603,-7.51909],[110.13617,-7.51918],[110.13637,-7.51931],[110.13642,-7.51934],[110.13648,-7.51938],[110.13677,-7.51957],[110.13683,-7.5196],[110.13683,-7.51961],[110.13681,-7.51962],[110.13674,-7.51965],[110.13656,-7.51972],[110.13648,-7.51974],[110.13642,-7.51975],[110.13634,-7.51978],[110.13625,-7.51984],[110.13615,-7.51992],[110.13608,-7.51998],[110.136,-7.52003],[110.13594,-7.52008],[110.13591,-7.52008],[110.13583,-7.5201],[110.1357,-7.52014],[110.13557,-7.52017],[110.13542,-7.5202],[110.13537,-7.52022],[110.13531,-7.52025],[110.13524,-7.52031],[110.13522,-7.52031],[110.13514,-7.52033],[110.1351,-7.52033],[110.13507,-7.52034],[110.13497,-7.52039],[110.13489,-7.52046],[110.13486,-7.52049],[110.1348,-7.52057],[110.13471,-7.5207],[110.13467,-7.52075],[110.13464,-7.52079],[110.13456,-7.52093],[110.13456,-7.52095],[110.13447,-7.52116],[110.13447,-7.52117],[110.13443,-7.52127],[110.13443,-7.52128],[110.13433,-7.52159],[110.13432,-7.52162],[110.13432,-7.52163],[110.13431,-7.52174],[110.13431,-7.52183],[110.13434,-7.52203],[110.13435,-7.52207],[110.13435,-7.5221],[110.13436,-7.52223],[110.13437,-7.52235],[110.13438,-7.52256],[110.13439,-7.52259],[110.13439,-7.52266],[110.13437,-7.52277],[110.13432,-7.52292],[110.13429,-7.52299],[110.13427,-7.52304],[110.13422,-7.52316],[110.13418,-7.52327],[110.13418,-7.52328],[110.13414,-7.52339],[110.1341,-7.52343],[110.13406,-7.52344],[110.13401,-7.52346],[110.134,-7.52346],[110.13393,-7.52347],[110.13387,-7.52348],[110.13384,-7.52351],[110.13379,-7.52359],[110.13378,-7.52361],[110.13374,-7.52367],[110.1336,-7.52391],[110.1336,-7.52392],[110.13357,-7.52396],[110.13331,-7.52436],[110.13324,-7.52448],[110.13313,-7.52464],[110.13276,-7.52521],[110.1327,-7.5253],[110.13247,-7.52571],[110.13244,-7.52576],[110.13234,-7.52594],[110.13233,-7.52596],[110.13229,-7.52612],[110.13228,-7.52629],[110.1323,-7.52644],[110.13233,-7.52654],[110.13236,-7.52662],[110.13241,-7.52668],[110.13241,-7.52669],[110.13252,-7.52681],[110.13277,-7.52706],[110.133,-7.52726],[110.13302,-7.52728],[110.13318,-7.52742],[110.13328,-7.52756],[110.13344,-7.52778],[110.13357,-7.52802],[110.13362,-7.52813],[110.13367,-7.5284],[110.1337,-7.52859],[110.13376,-7.52868],[110.13379,-7.5288],[110.13381,-7.52894],[110.13377,-7.52921],[110.13368,-7.52959],[110.13359,-7.52996],[110.13352,-7.53017],[110.13351,-7.53019],[110.1335,-7.53032],[110.1335,-7.53035],[110.13348,-7.53057],[110.13347,-7.53063],[110.13347,-7.53064],[110.13348,-7.53077],[110.13348,-7.53081],[110.13349,-7.53089],[110.1335,-7.53113],[110.1335,-7.53142],[110.13352,-7.53166],[110.13353,-7.5318],[110.13357,-7.53187],[110.13372,-7.53194],[110.13377,-7.53197],[110.13381,-7.53202],[110.13382,-7.53202],[110.13384,-7.5321],[110.13383,-7.53217],[110.13383,-7.5322],[110.13379,-7.53225],[110.1336,-7.53247],[110.13359,-7.53247],[110.13348,-7.53268],[110.13355,-7.53275],[110.13369,-7.5329],[110.13379,-7.53304],[110.13385,-7.53314],[110.13403,-7.53365],[110.1341,-7.53403],[110.13415,-7.53483],[110.13415,-7.53511],[110.13418,-7.53536],[110.13419,-7.53547],[110.13427,-7.53561],[110.13435,-7.53576],[110.13441,-7.53585],[110.13448,-7.53588],[110.13493,-7.53663],[110.13495,-7.53665],[110.13447,-7.53816],[110.13492,-7.53826],[110.13539,-7.53816],[110.13518,-7.53965],[110.13495,-7.54127],[110.13413,-7.54361],[110.13417,-7.54521],[110.13363,-7.54615],[110.1337,-7.54648],[110.13372,-7.54701],[110.13374,-7.54762],[110.13402,-7.54893],[110.13417,-7.54933],[110.13436,-7.55003],[110.13484,-7.55132],[110.13511,-7.55125],[110.13529,-7.55121],[110.13533,-7.55121],[110.13542,-7.55124],[110.13556,-7.55133],[110.13577,-7.55169],[110.13601,-7.55219],[110.13587,-7.55231],[110.13543,-7.55252],[110.13544,-7.55253],[110.13619,-7.55357],[110.13643,-7.55409],[110.13657,-7.55513],[110.13644,-7.55638],[110.13645,-7.55678],[110.13641,-7.55725],[110.1364,-7.55728],[110.1365,-7.55735],[110.13654,-7.55741],[110.1366,-7.55755],[110.13675,-7.55782],[110.13684,-7.55797],[110.13724,-7.5584],[110.13756,-7.55862],[110.13787,-7.55883],[110.13799,-7.55897],[110.1381,-7.55907],[110.13815,-7.55909],[110.13836,-7.55903],[110.13841,-7.55902],[110.13873,-7.55896],[110.13884,-7.55894],[110.13904,-7.55894],[110.13923,-7.55896],[110.13932,-7.55896],[110.13943,-7.55893],[110.13952,-7.55887],[110.13961,-7.5588],[110.13968,-7.55876],[110.13975,-7.55876],[110.13982,-7.55878],[110.13997,-7.55878],[110.14007,-7.55874],[110.14014,-7.5587],[110.14039,-7.55857],[110.14055,-7.55854],[110.14072,-7.55852],[110.14087,-7.55851],[110.14096,-7.5585],[110.14105,-7.55847],[110.14113,-7.55844],[110.14149,-7.55828],[110.1418,-7.55809],[110.1418,-7.55822],[110.14181,-7.55832],[110.14182,-7.55834],[110.14184,-7.55844],[110.14185,-7.5585],[110.14187,-7.5586],[110.14192,-7.55893],[110.14187,-7.559],[110.14186,-7.55905],[110.14185,-7.55914],[110.14185,-7.55918],[110.14188,-7.5593],[110.14189,-7.55933],[110.14192,-7.55941],[110.14193,-7.55945],[110.14194,-7.55947],[110.14197,-7.55954],[110.14205,-7.55978],[110.14207,-7.55986],[110.14207,-7.56008],[110.14206,-7.56014],[110.14205,-7.56022],[110.14205,-7.56025],[110.14203,-7.56029],[110.14201,-7.56032],[110.14199,-7.56034],[110.14196,-7.56035],[110.14188,-7.56035],[110.1418,-7.5603],[110.14173,-7.5602],[110.14162,-7.56009],[110.1416,-7.56008],[110.14155,-7.56004],[110.14151,-7.56003],[110.14146,-7.56002],[110.14132,-7.56002],[110.1413,-7.56003],[110.14127,-7.56004],[110.14125,-7.5601],[110.14126,-7.56018],[110.14128,-7.56031],[110.14129,-7.56035],[110.14132,-7.56049],[110.14134,-7.56057],[110.14136,-7.56061],[110.1414,-7.5607],[110.14145,-7.56078],[110.14149,-7.56086],[110.14151,-7.56094],[110.14151,-7.56099],[110.1415,-7.56109],[110.14148,-7.56118],[110.14145,-7.56126],[110.14144,-7.56129],[110.14135,-7.56146],[110.1413,-7.56155],[110.14127,-7.56161],[110.14123,-7.56167],[110.14119,-7.5617],[110.14112,-7.56174],[110.14098,-7.56179],[110.14091,-7.56182],[110.14085,-7.56185],[110.14083,-7.56187],[110.14081,-7.56191],[110.1408,-7.56196],[110.14081,-7.56203],[110.14082,-7.56205],[110.14084,-7.5621],[110.14086,-7.56216],[110.14092,-7.56225],[110.14098,-7.56233],[110.141,-7.56236],[110.14107,-7.56245],[110.14123,-7.56266],[110.14137,-7.56282],[110.14142,-7.56287],[110.14156,-7.563],[110.14178,-7.56321],[110.14197,-7.56339],[110.14206,-7.56348],[110.14209,-7.56352],[110.14214,-7.56358],[110.14215,-7.56359],[110.14221,-7.56367],[110.14227,-7.56376],[110.14231,-7.56383],[110.14234,-7.5639],[110.14235,-7.56391],[110.14237,-7.56397],[110.14239,-7.56402],[110.14242,-7.56411],[110.14277,-7.56402],[110.14283,-7.56403],[110.14312,-7.56403],[110.14317,-7.56409],[110.1433,-7.56406],[110.1434,-7.56427],[110.14346,-7.56428],[110.14352,-7.56427],[110.14359,-7.56441],[110.14373,-7.56448],[110.14382,-7.56449],[110.14389,-7.56447],[110.14397,-7.56444],[110.14409,-7.56433],[110.1441,-7.56425],[110.1441,-7.56417],[110.14422,-7.56383],[110.14425,-7.56377],[110.14431,-7.5636],[110.1443,-7.56349],[110.14429,-7.5633],[110.1443,-7.56325],[110.14435,-7.56298],[110.14436,-7.56298],[110.14467,-7.56315],[110.14468,-7.56305],[110.14483,-7.56308],[110.14487,-7.56302],[110.14489,-7.56298],[110.14489,-7.56289],[110.14488,-7.56284],[110.14485,-7.56278],[110.14501,-7.56277],[110.14505,-7.56289],[110.14514,-7.56303],[110.14512,-7.56308],[110.14509,-7.5632],[110.14508,-7.56328],[110.14509,-7.56339],[110.14513,-7.56352],[110.14516,-7.56358],[110.1452,-7.56363],[110.14528,-7.56365],[110.14543,-7.56362],[110.14562,-7.56353],[110.14592,-7.56341],[110.14621,-7.56327],[110.14635,-7.56347],[110.14651,-7.56351],[110.14662,-7.5635],[110.1467,-7.56346],[110.14682,-7.56338],[110.14692,-7.56339],[110.14692,-7.56348],[110.1469,-7.56354],[110.14688,-7.56363],[110.14687,-7.56375],[110.14687,-7.56388],[110.14706,-7.56401],[110.1471,-7.56426],[110.14711,-7.56459],[110.14707,-7.56477],[110.14697,-7.56497],[110.14701,-7.565],[110.14703,-7.56504],[110.14702,-7.56508],[110.14695,-7.56515],[110.14696,-7.56519],[110.14696,-7.56524],[110.14693,-7.56544],[110.14693,-7.56548],[110.14691,-7.56555],[110.1469,-7.5656],[110.14682,-7.56566],[110.14674,-7.56581],[110.14709,-7.56599],[110.14711,-7.5659],[110.14717,-7.56579],[110.1472,-7.56573],[110.1473,-7.56567],[110.14737,-7.56568],[110.14744,-7.5657],[110.14748,-7.56573],[110.14749,-7.5658],[110.14748,-7.56587],[110.14747,-7.56605],[110.14745,-7.56611],[110.14745,-7.56621],[110.14747,-7.56629],[110.14762,-7.56629],[110.14774,-7.56628],[110.1479,-7.56622],[110.1479,-7.56612],[110.14791,-7.5661],[110.14799,-7.56607],[110.148,-7.5661],[110.14805,-7.5661],[110.14813,-7.56608],[110.14819,-7.56605],[110.14823,-7.56602],[110.14831,-7.56592],[110.14837,-7.56596],[110.14841,-7.56601],[110.14843,-7.56606],[110.14845,-7.56616],[110.14845,-7.56624],[110.14846,-7.56629],[110.14852,-7.56635],[110.14853,-7.56635],[110.14847,-7.56657],[110.14845,-7.56675],[110.14849,-7.56702],[110.14852,-7.56725],[110.1485,-7.56741],[110.14853,-7.56765],[110.14851,-7.56775],[110.14854,-7.56786],[110.14859,-7.56793],[110.14862,-7.56796],[110.14867,-7.56798],[110.14875,-7.568],[110.14876,-7.568],[110.14879,-7.56808],[110.14891,-7.568],[110.14903,-7.56779],[110.14919,-7.56754],[110.14953,-7.56771],[110.14959,-7.56763],[110.14981,-7.56734],[110.15005,-7.56694],[110.15037,-7.56648],[110.15044,-7.56652],[110.15076,-7.56676],[110.15077,-7.56675],[110.15113,-7.56599],[110.15148,-7.56604],[110.152,-7.56607],[110.15226,-7.56608],[110.15274,-7.56607],[110.15319,-7.56606],[110.15334,-7.56597],[110.1535,-7.56579],[110.15359,-7.56565],[110.1537,-7.56564],[110.15383,-7.56563],[110.1539,-7.56563],[110.15395,-7.56561],[110.15398,-7.5656],[110.15402,-7.5656],[110.15415,-7.56562],[110.1543,-7.56568],[110.15445,-7.56573],[110.15469,-7.56573],[110.1547,-7.56574],[110.15469,-7.56578],[110.15466,-7.56579],[110.15465,-7.56581],[110.15466,-7.56583],[110.15469,-7.56586],[110.15477,-7.56587],[110.15483,-7.56588],[110.1549,-7.56586],[110.15494,-7.56583],[110.15494,-7.56581],[110.15491,-7.56575],[110.15489,-7.56569],[110.15488,-7.56563],[110.15488,-7.56558],[110.15489,-7.56555],[110.15491,-7.56555],[110.15495,-7.56556],[110.15502,-7.56556],[110.15503,-7.56554],[110.15505,-7.56549],[110.15506,-7.56544],[110.15507,-7.56542],[110.1551,-7.56537],[110.15511,-7.56536],[110.15515,-7.56536],[110.15525,-7.56539],[110.15535,-7.56539],[110.15544,-7.56536],[110.15554,-7.56531],[110.15564,-7.56527],[110.15568,-7.56524],[110.15574,-7.56518],[110.15585,-7.56493],[110.15586,-7.56493],[110.15602,-7.56484],[110.15605,-7.56482],[110.15606,-7.56482],[110.15608,-7.56479],[110.15612,-7.56475],[110.15614,-7.56471],[110.15614,-7.56468],[110.15615,-7.56463],[110.15615,-7.56453],[110.15614,-7.56449],[110.15611,-7.56438],[110.15608,-7.56432],[110.15607,-7.56429],[110.15603,-7.56421],[110.15592,-7.56403],[110.15582,-7.56388],[110.15571,-7.56371],[110.15562,-7.5636],[110.15551,-7.56349],[110.15542,-7.56341],[110.15532,-7.5633],[110.15532,-7.56329],[110.15529,-7.56324],[110.15529,-7.56317],[110.1553,-7.56315],[110.15533,-7.56313],[110.15549,-7.56307],[110.15568,-7.56303],[110.15571,-7.56302],[110.15581,-7.56299],[110.1559,-7.56295],[110.15598,-7.56291],[110.15605,-7.56288],[110.15624,-7.56275],[110.15638,-7.56268],[110.15645,-7.56265],[110.15653,-7.56263],[110.1566,-7.56263],[110.15669,-7.56266],[110.15681,-7.56276],[110.15696,-7.56288],[110.15713,-7.56298],[110.15739,-7.56308],[110.15763,-7.56318],[110.15788,-7.56326],[110.15804,-7.56328],[110.15828,-7.5633],[110.15848,-7.56333],[110.15865,-7.56346],[110.15871,-7.56355],[110.1588,-7.56364],[110.15889,-7.56367],[110.15916,-7.56373],[110.15909,-7.56389],[110.1592,-7.56401],[110.15923,-7.56405],[110.15923,-7.5641],[110.15921,-7.5642],[110.15918,-7.56439],[110.15919,-7.56445],[110.1593,-7.56447],[110.15946,-7.56457],[110.15959,-7.56446],[110.15968,-7.56439],[110.1597,-7.56435],[110.15979,-7.56419],[110.16011,-7.56405],[110.16017,-7.56402],[110.16039,-7.56408],[110.16087,-7.5642],[110.16089,-7.5642],[110.16121,-7.56427],[110.1614,-7.56431],[110.16173,-7.56437],[110.16191,-7.56439],[110.16197,-7.56439],[110.16206,-7.56441],[110.16213,-7.56444],[110.16216,-7.56446],[110.16218,-7.56448],[110.16225,-7.56457],[110.16228,-7.56463],[110.16235,-7.56475],[110.16239,-7.56482],[110.16241,-7.56484],[110.1625,-7.56496],[110.16252,-7.56498],[110.16268,-7.56516],[110.16281,-7.56526],[110.16287,-7.56531],[110.16297,-7.56536],[110.1632,-7.56549],[110.16329,-7.56552],[110.16329,-7.56579],[110.16328,-7.5659],[110.16325,-7.56597],[110.16319,-7.56602],[110.16316,-7.56606],[110.16314,-7.56609],[110.16314,-7.56612],[110.16313,-7.56615],[110.16317,-7.56629],[110.16318,-7.56633],[110.16318,-7.56642],[110.16315,-7.56649],[110.16314,-7.5665],[110.16312,-7.56655],[110.16311,-7.56661],[110.16313,-7.56673],[110.16314,-7.5668],[110.16315,-7.5668],[110.16316,-7.56686],[110.16317,-7.56697],[110.16316,-7.56707],[110.16315,-7.56711],[110.16308,-7.56735],[110.16306,-7.56738],[110.16295,-7.56765],[110.16287,-7.56788],[110.16284,-7.56796],[110.16278,-7.56829],[110.16277,-7.56833],[110.1627,-7.56852],[110.16262,-7.56863],[110.16248,-7.5688],[110.16237,-7.56893],[110.16232,-7.569],[110.16231,-7.56906],[110.16231,-7.56913],[110.16232,-7.56918],[110.16237,-7.56934],[110.16238,-7.56935],[110.16253,-7.56964],[110.16269,-7.56987],[110.1628,-7.57007],[110.16284,-7.5702],[110.16285,-7.57026],[110.16285,-7.5703],[110.16281,-7.57045],[110.16275,-7.57055],[110.16266,-7.57071],[110.16256,-7.57084],[110.16243,-7.57092],[110.16224,-7.57103],[110.1622,-7.5711],[110.16215,-7.57118],[110.16213,-7.57128],[110.16212,-7.5714],[110.16209,-7.57144],[110.16203,-7.57151],[110.16198,-7.57155],[110.16191,-7.57156],[110.16189,-7.57158],[110.16187,-7.57161],[110.16186,-7.57165],[110.16181,-7.57178],[110.16176,-7.57196],[110.16173,-7.57212],[110.16204,-7.57218],[110.16232,-7.57224],[110.16254,-7.57231],[110.1627,-7.57242],[110.16276,-7.57233],[110.16319,-7.57254],[110.16338,-7.57264],[110.16371,-7.57286],[110.16373,-7.57282],[110.1638,-7.57275],[110.16386,-7.57276],[110.16387,-7.57279],[110.16387,-7.57283],[110.16385,-7.57291],[110.16383,-7.57297],[110.16383,-7.57301],[110.16384,-7.57304],[110.16407,-7.57317],[110.16395,-7.57327],[110.16375,-7.57342],[110.16375,-7.57352],[110.16363,-7.57351],[110.16361,-7.57371],[110.16365,-7.57372],[110.16366,-7.57386],[110.16348,-7.5738],[110.1633,-7.57379],[110.16321,-7.57377],[110.16311,-7.57374],[110.16299,-7.57371],[110.16246,-7.57366],[110.16241,-7.57395],[110.16246,-7.57396],[110.16245,-7.57406],[110.16242,-7.5741],[110.16235,-7.57471],[110.16225,-7.57574],[110.16225,-7.57576],[110.16163,-7.57576],[110.16133,-7.57581],[110.16134,-7.57603],[110.16138,-7.57635],[110.16139,-7.57684],[110.16138,-7.57694],[110.16132,-7.57707],[110.1612,-7.57728],[110.16113,-7.57739],[110.16107,-7.57743],[110.16092,-7.57752],[110.16071,-7.57761],[110.16061,-7.57764],[110.16053,-7.57774],[110.16039,-7.578],[110.16022,-7.57848],[110.1602,-7.57861],[110.16018,-7.57869],[110.16019,-7.57879],[110.16023,-7.57886],[110.16029,-7.57892],[110.16036,-7.57906],[110.16044,-7.57926],[110.16049,-7.57943],[110.1605,-7.57958],[110.16052,-7.57977],[110.16045,-7.58001],[110.16036,-7.5802],[110.16023,-7.58038],[110.16009,-7.58064],[110.16004,-7.58079],[110.16003,-7.58089],[110.16006,-7.58097],[110.16008,-7.58102],[110.16009,-7.58109],[110.16005,-7.58131],[110.16004,-7.58138],[110.16005,-7.58141],[110.16011,-7.58147],[110.16011,-7.5815],[110.16012,-7.58155],[110.16011,-7.5816],[110.16,-7.58172],[110.15995,-7.58177],[110.15985,-7.58224],[110.15977,-7.58242],[110.15974,-7.5825],[110.15962,-7.58278],[110.15957,-7.58297],[110.15959,-7.58302],[110.15964,-7.58317],[110.15964,-7.58318],[110.15977,-7.58331],[110.15978,-7.58333],[110.15984,-7.58339],[110.15998,-7.58347],[110.16031,-7.58365],[110.16061,-7.58382],[110.1607,-7.58387],[110.16087,-7.584],[110.16098,-7.58409],[110.16121,-7.58428],[110.16123,-7.58429],[110.16128,-7.58433],[110.16145,-7.58438],[110.16164,-7.5843],[110.16177,-7.58407],[110.16179,-7.58377],[110.16174,-7.58351],[110.16172,-7.58342],[110.16172,-7.58307],[110.16177,-7.58283],[110.162,-7.58264],[110.16229,-7.58257],[110.16268,-7.58251],[110.163,-7.58256],[110.16325,-7.58267],[110.16334,-7.58271],[110.16356,-7.58305],[110.16361,-7.58344],[110.16378,-7.58395],[110.16385,-7.58462],[110.16385,-7.58464],[110.16387,-7.58471],[110.16393,-7.58488],[110.16409,-7.58492],[110.16434,-7.58499],[110.16468,-7.58523],[110.16486,-7.58539],[110.16495,-7.58552],[110.16493,-7.58575],[110.16493,-7.58601],[110.16505,-7.58631],[110.16541,-7.58648],[110.16556,-7.58627],[110.16556,-7.58599],[110.16552,-7.58586],[110.16544,-7.58555],[110.16548,-7.58524],[110.1656,-7.58506],[110.16583,-7.5851],[110.16619,-7.58526],[110.16643,-7.58545],[110.16648,-7.5855],[110.16701,-7.58577],[110.16725,-7.58589],[110.16743,-7.58599],[110.1678,-7.5862],[110.1679,-7.58626],[110.16837,-7.58655],[110.16866,-7.58673],[110.16909,-7.587],[110.16947,-7.5873],[110.16972,-7.58736],[110.17008,-7.58746],[110.17061,-7.58761],[110.17139,-7.58798],[110.17162,-7.58809],[110.17206,-7.5882],[110.1722,-7.58824],[110.17287,-7.58836],[110.17377,-7.58833],[110.17523,-7.58833],[110.17527,-7.58865],[110.17523,-7.58878],[110.17515,-7.58908],[110.17504,-7.5896],[110.17501,-7.59017],[110.17508,-7.5906],[110.17521,-7.59082],[110.17559,-7.59146],[110.17572,-7.5917],[110.17579,-7.5921],[110.17575,-7.59227],[110.17572,-7.59243],[110.1758,-7.59253],[110.17597,-7.59275],[110.17628,-7.59311],[110.17672,-7.59308],[110.1773,-7.59329],[110.17769,-7.5935],[110.17791,-7.59356],[110.1785,-7.59352],[110.17887,-7.59342],[110.17926,-7.59319],[110.1794,-7.59324],[110.17958,-7.59331],[110.17976,-7.59328],[110.17996,-7.59322],[110.18011,-7.593],[110.18022,-7.59238],[110.18027,-7.5921],[110.18031,-7.59189],[110.18045,-7.59176],[110.18055,-7.5917],[110.18073,-7.59161],[110.18086,-7.59131],[110.18107,-7.5911],[110.1811,-7.59077],[110.1813,-7.59031],[110.18159,-7.58992],[110.18192,-7.58929],[110.18203,-7.58903],[110.18204,-7.58867],[110.18189,-7.58818],[110.18183,-7.58793],[110.18181,-7.58783],[110.18177,-7.58749],[110.18189,-7.58727],[110.18231,-7.58736],[110.18244,-7.58739],[110.18258,-7.58729],[110.18261,-7.58727],[110.18277,-7.58714],[110.18271,-7.587],[110.18263,-7.58689],[110.18258,-7.58682],[110.18234,-7.5866],[110.18231,-7.58634],[110.18228,-7.58589],[110.18231,-7.58574],[110.18233,-7.5857],[110.18242,-7.58547],[110.18244,-7.58516],[110.18243,-7.5848],[110.18243,-7.58479],[110.18246,-7.58457],[110.18252,-7.58444],[110.18256,-7.58441],[110.18278,-7.58422],[110.1828,-7.5842],[110.18291,-7.58415],[110.18313,-7.58411],[110.18352,-7.58415],[110.18373,-7.58421],[110.18383,-7.58424],[110.18427,-7.58421],[110.1845,-7.58401],[110.18474,-7.58365],[110.1848,-7.58335],[110.18474,-7.58295],[110.18456,-7.58217],[110.18455,-7.58216],[110.18459,-7.58197],[110.18459,-7.58195],[110.18468,-7.58168],[110.18473,-7.58156],[110.18473,-7.58153],[110.18475,-7.58146],[110.18476,-7.58144],[110.18476,-7.58139],[110.18479,-7.58102],[110.18479,-7.58101],[110.18477,-7.58077],[110.18476,-7.58066],[110.18475,-7.5806],[110.1847,-7.58041],[110.18464,-7.58011],[110.18462,-7.57972],[110.18469,-7.57961],[110.18481,-7.57943],[110.18512,-7.57932],[110.18577,-7.57915],[110.18589,-7.57912],[110.18638,-7.57915],[110.18693,-7.57913],[110.18694,-7.57913],[110.18734,-7.5791],[110.18764,-7.57888],[110.18785,-7.57861],[110.18791,-7.57846],[110.18792,-7.57845],[110.18794,-7.57812],[110.18794,-7.5781],[110.18792,-7.57769],[110.18783,-7.5775],[110.1878,-7.57743],[110.18769,-7.57714],[110.18768,-7.57714],[110.1876,-7.57682],[110.1876,-7.57677],[110.18759,-7.57672],[110.18758,-7.57661],[110.18765,-7.57647],[110.18777,-7.57647],[110.18802,-7.57648],[110.18837,-7.57646],[110.18867,-7.57639],[110.18871,-7.57638],[110.1889,-7.57629],[110.18905,-7.57613],[110.18914,-7.57601],[110.18916,-7.57599],[110.18916,-7.57563],[110.18907,-7.57547],[110.18891,-7.57524],[110.18893,-7.57496],[110.18901,-7.57453],[110.18918,-7.57403],[110.18931,-7.57382],[110.18948,-7.57356],[110.1895,-7.57352],[110.18987,-7.57293],[110.19032,-7.57264],[110.19034,-7.57263],[110.19057,-7.57252],[110.19059,-7.57251],[110.1906,-7.5725],[110.19098,-7.57233],[110.1913,-7.57228],[110.1916,-7.57237],[110.19162,-7.57239],[110.19179,-7.57264],[110.19202,-7.5729],[110.19259,-7.57317],[110.19245,-7.57282],[110.1924,-7.57271],[110.19234,-7.57252],[110.19229,-7.57234],[110.19226,-7.57219],[110.19224,-7.57204],[110.19223,-7.57193],[110.19226,-7.57181],[110.1923,-7.5717],[110.19235,-7.57159],[110.1924,-7.5715],[110.19244,-7.57142],[110.19246,-7.57133],[110.19249,-7.57122],[110.19254,-7.571],[110.1926,-7.57069],[110.19262,-7.57061],[110.19264,-7.5705],[110.19272,-7.57025],[110.19278,-7.57011],[110.19278,-7.5701],[110.19286,-7.56991],[110.19289,-7.56985],[110.19293,-7.5698],[110.19297,-7.56977],[110.19299,-7.56975],[110.193,-7.56972],[110.19298,-7.56969],[110.19294,-7.56967],[110.19291,-7.56965],[110.19282,-7.56964],[110.19277,-7.56963],[110.19273,-7.56963],[110.19254,-7.56957],[110.19242,-7.56955],[110.19228,-7.56953],[110.19213,-7.56952],[110.19166,-7.56952],[110.19132,-7.56954],[110.19086,-7.56952],[110.19042,-7.56952],[110.19018,-7.56955],[110.18966,-7.56961],[110.18941,-7.56957],[110.18918,-7.56953],[110.18891,-7.56936],[110.18885,-7.5693],[110.18873,-7.5692],[110.18867,-7.56908],[110.18867,-7.56886],[110.18869,-7.56866],[110.18874,-7.56853],[110.18874,-7.56849],[110.1888,-7.56816],[110.18884,-7.56802],[110.18887,-7.56771],[110.18894,-7.56748],[110.18895,-7.56741],[110.18894,-7.56732],[110.18891,-7.56722],[110.18889,-7.56713],[110.18881,-7.56704],[110.18859,-7.56694],[110.18848,-7.56693],[110.18839,-7.5669],[110.18829,-7.56685],[110.18823,-7.56678],[110.18815,-7.5666],[110.18813,-7.56653],[110.1881,-7.56636],[110.18808,-7.56621],[110.18809,-7.5661],[110.18811,-7.56598],[110.18814,-7.56586],[110.18819,-7.56575],[110.18825,-7.56564],[110.18831,-7.56554],[110.18835,-7.56549],[110.18842,-7.56529],[110.18847,-7.56506],[110.18847,-7.56484],[110.18844,-7.56466],[110.18835,-7.56408],[110.18827,-7.56369],[110.18809,-7.56326],[110.18792,-7.56306],[110.18786,-7.56297],[110.18785,-7.56296],[110.18761,-7.56263],[110.18723,-7.56235],[110.18703,-7.5622],[110.18692,-7.56207],[110.18683,-7.56197],[110.18675,-7.56194],[110.18668,-7.56195],[110.18654,-7.562],[110.18633,-7.56212],[110.18621,-7.56219],[110.18611,-7.5623],[110.18604,-7.5624],[110.18591,-7.56252],[110.18573,-7.56269],[110.18566,-7.56272],[110.18558,-7.56272],[110.18549,-7.56271],[110.18538,-7.56264],[110.1853,-7.56257],[110.18521,-7.56249],[110.18507,-7.56235],[110.18499,-7.56229],[110.18492,-7.56222],[110.18485,-7.56218],[110.18477,-7.56218],[110.18465,-7.56216],[110.18454,-7.56214],[110.18437,-7.5621],[110.18426,-7.56208],[110.18418,-7.56201],[110.18398,-7.56177],[110.1839,-7.56161],[110.18384,-7.56148],[110.18373,-7.56125],[110.18369,-7.56109],[110.18358,-7.56077],[110.18355,-7.56065],[110.18351,-7.56047],[110.18352,-7.56031],[110.18355,-7.56023],[110.18367,-7.56005],[110.18376,-7.55989],[110.18386,-7.55974],[110.18392,-7.55963],[110.18403,-7.55944],[110.1842,-7.5593],[110.18437,-7.55919],[110.18454,-7.55907],[110.18464,-7.559],[110.18477,-7.55886],[110.18486,-7.55875],[110.18487,-7.55871],[110.18487,-7.55846],[110.18486,-7.55834],[110.18476,-7.55804],[110.18466,-7.55779],[110.18465,-7.55776],[110.18461,-7.55766],[110.18452,-7.55734],[110.18446,-7.55723],[110.18438,-7.55709],[110.18418,-7.55679],[110.18383,-7.55628],[110.18357,-7.5557],[110.18337,-7.55528],[110.18291,-7.55462],[110.18236,-7.55396],[110.18204,-7.55346],[110.18179,-7.55306],[110.18171,-7.55284],[110.18163,-7.55252],[110.18157,-7.5521],[110.18157,-7.55162],[110.18153,-7.55112],[110.18155,-7.55062],[110.18154,-7.55029],[110.18156,-7.55],[110.18167,-7.54935],[110.18168,-7.54927],[110.18177,-7.54869],[110.18183,-7.54794],[110.18182,-7.54765],[110.18181,-7.5476],[110.18179,-7.54735],[110.18177,-7.54707],[110.1817,-7.54676],[110.18147,-7.54656],[110.18108,-7.5464],[110.18075,-7.54626],[110.18058,-7.54619],[110.18009,-7.5458],[110.17983,-7.54547],[110.17977,-7.54536],[110.17975,-7.54528],[110.17974,-7.54519],[110.17974,-7.5451],[110.1799,-7.54491],[110.18036,-7.54443],[110.18048,-7.54433],[110.18068,-7.54416],[110.1808,-7.544],[110.18091,-7.54385],[110.18106,-7.54343],[110.18107,-7.54315],[110.18108,-7.54301],[110.18106,-7.54283],[110.18095,-7.54266],[110.18082,-7.54245],[110.18076,-7.54218],[110.18075,-7.54214],[110.18037,-7.54194],[110.18011,-7.54178],[110.17988,-7.54158],[110.1796,-7.54109],[110.17954,-7.54082],[110.1794,-7.54059],[110.17932,-7.54048],[110.17922,-7.54035],[110.17919,-7.54026],[110.1792,-7.54015],[110.1792,-7.54014],[110.17936,-7.53994],[110.17965,-7.53975],[110.1799,-7.53958],[110.1801,-7.53943],[110.18017,-7.53934],[110.18018,-7.53932],[110.18024,-7.53917],[110.18032,-7.53896],[110.18039,-7.53867],[110.18045,-7.53839],[110.18047,-7.53829],[110.18047,-7.53817],[110.18046,-7.53803],[110.18034,-7.53782],[110.18026,-7.53775],[110.18015,-7.53767],[110.17991,-7.53753],[110.17965,-7.53735],[110.17958,-7.53729],[110.1793,-7.53706],[110.17905,-7.53689],[110.17877,-7.53664],[110.17861,-7.53649],[110.17848,-7.53632],[110.17828,-7.536],[110.17811,-7.53549],[110.17807,-7.5353],[110.17804,-7.53519],[110.17799,-7.53506],[110.17798,-7.53502],[110.17796,-7.53499],[110.17795,-7.53497],[110.17786,-7.53485],[110.17778,-7.53477],[110.17773,-7.5347],[110.17769,-7.53465],[110.17764,-7.53448],[110.17765,-7.53435],[110.17766,-7.53424],[110.17768,-7.53416],[110.17775,-7.53398],[110.17781,-7.53389],[110.17793,-7.53383],[110.17807,-7.53378],[110.17827,-7.53372],[110.17847,-7.53369],[110.17862,-7.53365],[110.17884,-7.53359],[110.17901,-7.53348],[110.17911,-7.53337],[110.17923,-7.53329],[110.17934,-7.53322],[110.17952,-7.53317],[110.1797,-7.5331],[110.17996,-7.53302],[110.18013,-7.53297],[110.18042,-7.53291],[110.18044,-7.53291],[110.18076,-7.53275],[110.18089,-7.53269],[110.18095,-7.53263],[110.18099,-7.53257],[110.18104,-7.5325],[110.18109,-7.53241],[110.18112,-7.53232],[110.18112,-7.5323],[110.18114,-7.53221],[110.18116,-7.5321],[110.18113,-7.53191],[110.18102,-7.53169],[110.18093,-7.53141],[110.18068,-7.53081],[110.18039,-7.52997],[110.18028,-7.52952],[110.1802,-7.52912],[110.18015,-7.52869],[110.18015,-7.52864],[110.18012,-7.52839],[110.18012,-7.5283],[110.18015,-7.52801],[110.18015,-7.52772],[110.1802,-7.52743],[110.18026,-7.52714],[110.1804,-7.52679],[110.18072,-7.52621],[110.18076,-7.52615],[110.18088,-7.52598],[110.18102,-7.52581],[110.18122,-7.52571],[110.18148,-7.52559],[110.18167,-7.52553],[110.18184,-7.5255],[110.18228,-7.52546],[110.18245,-7.52546],[110.18257,-7.52547],[110.18265,-7.52548],[110.1827,-7.52549],[110.1829,-7.52554],[110.18302,-7.52558],[110.18309,-7.52558],[110.18319,-7.52563],[110.18324,-7.52565],[110.1833,-7.52567],[110.18335,-7.52568],[110.18339,-7.52567],[110.18345,-7.52562],[110.18354,-7.52551],[110.18371,-7.52531],[110.18384,-7.52517],[110.18388,-7.52511],[110.18392,-7.52504],[110.18398,-7.52499],[110.18407,-7.52486],[110.1841,-7.5248],[110.18412,-7.52471],[110.18411,-7.52458],[110.18415,-7.52438],[110.18418,-7.52415],[110.18419,-7.52394],[110.18416,-7.52373],[110.1841,-7.5236],[110.18398,-7.5234],[110.18372,-7.52313],[110.18363,-7.52302],[110.18345,-7.52291],[110.18331,-7.52282],[110.18319,-7.5227],[110.18306,-7.52258],[110.18288,-7.52245],[110.18276,-7.5223],[110.18269,-7.52218],[110.18264,-7.52207],[110.1826,-7.52195],[110.18259,-7.5217],[110.1826,-7.52157],[110.18263,-7.52144],[110.18273,-7.52124],[110.18296,-7.521],[110.18307,-7.52092],[110.18324,-7.52087],[110.18345,-7.52083],[110.18363,-7.52083],[110.18385,-7.52088],[110.18393,-7.5209],[110.18401,-7.52096],[110.18418,-7.52107],[110.18438,-7.52131],[110.18468,-7.52165],[110.18475,-7.52176],[110.1848,-7.52185],[110.18484,-7.52196],[110.18484,-7.52197],[110.18488,-7.52208],[110.18501,-7.52231],[110.18515,-7.52263],[110.18521,-7.52273],[110.18528,-7.52279],[110.18541,-7.52284],[110.18559,-7.52286],[110.18571,-7.52286],[110.18596,-7.52276],[110.18617,-7.52264],[110.18629,-7.52254],[110.18637,-7.52231],[110.1864,-7.52192],[110.18645,-7.52142],[110.18644,-7.52103],[110.1864,-7.52068],[110.18636,-7.52063],[110.18631,-7.52057],[110.18623,-7.52046],[110.18616,-7.52035],[110.18608,-7.52025],[110.18609,-7.51995],[110.18605,-7.51943],[110.18601,-7.51934],[110.186,-7.51933],[110.18597,-7.51925],[110.1859,-7.51915],[110.18592,-7.51899],[110.18595,-7.51894],[110.18601,-7.51885],[110.18604,-7.5188],[110.18608,-7.51875],[110.18612,-7.51869],[110.18611,-7.51858],[110.1861,-7.51852],[110.18607,-7.51847],[110.18601,-7.51836],[110.18597,-7.51828],[110.18593,-7.51818],[110.18591,-7.51812],[110.18589,-7.51808],[110.18587,-7.51803],[110.18583,-7.51789],[110.18583,-7.51783],[110.18585,-7.51773],[110.18583,-7.51764],[110.18582,-7.51758],[110.18582,-7.51749],[110.18583,-7.51744],[110.18588,-7.51737],[110.18598,-7.51732],[110.18605,-7.51729],[110.18621,-7.51726],[110.1863,-7.51727],[110.18637,-7.51728],[110.18651,-7.51733],[110.18656,-7.51738],[110.18659,-7.51744],[110.18664,-7.51751],[110.18672,-7.51763],[110.18677,-7.51768],[110.18682,-7.51771],[110.18687,-7.51772],[110.18694,-7.51771],[110.18699,-7.51769],[110.18705,-7.51765],[110.18706,-7.51757],[110.18704,-7.51749],[110.18703,-7.51744],[110.18704,-7.51739],[110.18705,-7.51735],[110.18708,-7.51727],[110.18712,-7.51719],[110.18713,-7.5171],[110.1871,-7.51696],[110.18704,-7.51684],[110.18695,-7.51672],[110.18689,-7.51663],[110.18688,-7.51654],[110.18689,-7.51647],[110.18691,-7.51643],[110.18693,-7.51638],[110.18698,-7.51629],[110.18703,-7.51621],[110.18703,-7.51614],[110.18693,-7.51598],[110.18685,-7.5158],[110.1868,-7.51574],[110.18678,-7.51572],[110.1867,-7.5157],[110.18661,-7.51568],[110.18659,-7.51568],[110.18654,-7.51567],[110.18648,-7.51564],[110.18645,-7.51562],[110.18644,-7.51559],[110.18644,-7.51547],[110.18646,-7.51538],[110.18646,-7.51527],[110.18648,-7.5152],[110.18648,-7.51516],[110.18645,-7.51513],[110.18643,-7.51512],[110.18635,-7.51512],[110.18633,-7.51513],[110.18631,-7.51518],[110.18628,-7.51523],[110.18627,-7.51527],[110.18625,-7.51531],[110.18622,-7.51534],[110.18618,-7.51536],[110.18613,-7.51536],[110.18612,-7.51534],[110.18612,-7.51523],[110.1861,-7.51519],[110.18607,-7.51517],[110.18602,-7.51514],[110.18599,-7.51511],[110.18597,-7.51506],[110.18596,-7.51503],[110.18596,-7.51495],[110.18593,-7.51489],[110.18591,-7.51488],[110.18589,-7.51485],[110.18585,-7.51483],[110.1858,-7.5148],[110.18578,-7.5148],[110.18575,-7.51481],[110.18573,-7.51482],[110.18572,-7.51484],[110.18572,-7.51488],[110.18571,-7.51489],[110.18571,-7.51502],[110.18569,-7.51506],[110.1857,-7.51516],[110.18562,-7.51519],[110.18553,-7.51525],[110.18546,-7.51527],[110.18538,-7.51529],[110.18535,-7.51528],[110.18531,-7.51527],[110.18529,-7.51525],[110.18526,-7.5152],[110.18512,-7.51511],[110.18501,-7.51499],[110.18483,-7.51484],[110.18467,-7.51473],[110.1845,-7.5146],[110.18446,-7.51457],[110.18433,-7.51447],[110.18425,-7.5144],[110.18421,-7.51433],[110.18403,-7.51408],[110.18399,-7.51403],[110.18394,-7.51398],[110.18388,-7.51396],[110.18382,-7.51395],[110.18372,-7.51395],[110.18369,-7.51394],[110.18367,-7.51393],[110.18367,-7.51392],[110.18365,-7.51389],[110.18365,-7.51386],[110.18366,-7.51379],[110.18368,-7.51376],[110.18369,-7.51374],[110.18376,-7.51369],[110.18383,-7.51365],[110.18391,-7.51361],[110.18405,-7.51357],[110.18417,-7.51358],[110.18433,-7.51358],[110.18438,-7.51356],[110.18442,-7.51353],[110.18445,-7.51346],[110.18446,-7.5134],[110.18445,-7.51336],[110.18442,-7.51333],[110.18436,-7.51332],[110.18429,-7.51333],[110.18418,-7.51333],[110.18413,-7.51328],[110.18413,-7.51325],[110.18412,-7.51319],[110.18412,-7.51314],[110.18414,-7.51309],[110.1842,-7.51304],[110.18428,-7.51299],[110.18437,-7.51294],[110.18438,-7.51293],[110.18447,-7.51287],[110.18458,-7.51279],[110.18471,-7.51268],[110.18477,-7.51261],[110.18481,-7.51254],[110.18481,-7.51248],[110.18476,-7.51241],[110.18472,-7.51236],[110.18471,-7.51229],[110.18472,-7.5122],[110.1847,-7.51214],[110.18467,-7.5121],[110.18461,-7.51207],[110.18454,-7.51208],[110.1845,-7.51208],[110.18447,-7.51207],[110.1844,-7.51207],[110.18436,-7.51203],[110.18431,-7.51196],[110.18429,-7.51191],[110.18428,-7.51185],[110.18428,-7.51179],[110.18429,-7.51172],[110.18433,-7.51165],[110.18442,-7.51157],[110.1845,-7.51153],[110.18452,-7.51153],[110.18457,-7.51152],[110.18461,-7.51149],[110.18465,-7.51143],[110.18466,-7.51138],[110.18466,-7.51133],[110.18464,-7.51127],[110.18455,-7.51113],[110.18439,-7.51097],[110.18425,-7.51079],[110.18415,-7.51068],[110.1841,-7.51064],[110.18404,-7.5106],[110.18402,-7.5106],[110.18393,-7.51061],[110.18387,-7.51062],[110.18372,-7.51065],[110.18366,-7.51064],[110.18362,-7.51061],[110.1835,-7.51049],[110.18332,-7.51037],[110.18307,-7.51023],[110.18303,-7.51022],[110.18296,-7.51022],[110.18285,-7.51023],[110.18278,-7.51023],[110.18265,-7.51031],[110.1825,-7.51041],[110.18245,-7.51043],[110.18228,-7.51052],[110.18206,-7.51063],[110.18192,-7.51066],[110.18179,-7.51066],[110.18172,-7.51062],[110.18169,-7.51058],[110.18159,-7.51047],[110.18155,-7.51043],[110.18137,-7.51029],[110.18126,-7.51017],[110.18122,-7.51015],[110.18116,-7.5101],[110.18098,-7.51005],[110.18094,-7.51003],[110.1809,-7.51002],[110.18086,-7.51],[110.18081,-7.50994],[110.18077,-7.50987],[110.18074,-7.50976],[110.18072,-7.50972],[110.18068,-7.50969],[110.18058,-7.50971],[110.18049,-7.50974],[110.18034,-7.50981],[110.18019,-7.50985],[110.1801,-7.50986],[110.18001,-7.50986],[110.17993,-7.50985],[110.17987,-7.50981],[110.17982,-7.50977],[110.17979,-7.50974],[110.17978,-7.50968],[110.17978,-7.50963],[110.17981,-7.50952],[110.17985,-7.50941],[110.17992,-7.50933],[110.18002,-7.50926],[110.18006,-7.50924],[110.18026,-7.5091],[110.18029,-7.50901],[110.18033,-7.50893],[110.18036,-7.50883],[110.18036,-7.50875],[110.18035,-7.50869],[110.18022,-7.50858],[110.18012,-7.50849],[110.18004,-7.50842],[110.17994,-7.50837],[110.17982,-7.50829],[110.17973,-7.50827],[110.17952,-7.50825],[110.17933,-7.50822],[110.17905,-7.50822],[110.17888,-7.50826],[110.17885,-7.50827],[110.17871,-7.50832],[110.17861,-7.50833],[110.17849,-7.50832],[110.17837,-7.50836],[110.17824,-7.5084],[110.17811,-7.50841],[110.17803,-7.50838],[110.17794,-7.50836],[110.17786,-7.50838],[110.1778,-7.50842],[110.17773,-7.50843],[110.17761,-7.50843],[110.1775,-7.50846],[110.17743,-7.5085],[110.17717,-7.50857],[110.17709,-7.50859],[110.17698,-7.50855],[110.17697,-7.50855],[110.17681,-7.5085],[110.17661,-7.50844],[110.17658,-7.50844],[110.17639,-7.50839],[110.17632,-7.50837],[110.17617,-7.50833],[110.17615,-7.50832],[110.17603,-7.50827],[110.17594,-7.50824],[110.17575,-7.50818],[110.17557,-7.50812],[110.17556,-7.50812],[110.1754,-7.50809],[110.1752,-7.50809],[110.17519,-7.50807],[110.17509,-7.50795],[110.17465,-7.50751],[110.17438,-7.50725],[110.17413,-7.50702],[110.17398,-7.50692],[110.17363,-7.50641],[110.17349,-7.50629],[110.17338,-7.50593],[110.17336,-7.50587],[110.17332,-7.50574],[110.173,-7.50539],[110.17294,-7.50532],[110.17246,-7.50488],[110.17205,-7.50456],[110.17144,-7.50423],[110.17105,-7.50407],[110.17039,-7.50357],[110.17001,-7.50305],[110.16989,-7.50293],[110.16981,-7.50286],[110.16973,-7.50284],[110.16965,-7.50283],[110.16953,-7.5028],[110.16946,-7.50277],[110.16942,-7.50273],[110.16937,-7.50264],[110.16925,-7.50238],[110.16921,-7.50231],[110.16913,-7.50223],[110.16899,-7.50213],[110.16894,-7.50209],[110.16872,-7.50191],[110.16854,-7.5018],[110.16843,-7.50176],[110.16833,-7.50169],[110.16828,-7.50164],[110.16822,-7.50162],[110.16815,-7.50155],[110.16808,-7.50143],[110.16803,-7.5014],[110.16792,-7.50135],[110.16781,-7.50129],[110.16773,-7.50128],[110.1677,-7.50128],[110.16768,-7.5013],[110.16765,-7.5013],[110.16761,-7.50129],[110.16756,-7.50124],[110.16748,-7.50114],[110.16743,-7.50105],[110.16741,-7.50099],[110.16737,-7.50094],[110.16734,-7.5009],[110.16734,-7.50079],[110.16735,-7.50073],[110.16739,-7.50066],[110.16739,-7.50061],[110.16738,-7.50057],[110.16734,-7.50052],[110.16728,-7.50046],[110.16712,-7.50043],[110.16706,-7.50043],[110.16699,-7.5004],[110.16693,-7.50035],[110.16683,-7.50021],[110.16676,-7.50014],[110.16671,-7.5001],[110.16663,-7.50008],[110.16656,-7.50008],[110.1665,-7.50012],[110.16643,-7.50016],[110.16638,-7.50018],[110.1663,-7.50022],[110.16628,-7.50022],[110.1662,-7.5002],[110.16611,-7.50013],[110.16596,-7.50002],[110.16587,-7.49995],[110.16583,-7.49993],[110.1658,-7.49989],[110.16576,-7.49986],[110.16569,-7.49983],[110.1656,-7.49983],[110.16559,-7.49982],[110.16555,-7.4998],[110.1655,-7.49971],[110.16547,-7.49968],[110.16544,-7.49966],[110.16532,-7.49966],[110.16522,-7.4997],[110.16513,-7.49971],[110.16506,-7.49972],[110.16497,-7.49966],[110.16495,-7.49962],[110.16492,-7.49959],[110.16492,-7.49953],[110.16488,-7.49932],[110.16479,-7.49908],[110.16475,-7.4989],[110.1647,-7.49882],[110.16457,-7.49862],[110.16446,-7.49845],[110.16432,-7.49832],[110.16424,-7.49826],[110.1642,-7.49821],[110.16409,-7.49801],[110.16388,-7.49784],[110.16368,-7.49768],[110.16341,-7.49757],[110.16311,-7.49754],[110.16284,-7.49751],[110.16261,-7.49746],[110.16245,-7.49738],[110.16233,-7.49727],[110.16225,-7.49714],[110.16221,-7.49701],[110.16219,-7.49693],[110.162,-7.49662],[110.16174,-7.49614],[110.16166,-7.49594],[110.16162,-7.49574],[110.16152,-7.49531],[110.16124,-7.49509],[110.16105,-7.49481],[110.16086,-7.49456],[110.16076,-7.49446],[110.16071,-7.49439],[110.16071,-7.4943],[110.16073,-7.49418],[110.16074,-7.49403],[110.16073,-7.49391],[110.16067,-7.49369],[110.16053,-7.49346],[110.16047,-7.49336],[110.16044,-7.49323],[110.16038,-7.49288],[110.16038,-7.49267],[110.16029,-7.49263],[110.16024,-7.49261],[110.16022,-7.4926],[110.16003,-7.49249],[110.15996,-7.49245],[110.15986,-7.4924],[110.15965,-7.49228],[110.15955,-7.49222],[110.15912,-7.49159],[110.15895,-7.49163],[110.15889,-7.49165],[110.15869,-7.49164],[110.15857,-7.49161],[110.15846,-7.49158],[110.15829,-7.49151],[110.15804,-7.49141],[110.15756,-7.49115],[110.15751,-7.49112],[110.15748,-7.4911],[110.15724,-7.49097],[110.15711,-7.49083],[110.15678,-7.49047],[110.15647,-7.49021],[110.15632,-7.49008],[110.15607,-7.48998],[110.15575,-7.48995],[110.15526,-7.48999],[110.1552,-7.49],[110.15505,-7.49005],[110.15459,-7.4902],[110.15401,-7.49037],[110.1536,-7.49048],[110.15331,-7.4906],[110.15317,-7.49061],[110.15306,-7.49062],[110.15261,-7.49058],[110.15254,-7.49056],[110.15207,-7.49038],[110.15117,-7.49004],[110.151,-7.49001],[110.15083,-7.48999],[110.15028,-7.48995],[110.15008,-7.48993],[110.15,-7.48992],[110.1497,-7.48989],[110.14969,-7.48989],[110.14948,-7.48982],[110.14947,-7.48981],[110.14926,-7.48968],[110.1492,-7.48965],[110.14913,-7.4896],[110.14901,-7.48954],[110.1489,-7.48957],[110.14875,-7.48966],[110.14866,-7.48972],[110.14852,-7.4898],[110.14837,-7.48988],[110.14813,-7.48998],[110.14809,-7.49],[110.14805,-7.49001],[110.14766,-7.49015],[110.14737,-7.49024],[110.14736,-7.49025],[110.14728,-7.49029],[110.14714,-7.49033],[110.14713,-7.49033],[110.14692,-7.49042],[110.14684,-7.49046],[110.14648,-7.49066],[110.14546,-7.49114],[110.14537,-7.49118],[110.14497,-7.49131],[110.1443,-7.4914],[110.14407,-7.49141],[110.14384,-7.49143],[110.14371,-7.49141],[110.14323,-7.49134],[110.14302,-7.49128],[110.1428,-7.49118],[110.14245,-7.49103],[110.14164,-7.49064],[110.14071,-7.49022],[110.14014,-7.49002],[110.13893,-7.4901],[110.13786,-7.49026],[110.13679,-7.49035],[110.13536,-7.49012],[110.13509,-7.49007],[110.13421,-7.48989],[110.13413,-7.48988],[110.13331,-7.48972],[110.13277,-7.48968],[110.1321,-7.48964],[110.131,-7.4893],[110.12936,-7.48906],[110.12928,-7.48905],[110.12923,-7.48936],[110.12912,-7.49014]]]}}]}