{"type":"FeatureCollection","features":[{"type":"Feature","properties":{"KECAMATAN":"Windusari"},"geometry":{"type":"Polygon","coordinates":[[[110.07603,-7.38363],[110.07612,-7.38378],[110.07622,-7.38393],[110.07681,-7.38484],[110.07701,-7.38514],[110.07715,-7.38529],[110.07748,-7.38561],[110.07794,-7.38599],[110.07832,-7.38614],[110.07845,-7.38619],[110.0793,-7.38643],[110.07938,-7.38646],[110.08023,-7.38681],[110.08065,-7.38706],[110.08078,-7.38713],[110.08098,-7.38724],[110.0813,-7.38743],[110.08142,-7.38746],[110.08151,-7.38749],[110.08155,-7.38751],[110.08165,-7.38757],[110.0817,-7.38761],[110.08176,-7.38765],[110.08183,-7.3877],[110.08191,-7.38775],[110.082,-7.38782],[110.08209,-7.3879],[110.08219,-7.38799],[110.08227,-7.38805],[110.08238,-7.38813],[110.08241,-7.38816],[110.0825,-7.38824],[110.08278,-7.38852],[110.08282,-7.38855],[110.08287,-7.3886],[110.08298,-7.3887],[110.0831,-7.38883],[110.08321,-7.38894],[110.08331,-7.38907],[110.08333,-7.38908],[110.08334,-7.3891],[110.08342,-7.3892],[110.08344,-7.38922],[110.08352,-7.38934],[110.08353,-7.38935],[110.08355,-7.3894],[110.08362,-7.38954],[110.08367,-7.38965],[110.08368,-7.38966],[110.08375,-7.38977],[110.0838,-7.38986],[110.08383,-7.38992],[110.08395,-7.39009],[110.084,-7.39015],[110.08406,-7.39023],[110.08407,-7.39025],[110.08409,-7.39027],[110.08411,-7.3903],[110.08422,-7.39042],[110.08437,-7.39052],[110.08449,-7.39062],[110.0845,-7.39063],[110.08461,-7.39078],[110.08464,-7.39082],[110.08468,-7.39087],[110.08469,-7.39089],[110.0849,-7.39118],[110.08491,-7.3912],[110.085,-7.39132],[110.08501,-7.39134],[110.08511,-7.3915],[110.08517,-7.39158],[110.08526,-7.39168],[110.08529,-7.3917],[110.08537,-7.39177],[110.0855,-7.3919],[110.08564,-7.39206],[110.0857,-7.39212],[110.08575,-7.39216],[110.08578,-7.39217],[110.08593,-7.39226],[110.08608,-7.39251],[110.08633,-7.39289],[110.08666,-7.3934],[110.0868,-7.39361],[110.08702,-7.39397],[110.08758,-7.39459],[110.08779,-7.39484],[110.08781,-7.39486],[110.08868,-7.39615],[110.0887,-7.39618],[110.08873,-7.39623],[110.08877,-7.39628],[110.08883,-7.39634],[110.08888,-7.3964],[110.0889,-7.39641],[110.08891,-7.39643],[110.08903,-7.39654],[110.08915,-7.39666],[110.08922,-7.39674],[110.08925,-7.39677],[110.08934,-7.39689],[110.0894,-7.39695],[110.08947,-7.39704],[110.08952,-7.3971],[110.08958,-7.39717],[110.08968,-7.39727],[110.08982,-7.39737],[110.08984,-7.39739],[110.08994,-7.39747],[110.09004,-7.39758],[110.09016,-7.39773],[110.09027,-7.39787],[110.09033,-7.39795],[110.09041,-7.39805],[110.09055,-7.39819],[110.09069,-7.39831],[110.0909,-7.39852],[110.09091,-7.39854],[110.09098,-7.39862],[110.09111,-7.39875],[110.09129,-7.39887],[110.09136,-7.39892],[110.09141,-7.39893],[110.09145,-7.39894],[110.09162,-7.39901],[110.09169,-7.39905],[110.09183,-7.39915],[110.09186,-7.39917],[110.09205,-7.39931],[110.09213,-7.39938],[110.09226,-7.39955],[110.09227,-7.39956],[110.09228,-7.39959],[110.09237,-7.39974],[110.09242,-7.39989],[110.09244,-7.39996],[110.0925,-7.40009],[110.09271,-7.40051],[110.09279,-7.40066],[110.09282,-7.40074],[110.09286,-7.40082],[110.09288,-7.40089],[110.09292,-7.40104],[110.09295,-7.40116],[110.09295,-7.40118],[110.09298,-7.40128],[110.093,-7.40136],[110.09301,-7.40139],[110.09304,-7.4015],[110.09305,-7.40152],[110.09307,-7.40161],[110.09308,-7.40163],[110.09311,-7.4017],[110.09315,-7.40178],[110.09318,-7.40183],[110.0932,-7.40187],[110.09324,-7.40194],[110.09325,-7.40201],[110.09326,-7.40206],[110.0932,-7.40218],[110.09319,-7.40218],[110.09325,-7.40222],[110.09327,-7.40223],[110.09345,-7.40237],[110.09351,-7.40243],[110.09369,-7.4026],[110.09386,-7.40272],[110.09388,-7.40274],[110.09406,-7.4029],[110.09416,-7.40301],[110.09429,-7.40316],[110.09444,-7.40336],[110.09459,-7.40357],[110.0946,-7.40358],[110.09524,-7.40452],[110.09533,-7.40464],[110.0954,-7.40474],[110.09545,-7.40482],[110.09554,-7.40488],[110.09568,-7.40501],[110.09585,-7.40518],[110.09591,-7.40526],[110.09593,-7.40529],[110.09597,-7.40534],[110.096,-7.40537],[110.09605,-7.40541],[110.09612,-7.40546],[110.09615,-7.40548],[110.09634,-7.40556],[110.09642,-7.40559],[110.09653,-7.40561],[110.09668,-7.40568],[110.09676,-7.40572],[110.09694,-7.40589],[110.09701,-7.40597],[110.0971,-7.40607],[110.09726,-7.40619],[110.0974,-7.40633],[110.09764,-7.40668],[110.09769,-7.40675],[110.0977,-7.40675],[110.09773,-7.40682],[110.09776,-7.40687],[110.09777,-7.40693],[110.09779,-7.40707],[110.09779,-7.4071],[110.0978,-7.40712],[110.09794,-7.40716],[110.09803,-7.40718],[110.09816,-7.4072],[110.09821,-7.4072],[110.09837,-7.40719],[110.09853,-7.40713],[110.09856,-7.40712],[110.0987,-7.40705],[110.09883,-7.407],[110.0989,-7.40698],[110.09915,-7.40698],[110.09926,-7.40701],[110.09934,-7.40706],[110.09946,-7.40714],[110.09959,-7.40732],[110.0996,-7.40732],[110.09967,-7.40737],[110.09974,-7.40738],[110.0999,-7.4074],[110.09995,-7.40738],[110.10002,-7.40732],[110.10011,-7.40722],[110.10019,-7.40713],[110.10029,-7.40706],[110.10036,-7.40703],[110.10079,-7.40689],[110.1008,-7.40688],[110.10104,-7.40675],[110.10106,-7.40674],[110.10113,-7.4067],[110.10131,-7.40658],[110.10166,-7.40635],[110.10191,-7.40631],[110.10197,-7.40629],[110.10224,-7.40623],[110.10234,-7.40621],[110.10252,-7.40615],[110.10268,-7.40615],[110.10291,-7.40617],[110.1031,-7.4062],[110.1032,-7.40626],[110.1033,-7.40635],[110.10338,-7.40649],[110.10353,-7.40701],[110.10356,-7.40719],[110.10359,-7.40733],[110.10363,-7.40748],[110.10367,-7.40758],[110.10367,-7.40766],[110.10366,-7.40775],[110.10364,-7.40797],[110.10365,-7.40805],[110.10367,-7.40813],[110.10371,-7.40816],[110.10382,-7.40819],[110.10391,-7.40819],[110.10398,-7.40818],[110.10418,-7.40818],[110.10426,-7.4082],[110.10432,-7.40824],[110.10436,-7.40826],[110.10444,-7.40826],[110.10452,-7.40825],[110.10462,-7.40825],[110.1047,-7.40826],[110.10479,-7.4083],[110.10491,-7.40834],[110.10503,-7.40841],[110.10565,-7.40879],[110.1057,-7.40882],[110.1059,-7.40895],[110.10599,-7.40901],[110.106,-7.40901],[110.10608,-7.40906],[110.10626,-7.40919],[110.1064,-7.4093],[110.10663,-7.40957],[110.10685,-7.40981],[110.10696,-7.40997],[110.10716,-7.41021],[110.10733,-7.41032],[110.10749,-7.41042],[110.10766,-7.4105],[110.10795,-7.41064],[110.10797,-7.41065],[110.10826,-7.41082],[110.10889,-7.41118],[110.10889,-7.41119],[110.10908,-7.41131],[110.10915,-7.41137],[110.10928,-7.41149],[110.10956,-7.41175],[110.10989,-7.41212],[110.11004,-7.4123],[110.11014,-7.41239],[110.11026,-7.41248],[110.11037,-7.41254],[110.11046,-7.41258],[110.11057,-7.41262],[110.11071,-7.41264],[110.11076,-7.41265],[110.11088,-7.41267],[110.11102,-7.41271],[110.11121,-7.41279],[110.11153,-7.41295],[110.11198,-7.41326],[110.11202,-7.41329],[110.11236,-7.41351],[110.11254,-7.41362],[110.11259,-7.41364],[110.11262,-7.41366],[110.11268,-7.41367],[110.11276,-7.41369],[110.11281,-7.41368],[110.11289,-7.41367],[110.11306,-7.41366],[110.11321,-7.41372],[110.11331,-7.41377],[110.11336,-7.4138],[110.11343,-7.41386],[110.11349,-7.41389],[110.11356,-7.41398],[110.11363,-7.41406],[110.11372,-7.41417],[110.11384,-7.41432],[110.11397,-7.4144],[110.11431,-7.41461],[110.11445,-7.41469],[110.11457,-7.41477],[110.11466,-7.41484],[110.11471,-7.41489],[110.11485,-7.415],[110.11491,-7.41505],[110.11499,-7.41511],[110.11509,-7.41518],[110.11516,-7.41522],[110.11521,-7.41525],[110.11525,-7.41526],[110.11535,-7.41528],[110.11563,-7.41528],[110.11576,-7.41529],[110.11582,-7.4153],[110.11597,-7.41533],[110.11598,-7.41533],[110.11612,-7.41536],[110.11629,-7.41544],[110.11638,-7.41551],[110.11666,-7.41572],[110.11679,-7.41582],[110.11691,-7.41594],[110.117,-7.41608],[110.11702,-7.41615],[110.11706,-7.41631],[110.11707,-7.41637],[110.1171,-7.41644],[110.11712,-7.41649],[110.11712,-7.4165],[110.11714,-7.41658],[110.11718,-7.41666],[110.11724,-7.41672],[110.11726,-7.41675],[110.11737,-7.41682],[110.11756,-7.41693],[110.11795,-7.41714],[110.11807,-7.41721],[110.11809,-7.41722],[110.11815,-7.41724],[110.11816,-7.41725],[110.11825,-7.41726],[110.11842,-7.41726],[110.11852,-7.41728],[110.11863,-7.41733],[110.11873,-7.41738],[110.11896,-7.41758],[110.11913,-7.41765],[110.11928,-7.4177],[110.11959,-7.41778],[110.11987,-7.41788],[110.12008,-7.41795],[110.12026,-7.41805],[110.12069,-7.41836],[110.1209,-7.4185],[110.121,-7.41857],[110.12124,-7.41876],[110.12147,-7.4189],[110.12199,-7.41914],[110.12221,-7.41923],[110.12237,-7.4193],[110.1225,-7.41938],[110.12266,-7.41955],[110.12271,-7.41963],[110.12278,-7.41992],[110.12278,-7.42006],[110.12277,-7.42028],[110.12277,-7.42054],[110.12286,-7.42086],[110.12293,-7.42102],[110.12307,-7.42137],[110.12312,-7.42148],[110.12316,-7.42157],[110.12321,-7.42163],[110.12325,-7.42166],[110.12335,-7.4217],[110.12339,-7.4217],[110.1234,-7.42171],[110.12344,-7.4217],[110.12346,-7.4217],[110.1235,-7.42168],[110.12355,-7.42166],[110.12361,-7.42161],[110.12362,-7.42161],[110.12368,-7.42156],[110.12376,-7.42151],[110.12383,-7.42146],[110.12388,-7.42143],[110.12395,-7.42142],[110.12404,-7.42142],[110.12408,-7.42143],[110.12411,-7.42146],[110.12419,-7.4215],[110.12424,-7.42153],[110.12429,-7.42155],[110.12436,-7.42155],[110.12441,-7.42154],[110.12449,-7.42153],[110.12462,-7.42147],[110.12472,-7.42145],[110.12478,-7.42145],[110.12481,-7.42147],[110.12482,-7.42148],[110.12486,-7.42151],[110.12494,-7.42169],[110.12501,-7.4218],[110.12505,-7.42188],[110.1251,-7.42197],[110.1251,-7.42198],[110.12503,-7.42208],[110.12476,-7.42222],[110.12473,-7.42228],[110.12473,-7.42261],[110.12462,-7.42283],[110.12455,-7.42289],[110.12418,-7.42307],[110.1239,-7.42278],[110.12361,-7.42284],[110.12353,-7.42289],[110.12339,-7.42302],[110.12338,-7.42303],[110.12272,-7.42366],[110.12245,-7.42388],[110.12237,-7.42397],[110.1225,-7.42412],[110.12222,-7.42438],[110.12253,-7.4247],[110.12288,-7.42512],[110.12293,-7.42531],[110.12309,-7.42557],[110.12319,-7.42566],[110.12336,-7.42576],[110.12364,-7.42585],[110.12381,-7.42599],[110.12393,-7.42612],[110.12402,-7.42627],[110.12407,-7.42646],[110.12416,-7.42667],[110.12423,-7.42683],[110.12433,-7.42696],[110.1245,-7.42716],[110.12476,-7.42743],[110.12499,-7.42768],[110.12512,-7.42784],[110.12524,-7.42798],[110.12527,-7.42805],[110.12534,-7.42804],[110.12541,-7.42808],[110.12543,-7.42813],[110.12544,-7.42816],[110.12546,-7.42825],[110.12549,-7.42831],[110.12553,-7.42835],[110.1256,-7.4284],[110.12576,-7.42848],[110.12586,-7.42854],[110.12593,-7.4286],[110.12608,-7.42869],[110.12616,-7.42872],[110.12618,-7.42872],[110.12616,-7.42881],[110.12616,-7.42886],[110.12621,-7.42897],[110.12629,-7.42907],[110.12641,-7.4291],[110.12657,-7.42916],[110.12665,-7.4292],[110.12674,-7.42931],[110.12675,-7.42939],[110.12678,-7.42955],[110.12678,-7.4296],[110.1268,-7.4297],[110.12682,-7.42981],[110.12693,-7.42993],[110.12696,-7.42996],[110.12706,-7.43007],[110.12714,-7.43011],[110.12715,-7.43012],[110.12717,-7.43012],[110.12721,-7.43014],[110.1275,-7.43019],[110.12792,-7.43023],[110.12804,-7.43024],[110.12828,-7.43024],[110.12837,-7.43027],[110.12845,-7.43034],[110.12846,-7.43034],[110.12853,-7.43049],[110.12856,-7.43061],[110.12863,-7.43084],[110.12864,-7.43088],[110.12869,-7.43104],[110.12876,-7.43116],[110.12885,-7.43128],[110.12889,-7.43135],[110.12893,-7.4315],[110.12898,-7.43164],[110.12901,-7.4317],[110.12908,-7.43173],[110.12917,-7.43175],[110.12934,-7.43174],[110.12955,-7.43172],[110.12958,-7.43173],[110.12965,-7.43175],[110.12975,-7.43181],[110.12981,-7.43186],[110.12985,-7.4319],[110.12995,-7.43205],[110.13,-7.43209],[110.1301,-7.43215],[110.13011,-7.43216],[110.1302,-7.4322],[110.1303,-7.43222],[110.13034,-7.43223],[110.13043,-7.43219],[110.13056,-7.43213],[110.13072,-7.43206],[110.13095,-7.43195],[110.13109,-7.43194],[110.13116,-7.43196],[110.13131,-7.43208],[110.13144,-7.43218],[110.13159,-7.43219],[110.13171,-7.43218],[110.13185,-7.43217],[110.13188,-7.43217],[110.13196,-7.43218],[110.13209,-7.43226],[110.13226,-7.43238],[110.13235,-7.43247],[110.13246,-7.43269],[110.13249,-7.43274],[110.13252,-7.4328],[110.13268,-7.43286],[110.13289,-7.43289],[110.13306,-7.43288],[110.13333,-7.43284],[110.13343,-7.43285],[110.13354,-7.43289],[110.13365,-7.43297],[110.13373,-7.43315],[110.13378,-7.43326],[110.13389,-7.43331],[110.1341,-7.43331],[110.13419,-7.43332],[110.13422,-7.43332],[110.13429,-7.43335],[110.13443,-7.43348],[110.13462,-7.43369],[110.13475,-7.43399],[110.1348,-7.43411],[110.1348,-7.43425],[110.13484,-7.43432],[110.13485,-7.43432],[110.1349,-7.43434],[110.13491,-7.43435],[110.1351,-7.43436],[110.13532,-7.43437],[110.13542,-7.43439],[110.13546,-7.4344],[110.13548,-7.43441],[110.13558,-7.43444],[110.13566,-7.43451],[110.13568,-7.43463],[110.13565,-7.43489],[110.13564,-7.43498],[110.13565,-7.43505],[110.13571,-7.4351],[110.13575,-7.43511],[110.13586,-7.43509],[110.13609,-7.43496],[110.13624,-7.4349],[110.13625,-7.4349],[110.13633,-7.43491],[110.13638,-7.43492],[110.13645,-7.43495],[110.13656,-7.43502],[110.13662,-7.4351],[110.13672,-7.43526],[110.13676,-7.43543],[110.1368,-7.43555],[110.13688,-7.43561],[110.1369,-7.43563],[110.13706,-7.43564],[110.13712,-7.43563],[110.13735,-7.4356],[110.13748,-7.43565],[110.13748,-7.43566],[110.13749,-7.43571],[110.13752,-7.43585],[110.13748,-7.43604],[110.13739,-7.43619],[110.13728,-7.4363],[110.13726,-7.43631],[110.1372,-7.43643],[110.1372,-7.43652],[110.13722,-7.4366],[110.13724,-7.43664],[110.13724,-7.43666],[110.13732,-7.4368],[110.13733,-7.43691],[110.13731,-7.43699],[110.13727,-7.43705],[110.1372,-7.4371],[110.13716,-7.43712],[110.13692,-7.43725],[110.13668,-7.43737],[110.1366,-7.43743],[110.13655,-7.43753],[110.13648,-7.43766],[110.13645,-7.43778],[110.13644,-7.43791],[110.13646,-7.43807],[110.13647,-7.4381],[110.1365,-7.43815],[110.13652,-7.43818],[110.13659,-7.43827],[110.13679,-7.4385],[110.13687,-7.43865],[110.13692,-7.43878],[110.13695,-7.4389],[110.13694,-7.43905],[110.13698,-7.43924],[110.137,-7.43935],[110.13701,-7.43937],[110.13708,-7.43958],[110.13714,-7.43969],[110.13722,-7.43978],[110.13728,-7.43982],[110.13736,-7.43986],[110.13753,-7.43987],[110.13757,-7.43986],[110.13777,-7.43985],[110.13796,-7.4398],[110.13798,-7.4398],[110.13813,-7.43978],[110.13815,-7.43977],[110.13816,-7.43977],[110.13852,-7.4396],[110.13863,-7.43956],[110.13873,-7.43955],[110.13887,-7.43955],[110.139,-7.43956],[110.13936,-7.43952],[110.13949,-7.43952],[110.13958,-7.43957],[110.13969,-7.43968],[110.13984,-7.43982],[110.13986,-7.43985],[110.13993,-7.43995],[110.14003,-7.4401],[110.14008,-7.44019],[110.14016,-7.44031],[110.14021,-7.44037],[110.14026,-7.44044],[110.14036,-7.44056],[110.14049,-7.44072],[110.14052,-7.44073],[110.14054,-7.44074],[110.14061,-7.44078],[110.1408,-7.44078],[110.14086,-7.44076],[110.14091,-7.44074],[110.14115,-7.44063],[110.14126,-7.44054],[110.14139,-7.44054],[110.14142,-7.44063],[110.14143,-7.44078],[110.14144,-7.4408],[110.14146,-7.44086],[110.14157,-7.44089],[110.14158,-7.4409],[110.14161,-7.4409],[110.14172,-7.44094],[110.14178,-7.441],[110.14183,-7.44109],[110.1419,-7.44119],[110.14192,-7.44122],[110.14213,-7.44131],[110.14225,-7.44131],[110.14238,-7.44127],[110.14243,-7.44125],[110.14254,-7.44119],[110.14286,-7.44102],[110.14299,-7.44095],[110.14308,-7.4409],[110.14329,-7.44078],[110.14336,-7.44063],[110.14347,-7.44053],[110.14354,-7.44053],[110.14363,-7.44059],[110.14373,-7.44074],[110.14375,-7.4408],[110.14375,-7.44081],[110.14377,-7.44082],[110.14393,-7.44089],[110.14412,-7.44094],[110.14432,-7.441],[110.14448,-7.44106],[110.14473,-7.44121],[110.14486,-7.44131],[110.14523,-7.44139],[110.14534,-7.44141],[110.14538,-7.44145],[110.1454,-7.44146],[110.14546,-7.44151],[110.14551,-7.44155],[110.14557,-7.44157],[110.14563,-7.44157],[110.14573,-7.44153],[110.14573,-7.44152],[110.14578,-7.44149],[110.14582,-7.44147],[110.14587,-7.44146],[110.14592,-7.44147],[110.14594,-7.44147],[110.14601,-7.4415],[110.14613,-7.44162],[110.14614,-7.44164],[110.14617,-7.44168],[110.14629,-7.44182],[110.14631,-7.44184],[110.14642,-7.44198],[110.14654,-7.44208],[110.1466,-7.44211],[110.14663,-7.44212],[110.1467,-7.44212],[110.14677,-7.44213],[110.14688,-7.44213],[110.14715,-7.4421],[110.14719,-7.44209],[110.14734,-7.44208],[110.14746,-7.44207],[110.14761,-7.44212],[110.14772,-7.44216],[110.14784,-7.44224],[110.14795,-7.44235],[110.14799,-7.44238],[110.14803,-7.44253],[110.14803,-7.44268],[110.14797,-7.44285],[110.14795,-7.44289],[110.14793,-7.44295],[110.14779,-7.44316],[110.14773,-7.44329],[110.14773,-7.44334],[110.14775,-7.44347],[110.14778,-7.44358],[110.14797,-7.44376],[110.14802,-7.44379],[110.1481,-7.44385],[110.14827,-7.44386],[110.14834,-7.44385],[110.14841,-7.44385],[110.14858,-7.44381],[110.14872,-7.44364],[110.14884,-7.44352],[110.14904,-7.4434],[110.14934,-7.44324],[110.14961,-7.4431],[110.14985,-7.44293],[110.14997,-7.44291],[110.15013,-7.44293],[110.15042,-7.44297],[110.15055,-7.44301],[110.15069,-7.44308],[110.1508,-7.44317],[110.15082,-7.44319],[110.15094,-7.44334],[110.15115,-7.44351],[110.15127,-7.44362],[110.15128,-7.44363],[110.15133,-7.44372],[110.15137,-7.44378],[110.15137,-7.44379],[110.15143,-7.44396],[110.15148,-7.44432],[110.15151,-7.4446],[110.15157,-7.44469],[110.15164,-7.44476],[110.15178,-7.4448],[110.15182,-7.44479],[110.15191,-7.44478],[110.15202,-7.44478],[110.15215,-7.44481],[110.1522,-7.44481],[110.15232,-7.44482],[110.1524,-7.44482],[110.15248,-7.44481],[110.1526,-7.4448],[110.15262,-7.4448],[110.15277,-7.44479],[110.15284,-7.4448],[110.15296,-7.44482],[110.153,-7.44483],[110.15311,-7.44487],[110.1533,-7.44494],[110.15337,-7.44504],[110.15344,-7.44519],[110.15344,-7.44523],[110.15347,-7.44537],[110.15347,-7.44579],[110.15343,-7.44599],[110.15339,-7.44609],[110.15324,-7.44616],[110.15323,-7.44616],[110.15309,-7.44623],[110.15304,-7.44638],[110.15305,-7.44648],[110.15307,-7.4465],[110.1531,-7.44654],[110.15324,-7.4466],[110.15335,-7.44661],[110.15342,-7.44666],[110.1536,-7.44676],[110.15381,-7.44688],[110.154,-7.447],[110.1542,-7.44715],[110.15436,-7.44723],[110.1545,-7.44723],[110.15462,-7.4472],[110.15473,-7.44717],[110.15502,-7.44721],[110.15533,-7.44729],[110.15536,-7.4473],[110.15541,-7.44733],[110.15552,-7.44739],[110.15563,-7.44752],[110.15568,-7.44756],[110.15576,-7.44763],[110.15586,-7.44769],[110.15594,-7.44768],[110.15603,-7.44752],[110.15608,-7.44734],[110.15614,-7.44724],[110.15626,-7.44719],[110.15641,-7.44719],[110.15648,-7.44725],[110.15651,-7.44733],[110.15651,-7.44746],[110.15652,-7.44763],[110.15656,-7.44775],[110.15663,-7.44799],[110.15667,-7.44815],[110.15669,-7.44827],[110.1567,-7.44832],[110.15681,-7.44852],[110.15688,-7.44862],[110.15704,-7.44873],[110.15726,-7.44877],[110.15747,-7.44869],[110.15762,-7.44863],[110.15766,-7.44861],[110.15767,-7.44861],[110.15763,-7.44855],[110.15762,-7.44854],[110.1576,-7.44847],[110.15761,-7.44845],[110.15761,-7.44838],[110.15762,-7.44834],[110.15762,-7.4483],[110.15763,-7.44825],[110.15764,-7.44823],[110.15768,-7.44811],[110.15772,-7.448],[110.15772,-7.44796],[110.15774,-7.44787],[110.15775,-7.44779],[110.15775,-7.44764],[110.15777,-7.44757],[110.1578,-7.44746],[110.1578,-7.44743],[110.15781,-7.4474],[110.15782,-7.44735],[110.15782,-7.44731],[110.15781,-7.44725],[110.1578,-7.44722],[110.15778,-7.44719],[110.15772,-7.44716],[110.15767,-7.44715],[110.15763,-7.44714],[110.15757,-7.44713],[110.15744,-7.44712],[110.15739,-7.44711],[110.15737,-7.4471],[110.1573,-7.44707],[110.15724,-7.44701],[110.15723,-7.44698],[110.15722,-7.44696],[110.15721,-7.44692],[110.1572,-7.44691],[110.15718,-7.44681],[110.15718,-7.4467],[110.15719,-7.44661],[110.15719,-7.44651],[110.1572,-7.44637],[110.1572,-7.44627],[110.15719,-7.44624],[110.15719,-7.44622],[110.15713,-7.44594],[110.15712,-7.4459],[110.15708,-7.44582],[110.15703,-7.44577],[110.157,-7.44576],[110.15694,-7.44573],[110.15693,-7.44572],[110.15682,-7.44567],[110.15675,-7.44562],[110.15669,-7.44559],[110.15668,-7.44558],[110.15665,-7.44554],[110.15657,-7.44544],[110.15652,-7.44538],[110.15649,-7.44535],[110.15649,-7.44534],[110.15646,-7.44526],[110.15644,-7.44523],[110.15643,-7.44523],[110.15643,-7.44522],[110.15642,-7.44521],[110.1564,-7.44518],[110.15633,-7.44511],[110.1563,-7.44507],[110.1562,-7.44497],[110.15615,-7.44487],[110.1561,-7.44479],[110.15607,-7.44473],[110.15607,-7.44472],[110.15605,-7.44468],[110.15604,-7.44463],[110.15604,-7.4446],[110.15603,-7.44456],[110.15601,-7.44454],[110.15599,-7.44454],[110.15597,-7.44455],[110.15592,-7.44459],[110.15588,-7.44464],[110.15583,-7.44466],[110.1558,-7.44468],[110.15571,-7.44469],[110.15559,-7.44469],[110.15554,-7.44467],[110.15539,-7.44459],[110.15537,-7.44457],[110.15527,-7.4445],[110.15526,-7.44449],[110.15518,-7.44442],[110.15512,-7.44436],[110.15508,-7.44428],[110.15507,-7.44425],[110.15506,-7.44421],[110.15505,-7.4441],[110.15507,-7.44401],[110.15512,-7.4439],[110.15514,-7.44386],[110.15514,-7.44385],[110.15523,-7.4437],[110.15524,-7.44368],[110.15526,-7.44363],[110.15528,-7.44355],[110.15528,-7.44348],[110.15527,-7.44345],[110.15526,-7.44343],[110.15516,-7.44329],[110.1551,-7.44319],[110.15499,-7.44302],[110.15488,-7.44284],[110.15488,-7.44283],[110.15487,-7.44281],[110.15485,-7.44279],[110.15484,-7.44276],[110.15482,-7.44273],[110.15477,-7.44268],[110.15474,-7.44266],[110.15472,-7.44266],[110.1547,-7.44265],[110.15467,-7.44264],[110.15453,-7.44264],[110.15442,-7.44268],[110.15431,-7.44274],[110.15429,-7.44276],[110.15422,-7.44281],[110.1542,-7.44282],[110.15413,-7.44288],[110.15402,-7.44301],[110.15399,-7.44304],[110.15394,-7.44305],[110.15391,-7.44304],[110.15387,-7.44297],[110.15377,-7.44276],[110.15373,-7.4427],[110.15365,-7.44255],[110.15364,-7.44254],[110.15358,-7.44242],[110.15353,-7.44238],[110.15346,-7.44235],[110.15342,-7.44234],[110.15339,-7.44232],[110.15314,-7.44227],[110.15306,-7.44225],[110.15304,-7.44224],[110.15295,-7.44221],[110.15282,-7.44214],[110.15273,-7.44209],[110.15266,-7.44203],[110.15262,-7.44196],[110.15261,-7.44192],[110.15261,-7.44168],[110.15263,-7.44143],[110.15263,-7.44127],[110.15262,-7.44122],[110.15262,-7.44118],[110.15261,-7.44113],[110.15259,-7.4411],[110.15256,-7.44105],[110.15253,-7.44101],[110.15248,-7.44096],[110.1524,-7.4409],[110.15239,-7.44088],[110.15234,-7.44085],[110.15228,-7.44082],[110.15214,-7.44078],[110.15206,-7.44076],[110.15192,-7.44074],[110.15167,-7.4407],[110.1515,-7.4407],[110.15142,-7.44069],[110.15121,-7.44069],[110.15109,-7.44068],[110.15098,-7.44068],[110.15096,-7.44067],[110.15095,-7.44067],[110.15091,-7.44065],[110.15082,-7.44062],[110.15074,-7.44058],[110.15071,-7.44054],[110.1507,-7.44051],[110.15066,-7.44046],[110.15063,-7.44043],[110.15063,-7.44042],[110.15061,-7.4404],[110.15059,-7.44039],[110.15059,-7.44038],[110.15058,-7.44037],[110.15056,-7.44037],[110.15055,-7.44036],[110.1505,-7.44032],[110.15046,-7.4403],[110.15043,-7.44028],[110.15037,-7.44025],[110.15036,-7.44024],[110.15034,-7.44023],[110.15028,-7.44019],[110.15026,-7.44017],[110.15023,-7.44015],[110.1502,-7.4401],[110.15018,-7.44006],[110.15015,-7.44001],[110.15015,-7.44],[110.15013,-7.43997],[110.15011,-7.43987],[110.15009,-7.43979],[110.1501,-7.43964],[110.1501,-7.43958],[110.15009,-7.43955],[110.15008,-7.43954],[110.15008,-7.43953],[110.15007,-7.43952],[110.15005,-7.43949],[110.15001,-7.43944],[110.14994,-7.43939],[110.1499,-7.43936],[110.14986,-7.43934],[110.14983,-7.43933],[110.14974,-7.43929],[110.14962,-7.43923],[110.14956,-7.43921],[110.14948,-7.43919],[110.14943,-7.43917],[110.14942,-7.43917],[110.14935,-7.43914],[110.14928,-7.4391],[110.14914,-7.43905],[110.1491,-7.43901],[110.14909,-7.43899],[110.14909,-7.43897],[110.14908,-7.43896],[110.14908,-7.43893],[110.14909,-7.43891],[110.14909,-7.43889],[110.14911,-7.43885],[110.14917,-7.43877],[110.1492,-7.43875],[110.14923,-7.43872],[110.14925,-7.43871],[110.14926,-7.43871],[110.14929,-7.43867],[110.14934,-7.43862],[110.14961,-7.43854],[110.14973,-7.43849],[110.14982,-7.4384],[110.14992,-7.43835],[110.15002,-7.43823],[110.15001,-7.43812],[110.14999,-7.43808],[110.14996,-7.438],[110.1499,-7.43788],[110.14995,-7.43772],[110.15021,-7.43745],[110.1503,-7.43742],[110.15042,-7.43737],[110.15055,-7.43737],[110.15066,-7.43752],[110.15076,-7.43763],[110.15084,-7.43766],[110.15087,-7.43735],[110.1509,-7.43728],[110.15094,-7.43723],[110.15097,-7.43719],[110.15098,-7.43719],[110.15108,-7.43712],[110.15121,-7.43702],[110.1515,-7.43669],[110.15156,-7.43648],[110.15156,-7.43609],[110.15152,-7.43549],[110.15152,-7.43499],[110.15158,-7.43468],[110.15159,-7.43462],[110.15166,-7.43435],[110.15167,-7.43432],[110.15193,-7.43385],[110.15195,-7.43381],[110.15203,-7.43369],[110.15221,-7.43341],[110.15249,-7.43309],[110.15259,-7.43297],[110.15261,-7.43296],[110.15301,-7.43252],[110.15346,-7.43207],[110.15349,-7.43203],[110.15366,-7.4316],[110.15367,-7.43158],[110.15389,-7.43098],[110.15403,-7.43007],[110.15405,-7.42995],[110.15421,-7.42907],[110.15422,-7.42902],[110.15425,-7.42886],[110.15431,-7.42853],[110.15433,-7.42841],[110.15442,-7.42794],[110.15443,-7.42785],[110.1546,-7.42659],[110.15485,-7.42496],[110.15499,-7.42424],[110.15536,-7.42365],[110.1556,-7.42321],[110.15563,-7.42318],[110.15571,-7.42309],[110.15641,-7.42241],[110.15645,-7.42236],[110.15654,-7.42227],[110.15756,-7.42128],[110.15777,-7.42107],[110.15901,-7.4196],[110.15908,-7.41952],[110.1591,-7.4195],[110.1602,-7.41734],[110.1602,-7.41732],[110.16105,-7.41538],[110.16126,-7.4159],[110.16171,-7.41702],[110.16178,-7.41758],[110.16182,-7.41783],[110.16192,-7.41856],[110.16202,-7.4192],[110.16204,-7.41932],[110.16206,-7.41943],[110.16223,-7.42038],[110.16227,-7.42044],[110.16242,-7.42065],[110.16245,-7.4207],[110.16252,-7.42083],[110.16253,-7.42099],[110.16252,-7.42111],[110.16251,-7.42126],[110.16253,-7.42158],[110.16283,-7.42267],[110.16299,-7.42361],[110.16299,-7.42362],[110.16309,-7.42427],[110.16323,-7.42454],[110.16331,-7.42469],[110.16348,-7.4247],[110.16396,-7.42472],[110.16428,-7.42474],[110.16454,-7.42482],[110.16474,-7.42494],[110.16509,-7.42516],[110.16524,-7.42525],[110.16528,-7.42527],[110.16558,-7.4254],[110.16575,-7.42547],[110.16582,-7.42549],[110.166,-7.42553],[110.16635,-7.42554],[110.16673,-7.42554],[110.16689,-7.42556],[110.1671,-7.42559],[110.1673,-7.42564],[110.1675,-7.42564],[110.16771,-7.42563],[110.16793,-7.42563],[110.16805,-7.42564],[110.16825,-7.42568],[110.1685,-7.42575],[110.16881,-7.42585],[110.16894,-7.42589],[110.16934,-7.42609],[110.16976,-7.42637],[110.16984,-7.42645],[110.17005,-7.42665],[110.17025,-7.42681],[110.17038,-7.42691],[110.17052,-7.42702],[110.17084,-7.42721],[110.17101,-7.42745],[110.17132,-7.42769],[110.17142,-7.42776],[110.17152,-7.42778],[110.17161,-7.42775],[110.17167,-7.42771],[110.1717,-7.4277],[110.17174,-7.42769],[110.17179,-7.42769],[110.17189,-7.42772],[110.17196,-7.4278],[110.17196,-7.42781],[110.17199,-7.42787],[110.17203,-7.42792],[110.17209,-7.42797],[110.1723,-7.42812],[110.17264,-7.4283],[110.17274,-7.42834],[110.17284,-7.42841],[110.17292,-7.42848],[110.17301,-7.42851],[110.17302,-7.42851],[110.17311,-7.42859],[110.17313,-7.42861],[110.17314,-7.42864],[110.17321,-7.42882],[110.1733,-7.42909],[110.1734,-7.42949],[110.17351,-7.42967],[110.17361,-7.42977],[110.17375,-7.42987],[110.17383,-7.42996],[110.17391,-7.43007],[110.17402,-7.43036],[110.17402,-7.4305],[110.1741,-7.43065],[110.17429,-7.4308],[110.17453,-7.43102],[110.17459,-7.4311],[110.1748,-7.43139],[110.17483,-7.43145],[110.1749,-7.43165],[110.17493,-7.43176],[110.17508,-7.43237],[110.17557,-7.43264],[110.17548,-7.43308],[110.17554,-7.43307],[110.17572,-7.43303],[110.17579,-7.43301],[110.17614,-7.43293],[110.17616,-7.43293],[110.17637,-7.43298],[110.17656,-7.43303],[110.17686,-7.4334],[110.17694,-7.43348],[110.17722,-7.43393],[110.1773,-7.43406],[110.17739,-7.43416],[110.17748,-7.43425],[110.17762,-7.43436],[110.17781,-7.43439],[110.17797,-7.43443],[110.17805,-7.43446],[110.17806,-7.43446],[110.17811,-7.4345],[110.17827,-7.43454],[110.17841,-7.4346],[110.17855,-7.43467],[110.17867,-7.43477],[110.1788,-7.43484],[110.17905,-7.43497],[110.17931,-7.43514],[110.17954,-7.43523],[110.18003,-7.43525],[110.18054,-7.43526],[110.181,-7.43525],[110.18171,-7.43526],[110.18186,-7.43531],[110.18205,-7.43552],[110.18227,-7.43571],[110.18248,-7.43588],[110.18258,-7.43594],[110.18268,-7.43599],[110.18293,-7.43617],[110.18313,-7.43624],[110.18314,-7.43625],[110.18335,-7.4364],[110.18363,-7.43662],[110.18377,-7.43675],[110.18395,-7.4368],[110.18416,-7.43696],[110.18435,-7.43701],[110.1845,-7.43702],[110.18462,-7.437],[110.18468,-7.43698],[110.1847,-7.43695],[110.18475,-7.43689],[110.18477,-7.43686],[110.18483,-7.43684],[110.18487,-7.43686],[110.18492,-7.43688],[110.18499,-7.43689],[110.18514,-7.43689],[110.1852,-7.43688],[110.18524,-7.43687],[110.1853,-7.43687],[110.18531,-7.43689],[110.18532,-7.43692],[110.18536,-7.43696],[110.18541,-7.43698],[110.18544,-7.43701],[110.18546,-7.43706],[110.18547,-7.43712],[110.18549,-7.43719],[110.18566,-7.43735],[110.18576,-7.43748],[110.18581,-7.43755],[110.18592,-7.43767],[110.18599,-7.43773],[110.18603,-7.43774],[110.18604,-7.43775],[110.18605,-7.43777],[110.18625,-7.43785],[110.18626,-7.43786],[110.18628,-7.43787],[110.18633,-7.43799],[110.18636,-7.43811],[110.18647,-7.43826],[110.18651,-7.43832],[110.18666,-7.43836],[110.1868,-7.43841],[110.18693,-7.43845],[110.18713,-7.43842],[110.18719,-7.43841],[110.18728,-7.43842],[110.18745,-7.43846],[110.18758,-7.43853],[110.18765,-7.43861],[110.1878,-7.43861],[110.18794,-7.43865],[110.18799,-7.43872],[110.18805,-7.4388],[110.18811,-7.43886],[110.18814,-7.43887],[110.18818,-7.43888],[110.18821,-7.43888],[110.18824,-7.43886],[110.18826,-7.43885],[110.18831,-7.43885],[110.18837,-7.43887],[110.18841,-7.43886],[110.18844,-7.43883],[110.18853,-7.4388],[110.18854,-7.43883],[110.18853,-7.43886],[110.18851,-7.43894],[110.18852,-7.43896],[110.18856,-7.43899],[110.18863,-7.43901],[110.18866,-7.43903],[110.18871,-7.43904],[110.18874,-7.43904],[110.18876,-7.43901],[110.18878,-7.43899],[110.18881,-7.43895],[110.18887,-7.43889],[110.18891,-7.43892],[110.18898,-7.43899],[110.18901,-7.43901],[110.18924,-7.43902],[110.18952,-7.43898],[110.18953,-7.43894],[110.18954,-7.43892],[110.18957,-7.43892],[110.18965,-7.43894],[110.18968,-7.43895],[110.18976,-7.43895],[110.18981,-7.43896],[110.18988,-7.43898],[110.19002,-7.43905],[110.19033,-7.43924],[110.19039,-7.43928],[110.19033,-7.43917],[110.19036,-7.43912],[110.19041,-7.4391],[110.19051,-7.43909],[110.1906,-7.43907],[110.19064,-7.43904],[110.19064,-7.43901],[110.19069,-7.43899],[110.1908,-7.43893],[110.19086,-7.43888],[110.19089,-7.43887],[110.19095,-7.43883],[110.191,-7.43879],[110.19104,-7.43872],[110.19106,-7.43863],[110.19113,-7.43857],[110.19105,-7.43851],[110.19097,-7.43842],[110.19094,-7.43839],[110.19081,-7.43828],[110.19088,-7.43806],[110.19105,-7.43796],[110.19125,-7.43775],[110.19142,-7.43748],[110.19156,-7.43724],[110.19176,-7.43686],[110.1919,-7.43654],[110.19203,-7.43626],[110.19213,-7.43576],[110.19227,-7.43527],[110.19229,-7.43483],[110.19234,-7.43465],[110.19246,-7.43459],[110.19255,-7.4343],[110.19257,-7.43397],[110.19278,-7.4334],[110.19291,-7.43301],[110.1929,-7.43283],[110.1929,-7.43281],[110.19291,-7.43247],[110.19291,-7.43211],[110.19298,-7.43207],[110.19303,-7.43207],[110.19314,-7.43206],[110.19316,-7.43204],[110.19319,-7.432],[110.19326,-7.43186],[110.19332,-7.43172],[110.19338,-7.4315],[110.19342,-7.43138],[110.19347,-7.43122],[110.19348,-7.43113],[110.1935,-7.43107],[110.19354,-7.43101],[110.19358,-7.43096],[110.19362,-7.43094],[110.19364,-7.43092],[110.19367,-7.43091],[110.19364,-7.43085],[110.19363,-7.43082],[110.19364,-7.43082],[110.19364,-7.43079],[110.19361,-7.43073],[110.19362,-7.43069],[110.19364,-7.43068],[110.19366,-7.43065],[110.19367,-7.43062],[110.1937,-7.43059],[110.19373,-7.43059],[110.19375,-7.43058],[110.19376,-7.43055],[110.19378,-7.4305],[110.19381,-7.43046],[110.19384,-7.43044],[110.19387,-7.43037],[110.19387,-7.4303],[110.19378,-7.43027],[110.19371,-7.43023],[110.1937,-7.43022],[110.19366,-7.43016],[110.19365,-7.43012],[110.19366,-7.43009],[110.19375,-7.43003],[110.19381,-7.43002],[110.19384,-7.43002],[110.19393,-7.43003],[110.19399,-7.43005],[110.19407,-7.43001],[110.19408,-7.42996],[110.19408,-7.4298],[110.19411,-7.42974],[110.19423,-7.42969],[110.19427,-7.42968],[110.1943,-7.42966],[110.19432,-7.42963],[110.19433,-7.42961],[110.19434,-7.42957],[110.19435,-7.42951],[110.19437,-7.42947],[110.19441,-7.42943],[110.19444,-7.42941],[110.19445,-7.42939],[110.19445,-7.42937],[110.19435,-7.42937],[110.19433,-7.42935],[110.19431,-7.42931],[110.1943,-7.42927],[110.19429,-7.42922],[110.19429,-7.42919],[110.19443,-7.42897],[110.19449,-7.42886],[110.19456,-7.42882],[110.19465,-7.42871],[110.1947,-7.42865],[110.19472,-7.42859],[110.19472,-7.42854],[110.1947,-7.42845],[110.1947,-7.42836],[110.19475,-7.42832],[110.19479,-7.42826],[110.19481,-7.42818],[110.19482,-7.42813],[110.1948,-7.42809],[110.19475,-7.428],[110.19469,-7.42795],[110.19468,-7.42795],[110.19467,-7.42789],[110.19461,-7.42783],[110.19454,-7.42772],[110.19454,-7.42762],[110.19457,-7.42755],[110.19461,-7.42746],[110.19461,-7.42742],[110.19459,-7.42729],[110.19462,-7.42717],[110.19474,-7.42717],[110.19483,-7.42712],[110.1949,-7.42707],[110.19496,-7.42703],[110.19508,-7.42698],[110.19519,-7.42696],[110.19525,-7.42694],[110.19553,-7.42686],[110.19571,-7.42682],[110.19591,-7.42676],[110.19634,-7.42662],[110.19666,-7.42649],[110.19711,-7.42626],[110.19751,-7.42608],[110.19763,-7.42602],[110.19778,-7.42593],[110.19788,-7.42586],[110.19796,-7.42577],[110.19804,-7.42569],[110.19827,-7.42534],[110.19844,-7.42502],[110.1985,-7.42491],[110.19858,-7.42476],[110.19866,-7.42463],[110.19872,-7.42446],[110.19884,-7.42425],[110.19888,-7.4241],[110.19887,-7.42402],[110.19885,-7.42394],[110.19884,-7.42387],[110.19884,-7.42383],[110.19902,-7.42361],[110.1992,-7.42353],[110.19931,-7.42351],[110.19948,-7.42347],[110.19958,-7.42339],[110.19963,-7.42325],[110.19967,-7.42324],[110.1997,-7.42324],[110.19975,-7.42319],[110.19978,-7.42317],[110.19989,-7.42314],[110.19998,-7.42309],[110.20007,-7.42303],[110.20017,-7.42297],[110.20026,-7.42295],[110.20035,-7.42291],[110.20041,-7.4229],[110.20045,-7.4229],[110.20051,-7.42292],[110.20062,-7.42299],[110.20072,-7.42306],[110.20075,-7.42309],[110.2008,-7.42316],[110.20084,-7.42318],[110.2009,-7.42316],[110.20094,-7.42317],[110.201,-7.42321],[110.20108,-7.42333],[110.20106,-7.42343],[110.20107,-7.42354],[110.2011,-7.42361],[110.20115,-7.42368],[110.20119,-7.42373],[110.20122,-7.42376],[110.20121,-7.4238],[110.20118,-7.42385],[110.20117,-7.42387],[110.20118,-7.4239],[110.20118,-7.42392],[110.20125,-7.42396],[110.20127,-7.42398],[110.20137,-7.42403],[110.20144,-7.424],[110.20151,-7.42393],[110.20156,-7.42395],[110.20161,-7.42404],[110.20162,-7.42412],[110.2016,-7.42422],[110.20157,-7.4243],[110.20157,-7.42431],[110.20156,-7.42438],[110.20162,-7.42445],[110.20174,-7.42452],[110.2018,-7.42456],[110.20184,-7.42464],[110.20185,-7.42467],[110.20186,-7.42472],[110.20191,-7.4248],[110.20197,-7.42484],[110.20203,-7.42486],[110.20208,-7.42486],[110.20213,-7.42485],[110.20217,-7.42486],[110.20223,-7.42487],[110.20226,-7.42489],[110.20232,-7.4249],[110.20242,-7.42491],[110.20254,-7.4249],[110.20264,-7.42486],[110.20272,-7.42485],[110.20283,-7.42481],[110.20291,-7.4248],[110.20295,-7.42481],[110.20299,-7.42486],[110.20306,-7.42497],[110.20307,-7.42507],[110.20304,-7.42518],[110.20304,-7.42537],[110.20307,-7.42545],[110.2031,-7.42548],[110.20316,-7.42555],[110.2032,-7.4256],[110.20321,-7.42561],[110.20323,-7.42567],[110.20321,-7.42576],[110.20322,-7.42585],[110.20322,-7.42588],[110.20325,-7.42589],[110.20332,-7.42595],[110.20339,-7.42604],[110.20342,-7.42607],[110.2035,-7.42614],[110.2036,-7.42619],[110.20365,-7.42619],[110.20367,-7.42617],[110.20375,-7.42607],[110.20382,-7.42593],[110.20388,-7.42585],[110.20392,-7.42582],[110.20396,-7.4258],[110.20401,-7.4258],[110.20405,-7.42583],[110.20408,-7.42591],[110.20413,-7.42602],[110.20418,-7.42614],[110.20419,-7.42621],[110.2042,-7.42624],[110.20426,-7.42632],[110.20437,-7.42642],[110.20449,-7.42646],[110.20462,-7.42646],[110.20468,-7.42638],[110.2047,-7.42627],[110.20471,-7.4262],[110.20477,-7.4261],[110.20481,-7.42603],[110.20488,-7.42604],[110.20496,-7.42606],[110.205,-7.4261],[110.20507,-7.42618],[110.20512,-7.42634],[110.20512,-7.42654],[110.20511,-7.42673],[110.20513,-7.42684],[110.20518,-7.42695],[110.20521,-7.42703],[110.2054,-7.42727],[110.20551,-7.42741],[110.2056,-7.42749],[110.20566,-7.42752],[110.20573,-7.42754],[110.20586,-7.42754],[110.20601,-7.42749],[110.20616,-7.42741],[110.2063,-7.42737],[110.20643,-7.42735],[110.20657,-7.42735],[110.20665,-7.42739],[110.20671,-7.42745],[110.20676,-7.42749],[110.20678,-7.42751],[110.20686,-7.42755],[110.20709,-7.42757],[110.20723,-7.42757],[110.20737,-7.42758],[110.20755,-7.42763],[110.20772,-7.42776],[110.20787,-7.42791],[110.20794,-7.42797],[110.20798,-7.42802],[110.20799,-7.42809],[110.20799,-7.42814],[110.208,-7.42819],[110.20802,-7.42825],[110.20804,-7.4283],[110.20807,-7.42838],[110.20808,-7.42838],[110.2081,-7.42842],[110.20814,-7.42844],[110.20822,-7.42845],[110.20826,-7.42846],[110.2083,-7.42846],[110.20839,-7.42845],[110.20851,-7.4284],[110.20856,-7.4284],[110.20868,-7.42843],[110.20891,-7.42858],[110.20919,-7.42876],[110.20933,-7.42888],[110.20936,-7.42896],[110.20936,-7.429],[110.20932,-7.42911],[110.20927,-7.42927],[110.20924,-7.42942],[110.20924,-7.42958],[110.20922,-7.42978],[110.20924,-7.42987],[110.20927,-7.42996],[110.20933,-7.43001],[110.20937,-7.43003],[110.20947,-7.43005],[110.20985,-7.43006],[110.21008,-7.43005],[110.21036,-7.42994],[110.21042,-7.42992],[110.21063,-7.42977],[110.21082,-7.42969],[110.21099,-7.42963],[110.21105,-7.42963],[110.21113,-7.42965],[110.2112,-7.42967],[110.21134,-7.42976],[110.2114,-7.42985],[110.21143,-7.4299],[110.21141,-7.42996],[110.21139,-7.42999],[110.21139,-7.43004],[110.21138,-7.43007],[110.21138,-7.43009],[110.21139,-7.43012],[110.2114,-7.43016],[110.21144,-7.4302],[110.21152,-7.43022],[110.21161,-7.43025],[110.21166,-7.43027],[110.21196,-7.43028],[110.21207,-7.43029],[110.21218,-7.43032],[110.21224,-7.43036],[110.21225,-7.43041],[110.2122,-7.43055],[110.21216,-7.43068],[110.21216,-7.43071],[110.21215,-7.43083],[110.21216,-7.43103],[110.21216,-7.43124],[110.21218,-7.43137],[110.21224,-7.43147],[110.2123,-7.43159],[110.21235,-7.43165],[110.21241,-7.43171],[110.21244,-7.43173],[110.21247,-7.43174],[110.21252,-7.43174],[110.21255,-7.4317],[110.21262,-7.43166],[110.21268,-7.43161],[110.21272,-7.43157],[110.2128,-7.43153],[110.21288,-7.43151],[110.21296,-7.43151],[110.21321,-7.43157],[110.21366,-7.43168],[110.21381,-7.43172],[110.2139,-7.43177],[110.21391,-7.43181],[110.21391,-7.43188],[110.21388,-7.43202],[110.21388,-7.43211],[110.21393,-7.43221],[110.21408,-7.43233],[110.21424,-7.43247],[110.21433,-7.43253],[110.21442,-7.4327],[110.21456,-7.4329],[110.21468,-7.433],[110.21476,-7.43307],[110.21503,-7.43326],[110.21512,-7.43335],[110.21528,-7.43358],[110.21537,-7.43377],[110.21541,-7.4332],[110.21562,-7.4326],[110.21588,-7.43217],[110.21623,-7.43169],[110.21648,-7.43143],[110.21662,-7.4313],[110.21676,-7.43125],[110.21681,-7.43125],[110.21708,-7.43127],[110.21725,-7.43128],[110.21737,-7.43121],[110.21742,-7.43105],[110.21741,-7.43086],[110.21735,-7.43067],[110.21715,-7.43049],[110.21691,-7.43031],[110.21666,-7.43023],[110.21632,-7.43013],[110.21595,-7.43005],[110.21553,-7.43004],[110.21529,-7.43004],[110.21502,-7.43003],[110.2141,-7.43001],[110.21371,-7.42997],[110.21325,-7.42983],[110.21299,-7.4295],[110.21296,-7.42939],[110.21291,-7.42916],[110.21287,-7.4289],[110.21286,-7.42864],[110.21285,-7.42849],[110.21283,-7.428],[110.21282,-7.42763],[110.21283,-7.42737],[110.21284,-7.42722],[110.21285,-7.42682],[110.21293,-7.42617],[110.21295,-7.42603],[110.21325,-7.42535],[110.21337,-7.42512],[110.21359,-7.42466],[110.21375,-7.42447],[110.21397,-7.42406],[110.21419,-7.42357],[110.21426,-7.4234],[110.21429,-7.42286],[110.21427,-7.42282],[110.21391,-7.42223],[110.21384,-7.4221],[110.21365,-7.42169],[110.21327,-7.421],[110.21325,-7.42096],[110.21299,-7.42039],[110.21296,-7.42031],[110.21275,-7.41983],[110.21274,-7.41974],[110.21271,-7.41956],[110.21269,-7.41939],[110.21279,-7.41923],[110.21291,-7.41905],[110.21322,-7.41852],[110.21359,-7.41803],[110.21376,-7.41769],[110.21389,-7.41728],[110.21389,-7.41727],[110.21398,-7.41684],[110.214,-7.41666],[110.21405,-7.41623],[110.21401,-7.41575],[110.214,-7.41573],[110.21395,-7.41558],[110.21393,-7.41554],[110.21385,-7.41533],[110.21384,-7.41527],[110.21368,-7.4148],[110.21366,-7.41475],[110.21365,-7.41462],[110.21363,-7.41439],[110.21368,-7.41379],[110.21372,-7.41343],[110.21397,-7.41284],[110.21451,-7.41193],[110.21471,-7.4115],[110.21478,-7.41108],[110.21478,-7.41107],[110.21483,-7.41043],[110.21492,-7.4101],[110.21495,-7.41001],[110.21496,-7.41],[110.21519,-7.40963],[110.21523,-7.40958],[110.21549,-7.40922],[110.21559,-7.40904],[110.21575,-7.40871],[110.2159,-7.40828],[110.21618,-7.40774],[110.21639,-7.40715],[110.21653,-7.40662],[110.21655,-7.4065],[110.21655,-7.40548],[110.21645,-7.40514],[110.21636,-7.40484],[110.21616,-7.40432],[110.21596,-7.40388],[110.21567,-7.40327],[110.21554,-7.40305],[110.21552,-7.40302],[110.21532,-7.40265],[110.21525,-7.40248],[110.21514,-7.40221],[110.21512,-7.40217],[110.21508,-7.40215],[110.21471,-7.40197],[110.21468,-7.40216],[110.21453,-7.40396],[110.2137,-7.4023],[110.21338,-7.40149],[110.21275,-7.39991],[110.21232,-7.39905],[110.21217,-7.3984],[110.2123,-7.39791],[110.21257,-7.39704],[110.21301,-7.39609],[110.21331,-7.3954],[110.21347,-7.39504],[110.21366,-7.39434],[110.21375,-7.3936],[110.21375,-7.39189],[110.21381,-7.39106],[110.21408,-7.39046],[110.21344,-7.39029],[110.21277,-7.39029],[110.21225,-7.39068],[110.21177,-7.39158],[110.21135,-7.39174],[110.21077,-7.39173],[110.20967,-7.39119],[110.20877,-7.3907],[110.20823,-7.39019],[110.20794,-7.38935],[110.20775,-7.38897],[110.2072,-7.38855],[110.20696,-7.38812],[110.20672,-7.38768],[110.20624,-7.3873],[110.20568,-7.38728],[110.2051,-7.38731],[110.20459,-7.38709],[110.20414,-7.38654],[110.20372,-7.38606],[110.20333,-7.38603],[110.20301,-7.38606],[110.20282,-7.38596],[110.20276,-7.38561],[110.20272,-7.38506],[110.20205,-7.38474],[110.20141,-7.38458],[110.20099,-7.38416],[110.20054,-7.38384],[110.20006,-7.38368],[110.19945,-7.38368],[110.19903,-7.38348],[110.1989,-7.38342],[110.19851,-7.38294],[110.19839,-7.38282],[110.19787,-7.38229],[110.19684,-7.38142],[110.19543,-7.38094],[110.195,-7.38089],[110.19456,-7.38084],[110.19385,-7.38139],[110.19343,-7.38219],[110.19317,-7.38299],[110.19301,-7.38305],[110.19272,-7.38315],[110.19171,-7.38347],[110.19078,-7.38421],[110.19184,-7.3844],[110.19251,-7.38469],[110.19267,-7.38537],[110.19264,-7.38582],[110.19229,-7.38588],[110.19174,-7.38569],[110.19116,-7.38546],[110.19061,-7.38546],[110.19007,-7.38581],[110.1901,-7.38609],[110.19019,-7.38677],[110.18971,-7.38751],[110.18877,-7.38809],[110.18791,-7.38809],[110.18697,-7.38767],[110.18656,-7.3868],[110.18627,-7.38616],[110.18614,-7.38577],[110.18582,-7.38565],[110.18562,-7.38566],[110.18516,-7.38572],[110.1847,-7.38554],[110.18423,-7.38498],[110.18354,-7.38472],[110.18287,-7.38458],[110.18218,-7.3844],[110.18093,-7.38421],[110.18066,-7.38428],[110.18019,-7.38441],[110.17957,-7.38439],[110.17906,-7.38404],[110.17843,-7.38333],[110.17834,-7.38322],[110.17726,-7.38253],[110.17686,-7.38226],[110.17613,-7.38202],[110.17446,-7.3819],[110.17353,-7.3819],[110.17277,-7.38195],[110.17215,-7.38204],[110.17124,-7.38217],[110.17119,-7.3822],[110.17081,-7.38238],[110.17072,-7.3824],[110.17047,-7.38246],[110.17012,-7.38273],[110.16954,-7.38303],[110.16904,-7.38311],[110.16864,-7.38316],[110.16847,-7.38321],[110.16818,-7.3833],[110.16762,-7.38379],[110.16669,-7.38465],[110.16599,-7.38496],[110.16533,-7.38495],[110.16528,-7.38493],[110.16527,-7.38493],[110.165,-7.38483],[110.16457,-7.38481],[110.16434,-7.38495],[110.16371,-7.38495],[110.16331,-7.38493],[110.16317,-7.38494],[110.16269,-7.38516],[110.16223,-7.3854],[110.16204,-7.38547],[110.16135,-7.38577],[110.16105,-7.38595],[110.16049,-7.38623],[110.16009,-7.38644],[110.15977,-7.38658],[110.15942,-7.38674],[110.15906,-7.38676],[110.15833,-7.38666],[110.15795,-7.38656],[110.15752,-7.38635],[110.15703,-7.38619],[110.15584,-7.38593],[110.15503,-7.3857],[110.15484,-7.38565],[110.15467,-7.38561],[110.15428,-7.38552],[110.15411,-7.38552],[110.15393,-7.38559],[110.15364,-7.38571],[110.15304,-7.3859],[110.15283,-7.38595],[110.15247,-7.38609],[110.15187,-7.38626],[110.15137,-7.38626],[110.15101,-7.38623],[110.15058,-7.38607],[110.15008,-7.38569],[110.14945,-7.38535],[110.1487,-7.38511],[110.148,-7.38506],[110.14712,-7.38501],[110.14683,-7.38504],[110.14633,-7.38496],[110.14576,-7.38482],[110.14511,-7.38462],[110.14491,-7.38467],[110.14447,-7.38486],[110.14446,-7.38486],[110.14445,-7.38487],[110.14431,-7.385],[110.14401,-7.38537],[110.14349,-7.38559],[110.14286,-7.38563],[110.14236,-7.38559],[110.14223,-7.38559],[110.142,-7.38561],[110.14151,-7.38576],[110.14075,-7.38598],[110.14054,-7.38613],[110.14031,-7.38647],[110.13999,-7.38691],[110.13962,-7.38711],[110.13917,-7.38723],[110.13875,-7.38752],[110.13822,-7.38794],[110.13815,-7.38797],[110.13789,-7.38805],[110.13745,-7.38813],[110.13698,-7.38805],[110.13683,-7.38796],[110.13634,-7.38767],[110.13603,-7.38767],[110.13581,-7.38771],[110.13549,-7.38789],[110.13534,-7.3881],[110.1353,-7.38815],[110.13513,-7.38834],[110.13431,-7.38834],[110.13397,-7.38832],[110.13368,-7.38838],[110.13337,-7.38844],[110.13322,-7.38846],[110.13279,-7.38843],[110.13255,-7.38807],[110.1325,-7.38799],[110.13195,-7.38725],[110.13143,-7.38684],[110.1307,-7.38646],[110.1301,-7.38616],[110.1293,-7.38616],[110.12888,-7.38596],[110.12817,-7.38585],[110.1274,-7.3858],[110.12657,-7.38585],[110.12621,-7.3857],[110.12605,-7.38556],[110.12575,-7.38531],[110.12547,-7.38516],[110.12538,-7.38477],[110.12536,-7.38453],[110.12522,-7.38437],[110.12489,-7.38406],[110.12412,-7.38373],[110.12371,-7.38347],[110.12301,-7.38365],[110.12215,-7.3838],[110.12154,-7.38372],[110.12119,-7.38374],[110.12101,-7.38378],[110.12078,-7.3839],[110.1206,-7.38406],[110.12016,-7.38405],[110.12006,-7.38408],[110.11963,-7.38414],[110.11958,-7.38419],[110.11934,-7.38445],[110.11871,-7.38474],[110.11746,-7.38498],[110.11613,-7.38522],[110.11479,-7.38541],[110.11396,-7.38544],[110.11305,-7.38531],[110.11228,-7.38512],[110.11153,-7.38493],[110.111,-7.38491],[110.11029,-7.38498],[110.10949,-7.38523],[110.10849,-7.38557],[110.10767,-7.38574],[110.10609,-7.38574],[110.10569,-7.38576],[110.10498,-7.38588],[110.10439,-7.38583],[110.10393,-7.38573],[110.10315,-7.38539],[110.10277,-7.38527],[110.10232,-7.38511],[110.10144,-7.38511],[110.10106,-7.38513],[110.10033,-7.38538],[110.09977,-7.38554],[110.09936,-7.38545],[110.09881,-7.38523],[110.0983,-7.38519],[110.09761,-7.38521],[110.09705,-7.38523],[110.09635,-7.3854],[110.09537,-7.38542],[110.09449,-7.38542],[110.09335,-7.38505],[110.09256,-7.38498],[110.09136,-7.38503],[110.09035,-7.385],[110.08969,-7.38485],[110.089,-7.38453],[110.08798,-7.38404],[110.08702,-7.3835],[110.08631,-7.38341],[110.08539,-7.38329],[110.08436,-7.38335],[110.08378,-7.38347],[110.08316,-7.38355],[110.08276,-7.38355],[110.08217,-7.38364],[110.08134,-7.38358],[110.08042,-7.38335],[110.07949,-7.38291],[110.07913,-7.38261],[110.07872,-7.38227],[110.07813,-7.38206],[110.07795,-7.38211],[110.07736,-7.3825],[110.07677,-7.38301],[110.07603,-7.38363]]]}}]}